{
"type": "FeatureCollection",
"name": "country-labels",
"crs": { "type": "name", "properties": { "name": "urn:ogc:def:crs:OGC:1.3:CRS84" } },
"xy_coordinate_resolution": 0.001,
"features": [
{ "type": "Feature", "properties": { "name": "Indonesia", "min_label": 1.7, "labelrank": 2, "adm0_a3": "IDN" }, "geometry": { "type": "Point", "coordinates": [ 101.893, -0.954 ] } },
{ "type": "Feature", "properties": { "name": "Malaysia", "min_label": 3.0, "labelrank": 3, "adm0_a3": "MYS" }, "geometry": { "type": "Point", "coordinates": [ 113.837, 2.529 ] } },
{ "type": "Feature", "properties": { "name": "Chile", "min_label": 1.7, "labelrank": 2, "adm0_a3": "CHL" }, "geometry": { "type": "Point", "coordinates": [ -72.319, -38.152 ] } },
{ "type": "Feature", "properties": { "name": "Bolivia", "min_label": 3.0, "labelrank": 3, "adm0_a3": "BOL" }, "geometry": { "type": "Point", "coordinates": [ -64.593, -16.666 ] } },
{ "type": "Feature", "properties": { "name": "Peru", "min_label": 2.0, "labelrank": 2, "adm0_a3": "PER" }, "geometry": { "type": "Point", "coordinates": [ -72.9, -12.977 ] } },
{ "type": "Feature", "properties": { "name": "Argentina", "min_label": 2.0, "labelrank": 2, "adm0_a3": "ARG" }, "geometry": { "type": "Point", "coordinates": [ -64.173, -33.501 ] } },
{ "type": "Feature", "properties": { "name": "Dhekelia Cantonment", "min_label": 6.5, "labelrank": 3, "adm0_a3": "ESB" }, "geometry": { "type": "Point", "coordinates": [ 33.791, 35.011 ] } },
{ "type": "Feature", "properties": { "name": "Cyprus", "min_label": 4.5, "labelrank": 5, "adm0_a3": "CYP" }, "geometry": { "type": "Point", "coordinates": [ 33.084, 34.913 ] } },
{ "type": "Feature", "properties": { "name": "India", "min_label": 1.7, "labelrank": 2, "adm0_a3": "IND" }, "geometry": { "type": "Point", "coordinates": [ 79.358, 22.687 ] } },
{ "type": "Feature", "properties": { "name": "People's Republic of China", "min_label": 1.7, "labelrank": 2, "adm0_a3": "CHN" }, "geometry": { "type": "Point", "coordinates": [ 106.337, 32.498 ] } },
{ "type": "Feature", "properties": { "name": "Israel", "min_label": 3.0, "labelrank": 4, "adm0_a3": "ISR" }, "geometry": { "type": "Point", "coordinates": [ 34.848, 30.911 ] } },
{ "type": "Feature", "properties": { "name": "Palestine", "min_label": 4.5, "labelrank": 5, "adm0_a3": "PSX" }, "geometry": { "type": "Point", "coordinates": [ 35.291, 32.047 ] } },
{ "type": "Feature", "properties": { "name": "Lebanon", "min_label": 4.0, "labelrank": 5, "adm0_a3": "LBN" }, "geometry": { "type": "Point", "coordinates": [ 35.993, 34.133 ] } },
{ "type": "Feature", "properties": { "name": "Ethiopia", "min_label": 2.0, "labelrank": 2, "adm0_a3": "ETH" }, "geometry": { "type": "Point", "coordinates": [ 39.089, 8.033 ] } },
{ "type": "Feature", "properties": { "name": "South Sudan", "min_label": 3.0, "labelrank": 3, "adm0_a3": "SDS" }, "geometry": { "type": "Point", "coordinates": [ 30.39, 7.23 ] } },
{ "type": "Feature", "properties": { "name": "Somalia", "min_label": 4.0, "labelrank": 6, "adm0_a3": "SOM" }, "geometry": { "type": "Point", "coordinates": [ 45.192, 3.569 ] } },
{ "type": "Feature", "properties": { "name": "Kenya", "min_label": 1.7, "labelrank": 2, "adm0_a3": "KEN" }, "geometry": { "type": "Point", "coordinates": [ 37.908, 0.549 ] } },
{ "type": "Feature", "properties": { "name": "Malawi", "min_label": 4.0, "labelrank": 6, "adm0_a3": "MWI" }, "geometry": { "type": "Point", "coordinates": [ 33.608, -13.387 ] } },
{ "type": "Feature", "properties": { "name": "Tanzania", "min_label": 3.0, "labelrank": 3, "adm0_a3": "TZA" }, "geometry": { "type": "Point", "coordinates": [ 34.959, -6.052 ] } },
{ "type": "Feature", "properties": { "name": "Syria", "min_label": 3.0, "labelrank": 3, "adm0_a3": "SYR" }, "geometry": { "type": "Point", "coordinates": [ 38.278, 35.007 ] } },
{ "type": "Feature", "properties": { "name": "Somaliland", "min_label": 4.5, "labelrank": 5, "adm0_a3": "SOL" }, "geometry": { "type": "Point", "coordinates": [ 46.732, 9.444 ] } },
{ "type": "Feature", "properties": { "name": "France", "min_label": 1.7, "labelrank": 2, "adm0_a3": "FRA" }, "geometry": { "type": "Point", "coordinates": [ 2.552, 46.696 ] } },
{ "type": "Feature", "properties": { "name": "Suriname", "min_label": 4.0, "labelrank": 4, "adm0_a3": "SUR" }, "geometry": { "type": "Point", "coordinates": [ -55.911, 4.144 ] } },
{ "type": "Feature", "properties": { "name": "Guyana", "min_label": 4.0, "labelrank": 4, "adm0_a3": "GUY" }, "geometry": { "type": "Point", "coordinates": [ -58.943, 5.124 ] } },
{ "type": "Feature", "properties": { "name": "South Korea", "min_label": 2.5, "labelrank": 2, "adm0_a3": "KOR" }, "geometry": { "type": "Point", "coordinates": [ 128.13, 36.385 ] } },
{ "type": "Feature", "properties": { "name": "North Korea", "min_label": 3.0, "labelrank": 3, "adm0_a3": "PRK" }, "geometry": { "type": "Point", "coordinates": [ 126.445, 39.885 ] } },
{ "type": "Feature", "properties": { "name": "Morocco", "min_label": 2.7, "labelrank": 3, "adm0_a3": "MAR" }, "geometry": { "type": "Point", "coordinates": [ -7.187, 31.651 ] } },
{ "type": "Feature", "properties": { "name": "Western Sahara", "min_label": 6.0, "labelrank": 7, "adm0_a3": "SAH" }, "geometry": { "type": "Point", "coordinates": [ -12.63, 23.968 ] } },
{ "type": "Feature", "properties": { "name": "Costa Rica", "min_label": 2.5, "labelrank": 5, "adm0_a3": "CRI" }, "geometry": { "type": "Point", "coordinates": [ -84.078, 10.065 ] } },
{ "type": "Feature", "properties": { "name": "Nicaragua", "min_label": 4.0, "labelrank": 5, "adm0_a3": "NIC" }, "geometry": { "type": "Point", "coordinates": [ -85.069, 12.671 ] } },
{ "type": "Feature", "properties": { "name": "Republic of the Congo", "min_label": 4.0, "labelrank": 4, "adm0_a3": "COG" }, "geometry": { "type": "Point", "coordinates": [ 15.9, 0.142 ] } },
{ "type": "Feature", "properties": { "name": "Democratic Republic of the Congo", "min_label": 2.0, "labelrank": 2, "adm0_a3": "COD" }, "geometry": { "type": "Point", "coordinates": [ 23.459, -1.858 ] } },
{ "type": "Feature", "properties": { "name": "Bhutan", "min_label": 4.0, "labelrank": 5, "adm0_a3": "BTN" }, "geometry": { "type": "Point", "coordinates": [ 90.04, 27.537 ] } },
{ "type": "Feature", "properties": { "name": "Ukraine", "min_label": 2.7, "labelrank": 3, "adm0_a3": "UKR" }, "geometry": { "type": "Point", "coordinates": [ 32.141, 49.725 ] } },
{ "type": "Feature", "properties": { "name": "Belarus", "min_label": 3.0, "labelrank": 4, "adm0_a3": "BLR" }, "geometry": { "type": "Point", "coordinates": [ 28.418, 53.822 ] } },
{ "type": "Feature", "properties": { "name": "Namibia", "min_label": 3.0, "labelrank": 3, "adm0_a3": "NAM" }, "geometry": { "type": "Point", "coordinates": [ 17.108, -20.575 ] } },
{ "type": "Feature", "properties": { "name": "South Africa", "min_label": 1.7, "labelrank": 2, "adm0_a3": "ZAF" }, "geometry": { "type": "Point", "coordinates": [ 23.666, -29.709 ] } },
{ "type": "Feature", "properties": { "name": "Saint Martin", "min_label": 5.0, "labelrank": 6, "adm0_a3": "MAF" }, "geometry": { "type": "Point", "coordinates": [ -63.049, 18.081 ] } },
{ "type": "Feature", "properties": { "name": "Sint Maarten", "min_label": 5.0, "labelrank": 6, "adm0_a3": "SXM" }, "geometry": { "type": "Point", "coordinates": [ -63.07, 18.041 ] } },
{ "type": "Feature", "properties": { "name": "Oman", "min_label": 4.0, "labelrank": 4, "adm0_a3": "OMN" }, "geometry": { "type": "Point", "coordinates": [ 57.337, 22.12 ] } },
{ "type": "Feature", "properties": { "name": "Uzbekistan", "min_label": 3.0, "labelrank": 3, "adm0_a3": "UZB" }, "geometry": { "type": "Point", "coordinates": [ 64.005, 41.694 ] } },
{ "type": "Feature", "properties": { "name": "Kazakhstan", "min_label": 2.7, "labelrank": 3, "adm0_a3": "KAZ" }, "geometry": { "type": "Point", "coordinates": [ 68.686, 49.054 ] } },
{ "type": "Feature", "properties": { "name": "Tajikistan", "min_label": 4.0, "labelrank": 4, "adm0_a3": "TJK" }, "geometry": { "type": "Point", "coordinates": [ 72.587, 38.2 ] } },
{ "type": "Feature", "properties": { "name": "Lithuania", "min_label": 4.0, "labelrank": 5, "adm0_a3": "LTU" }, "geometry": { "type": "Point", "coordinates": [ 24.09, 55.104 ] } },
{ "type": "Feature", "properties": { "name": "Brazil", "min_label": 1.7, "labelrank": 2, "adm0_a3": "BRA" }, "geometry": { "type": "Point", "coordinates": [ -49.559, -12.099 ] } },
{ "type": "Feature", "properties": { "name": "Uruguay", "min_label": 3.0, "labelrank": 4, "adm0_a3": "URY" }, "geometry": { "type": "Point", "coordinates": [ -55.967, -32.961 ] } },
{ "type": "Feature", "properties": { "name": "Mongolia", "min_label": 3.0, "labelrank": 3, "adm0_a3": "MNG" }, "geometry": { "type": "Point", "coordinates": [ 104.15, 45.997 ] } },
{ "type": "Feature", "properties": { "name": "Russia", "min_label": 1.7, "labelrank": 2, "adm0_a3": "RUS" }, "geometry": { "type": "Point", "coordinates": [ 44.686, 58.249 ] } },
{ "type": "Feature", "properties": { "name": "Czech Republic", "min_label": 4.0, "labelrank": 5, "adm0_a3": "CZE" }, "geometry": { "type": "Point", "coordinates": [ 15.378, 49.882 ] } },
{ "type": "Feature", "properties": { "name": "Germany", "min_label": 1.7, "labelrank": 2, "adm0_a3": "DEU" }, "geometry": { "type": "Point", "coordinates": [ 9.678, 50.962 ] } },
{ "type": "Feature", "properties": { "name": "Estonia", "min_label": 3.0, "labelrank": 6, "adm0_a3": "EST" }, "geometry": { "type": "Point", "coordinates": [ 25.867, 58.725 ] } },
{ "type": "Feature", "properties": { "name": "Latvia", "min_label": 4.0, "labelrank": 5, "adm0_a3": "LVA" }, "geometry": { "type": "Point", "coordinates": [ 25.459, 57.067 ] } },
{ "type": "Feature", "properties": { "name": "Norway", "min_label": 3.0, "labelrank": 3, "adm0_a3": "NOR" }, "geometry": { "type": "Point", "coordinates": [ 9.68, 61.357 ] } },
{ "type": "Feature", "properties": { "name": "Sweden", "min_label": 2.0, "labelrank": 3, "adm0_a3": "SWE" }, "geometry": { "type": "Point", "coordinates": [ 19.017, 65.859 ] } },
{ "type": "Feature", "properties": { "name": "Finland", "min_label": 3.0, "labelrank": 3, "adm0_a3": "FIN" }, "geometry": { "type": "Point", "coordinates": [ 27.276, 63.252 ] } },
{ "type": "Feature", "properties": { "name": "Vietnam", "min_label": 2.0, "labelrank": 2, "adm0_a3": "VNM" }, "geometry": { "type": "Point", "coordinates": [ 105.387, 21.715 ] } },
{ "type": "Feature", "properties": { "name": "Cambodia", "min_label": 3.0, "labelrank": 3, "adm0_a3": "KHM" }, "geometry": { "type": "Point", "coordinates": [ 104.505, 12.648 ] } },
{ "type": "Feature", "properties": { "name": "Luxembourg", "min_label": 5.7, "labelrank": 6, "adm0_a3": "LUX" }, "geometry": { "type": "Point", "coordinates": [ 6.078, 49.734 ] } },
{ "type": "Feature", "properties": { "name": "United Arab Emirates", "min_label": 4.0, "labelrank": 4, "adm0_a3": "ARE" }, "geometry": { "type": "Point", "coordinates": [ 54.547, 23.466 ] } },
{ "type": "Feature", "properties": { "name": "Belgium", "min_label": 4.0, "labelrank": 2, "adm0_a3": "BEL" }, "geometry": { "type": "Point", "coordinates": [ 4.8, 50.785 ] } },
{ "type": "Feature", "properties": { "name": "Georgia", "min_label": 4.0, "labelrank": 5, "adm0_a3": "GEO" }, "geometry": { "type": "Point", "coordinates": [ 43.736, 41.87 ] } },
{ "type": "Feature", "properties": { "name": "North Macedonia", "min_label": 5.0, "labelrank": 6, "adm0_a3": "MKD" }, "geometry": { "type": "Point", "coordinates": [ 21.556, 41.558 ] } },
{ "type": "Feature", "properties": { "name": "Albania", "min_label": 5.0, "labelrank": 6, "adm0_a3": "ALB" }, "geometry": { "type": "Point", "coordinates": [ 20.114, 40.655 ] } },
{ "type": "Feature", "properties": { "name": "Azerbaijan", "min_label": 4.0, "labelrank": 5, "adm0_a3": "AZE" }, "geometry": { "type": "Point", "coordinates": [ 47.211, 40.402 ] } },
{ "type": "Feature", "properties": { "name": "Kosovo", "min_label": 5.0, "labelrank": 6, "adm0_a3": "KOS" }, "geometry": { "type": "Point", "coordinates": [ 20.861, 42.594 ] } },
{ "type": "Feature", "properties": { "name": "Turkey", "min_label": 2.0, "labelrank": 2, "adm0_a3": "TUR" }, "geometry": { "type": "Point", "coordinates": [ 34.508, 39.345 ] } },
{ "type": "Feature", "properties": { "name": "Spain", "min_label": 2.0, "labelrank": 2, "adm0_a3": "ESP" }, "geometry": { "type": "Point", "coordinates": [ -3.465, 40.091 ] } },
{ "type": "Feature", "properties": { "name": "Laos", "min_label": 4.0, "labelrank": 4, "adm0_a3": "LAO" }, "geometry": { "type": "Point", "coordinates": [ 102.534, 19.432 ] } },
{ "type": "Feature", "properties": { "name": "Kyrgyzstan", "min_label": 3.0, "labelrank": 4, "adm0_a3": "KGZ" }, "geometry": { "type": "Point", "coordinates": [ 74.533, 41.669 ] } },
{ "type": "Feature", "properties": { "name": "Armenia", "min_label": 5.0, "labelrank": 6, "adm0_a3": "ARM" }, "geometry": { "type": "Point", "coordinates": [ 44.801, 40.459 ] } },
{ "type": "Feature", "properties": { "name": "Denmark", "min_label": 3.0, "labelrank": 4, "adm0_a3": "DNK" }, "geometry": { "type": "Point", "coordinates": [ 9.018, 55.967 ] } },
{ "type": "Feature", "properties": { "name": "Libya", "min_label": 3.0, "labelrank": 3, "adm0_a3": "LBY" }, "geometry": { "type": "Point", "coordinates": [ 18.011, 26.639 ] } },
{ "type": "Feature", "properties": { "name": "Tunisia", "min_label": 3.0, "labelrank": 3, "adm0_a3": "TUN" }, "geometry": { "type": "Point", "coordinates": [ 9.008, 33.687 ] } },
{ "type": "Feature", "properties": { "name": "Romania", "min_label": 3.0, "labelrank": 3, "adm0_a3": "ROU" }, "geometry": { "type": "Point", "coordinates": [ 24.973, 45.733 ] } },
{ "type": "Feature", "properties": { "name": "Hungary", "min_label": 4.0, "labelrank": 5, "adm0_a3": "HUN" }, "geometry": { "type": "Point", "coordinates": [ 19.448, 47.087 ] } },
{ "type": "Feature", "properties": { "name": "Slovakia", "min_label": 4.0, "labelrank": 6, "adm0_a3": "SVK" }, "geometry": { "type": "Point", "coordinates": [ 19.05, 48.734 ] } },
{ "type": "Feature", "properties": { "name": "Poland", "min_label": 2.5, "labelrank": 3, "adm0_a3": "POL" }, "geometry": { "type": "Point", "coordinates": [ 19.49, 51.99 ] } },
{ "type": "Feature", "properties": { "name": "Ireland", "min_label": 3.0, "labelrank": 3, "adm0_a3": "IRL" }, "geometry": { "type": "Point", "coordinates": [ -7.799, 53.079 ] } },
{ "type": "Feature", "properties": { "name": "United Kingdom", "min_label": 1.7, "labelrank": 2, "adm0_a3": "GBR" }, "geometry": { "type": "Point", "coordinates": [ -2.116, 54.403 ] } },
{ "type": "Feature", "properties": { "name": "Greece", "min_label": 2.7, "labelrank": 3, "adm0_a3": "GRC" }, "geometry": { "type": "Point", "coordinates": [ 21.726, 39.493 ] } },
{ "type": "Feature", "properties": { "name": "Zambia", "min_label": 3.0, "labelrank": 3, "adm0_a3": "ZMB" }, "geometry": { "type": "Point", "coordinates": [ 26.395, -14.661 ] } },
{ "type": "Feature", "properties": { "name": "Sierra Leone", "min_label": 4.0, "labelrank": 4, "adm0_a3": "SLE" }, "geometry": { "type": "Point", "coordinates": [ -11.764, 8.617 ] } },
{ "type": "Feature", "properties": { "name": "Guinea", "min_label": 3.0, "labelrank": 3, "adm0_a3": "GIN" }, "geometry": { "type": "Point", "coordinates": [ -10.016, 10.619 ] } },
{ "type": "Feature", "properties": { "name": "Liberia", "min_label": 4.0, "labelrank": 4, "adm0_a3": "LBR" }, "geometry": { "type": "Point", "coordinates": [ -9.46, 6.447 ] } },
{ "type": "Feature", "properties": { "name": "Central African Republic", "min_label": 4.0, "labelrank": 4, "adm0_a3": "CAF" }, "geometry": { "type": "Point", "coordinates": [ 20.907, 6.99 ] } },
{ "type": "Feature", "properties": { "name": "Sudan", "min_label": 2.5, "labelrank": 3, "adm0_a3": "SDN" }, "geometry": { "type": "Point", "coordinates": [ 29.261, 16.331 ] } },
{ "type": "Feature", "properties": { "name": "Djibouti", "min_label": 4.0, "labelrank": 5, "adm0_a3": "DJI" }, "geometry": { "type": "Point", "coordinates": [ 42.499, 11.976 ] } },
{ "type": "Feature", "properties": { "name": "Eritrea", "min_label": 4.0, "labelrank": 4, "adm0_a3": "ERI" }, "geometry": { "type": "Point", "coordinates": [ 38.286, 15.787 ] } },
{ "type": "Feature", "properties": { "name": "Austria", "min_label": 3.0, "labelrank": 4, "adm0_a3": "AUT" }, "geometry": { "type": "Point", "coordinates": [ 14.131, 47.519 ] } },
{ "type": "Feature", "properties": { "name": "Iraq", "min_label": 3.0, "labelrank": 3, "adm0_a3": "IRQ" }, "geometry": { "type": "Point", "coordinates": [ 43.262, 33.094 ] } },
{ "type": "Feature", "properties": { "name": "Italy", "min_label": 2.0, "labelrank": 2, "adm0_a3": "ITA" }, "geometry": { "type": "Point", "coordinates": [ 11.077, 44.732 ] } },
{ "type": "Feature", "properties": { "name": "Switzerland", "min_label": 4.0, "labelrank": 4, "adm0_a3": "CHE" }, "geometry": { "type": "Point", "coordinates": [ 7.464, 46.719 ] } },
{ "type": "Feature", "properties": { "name": "Iran", "min_label": 2.5, "labelrank": 2, "adm0_a3": "IRN" }, "geometry": { "type": "Point", "coordinates": [ 54.931, 32.166 ] } },
{ "type": "Feature", "properties": { "name": "Netherlands", "min_label": 4.0, "labelrank": 5, "adm0_a3": "NLD" }, "geometry": { "type": "Point", "coordinates": [ 5.611, 52.422 ] } },
{ "type": "Feature", "properties": { "name": "Liechtenstein", "min_label": 5.0, "labelrank": 6, "adm0_a3": "LIE" }, "geometry": { "type": "Point", "coordinates": [ 9.559, 47.111 ] } },
{ "type": "Feature", "properties": { "name": "Ivory Coast", "min_label": 2.5, "labelrank": 3, "adm0_a3": "CIV" }, "geometry": { "type": "Point", "coordinates": [ -5.569, 7.491 ] } },
{ "type": "Feature", "properties": { "name": "Serbia", "min_label": 4.0, "labelrank": 5, "adm0_a3": "SRB" }, "geometry": { "type": "Point", "coordinates": [ 20.788, 44.19 ] } },
{ "type": "Feature", "properties": { "name": "Mali", "min_label": 3.0, "labelrank": 3, "adm0_a3": "MLI" }, "geometry": { "type": "Point", "coordinates": [ -2.038, 18.693 ] } },
{ "type": "Feature", "properties": { "name": "Senegal", "min_label": 2.7, "labelrank": 3, "adm0_a3": "SEN" }, "geometry": { "type": "Point", "coordinates": [ -14.779, 15.138 ] } },
{ "type": "Feature", "properties": { "name": "Nigeria", "min_label": 1.7, "labelrank": 2, "adm0_a3": "NGA" }, "geometry": { "type": "Point", "coordinates": [ 7.503, 9.44 ] } },
{ "type": "Feature", "properties": { "name": "Benin", "min_label": 4.0, "labelrank": 5, "adm0_a3": "BEN" }, "geometry": { "type": "Point", "coordinates": [ 2.352, 10.325 ] } },
{ "type": "Feature", "properties": { "name": "Angola", "min_label": 3.0, "labelrank": 3, "adm0_a3": "AGO" }, "geometry": { "type": "Point", "coordinates": [ 17.984, -12.183 ] } },
{ "type": "Feature", "properties": { "name": "Croatia", "min_label": 4.0, "labelrank": 6, "adm0_a3": "HRV" }, "geometry": { "type": "Point", "coordinates": [ 16.372, 45.806 ] } },
{ "type": "Feature", "properties": { "name": "Slovenia", "min_label": 5.0, "labelrank": 6, "adm0_a3": "SVN" }, "geometry": { "type": "Point", "coordinates": [ 14.915, 46.061 ] } },
{ "type": "Feature", "properties": { "name": "Qatar", "min_label": 4.0, "labelrank": 5, "adm0_a3": "QAT" }, "geometry": { "type": "Point", "coordinates": [ 51.144, 25.237 ] } },
{ "type": "Feature", "properties": { "name": "Saudi Arabia", "min_label": 1.7, "labelrank": 2, "adm0_a3": "SAU" }, "geometry": { "type": "Point", "coordinates": [ 44.7, 23.807 ] } },
{ "type": "Feature", "properties": { "name": "Botswana", "min_label": 4.0, "labelrank": 4, "adm0_a3": "BWA" }, "geometry": { "type": "Point", "coordinates": [ 24.179, -22.103 ] } },
{ "type": "Feature", "properties": { "name": "Zimbabwe", "min_label": 2.5, "labelrank": 3, "adm0_a3": "ZWE" }, "geometry": { "type": "Point", "coordinates": [ 29.925, -18.912 ] } },
{ "type": "Feature", "properties": { "name": "Pakistan", "min_label": 2.7, "labelrank": 2, "adm0_a3": "PAK" }, "geometry": { "type": "Point", "coordinates": [ 68.546, 29.328 ] } },
{ "type": "Feature", "properties": { "name": "Bulgaria", "min_label": 4.0, "labelrank": 4, "adm0_a3": "BGR" }, "geometry": { "type": "Point", "coordinates": [ 25.157, 42.509 ] } },
{ "type": "Feature", "properties": { "name": "Thailand", "min_label": 2.7, "labelrank": 3, "adm0_a3": "THA" }, "geometry": { "type": "Point", "coordinates": [ 101.073, 15.46 ] } },
{ "type": "Feature", "properties": { "name": "San Marino", "min_label": 5.0, "labelrank": 6, "adm0_a3": "SMR" }, "geometry": { "type": "Point", "coordinates": [ 12.441, 43.934 ] } },
{ "type": "Feature", "properties": { "name": "Haiti", "min_label": 4.0, "labelrank": 5, "adm0_a3": "HTI" }, "geometry": { "type": "Point", "coordinates": [ -72.224, 19.264 ] } },
{ "type": "Feature", "properties": { "name": "Dominican Republic", "min_label": 4.5, "labelrank": 5, "adm0_a3": "DOM" }, "geometry": { "type": "Point", "coordinates": [ -70.654, 19.104 ] } },
{ "type": "Feature", "properties": { "name": "Chad", "min_label": 3.0, "labelrank": 3, "adm0_a3": "TCD" }, "geometry": { "type": "Point", "coordinates": [ 18.645, 15.143 ] } },
{ "type": "Feature", "properties": { "name": "Kuwait", "min_label": 5.0, "labelrank": 6, "adm0_a3": "KWT" }, "geometry": { "type": "Point", "coordinates": [ 47.314, 29.414 ] } },
{ "type": "Feature", "properties": { "name": "El Salvador", "min_label": 5.0, "labelrank": 6, "adm0_a3": "SLV" }, "geometry": { "type": "Point", "coordinates": [ -88.89, 13.685 ] } },
{ "type": "Feature", "properties": { "name": "Guatemala", "min_label": 3.0, "labelrank": 3, "adm0_a3": "GTM" }, "geometry": { "type": "Point", "coordinates": [ -90.497, 14.982 ] } },
{ "type": "Feature", "properties": { "name": "East Timor", "min_label": 4.0, "labelrank": 5, "adm0_a3": "TLS" }, "geometry": { "type": "Point", "coordinates": [ 125.855, -8.804 ] } },
{ "type": "Feature", "properties": { "name": "Brunei", "min_label": 4.0, "labelrank": 6, "adm0_a3": "BRN" }, "geometry": { "type": "Point", "coordinates": [ 114.552, 4.448 ] } },
{ "type": "Feature", "properties": { "name": "Monaco", "min_label": 5.0, "labelrank": 6, "adm0_a3": "MCO" }, "geometry": { "type": "Point", "coordinates": [ 7.398, 43.74 ] } },
{ "type": "Feature", "properties": { "name": "Algeria", "min_label": 2.5, "labelrank": 3, "adm0_a3": "DZA" }, "geometry": { "type": "Point", "coordinates": [ 2.808, 27.397 ] } },
{ "type": "Feature", "properties": { "name": "Mozambique", "min_label": 3.0, "labelrank": 3, "adm0_a3": "MOZ" }, "geometry": { "type": "Point", "coordinates": [ 37.838, -13.943 ] } },
{ "type": "Feature", "properties": { "name": "Eswatini", "min_label": 4.0, "labelrank": 4, "adm0_a3": "SWZ" }, "geometry": { "type": "Point", "coordinates": [ 31.467, -26.534 ] } },
{ "type": "Feature", "properties": { "name": "Burundi", "min_label": 4.0, "labelrank": 6, "adm0_a3": "BDI" }, "geometry": { "type": "Point", "coordinates": [ 29.917, -3.333 ] } },
{ "type": "Feature", "properties": { "name": "Rwanda", "min_label": 3.0, "labelrank": 3, "adm0_a3": "RWA" }, "geometry": { "type": "Point", "coordinates": [ 30.104, -1.897 ] } },
{ "type": "Feature", "properties": { "name": "Myanmar", "min_label": 3.0, "labelrank": 3, "adm0_a3": "MMR" }, "geometry": { "type": "Point", "coordinates": [ 95.804, 21.574 ] } },
{ "type": "Feature", "properties": { "name": "Bangladesh", "min_label": 3.0, "labelrank": 3, "adm0_a3": "BGD" }, "geometry": { "type": "Point", "coordinates": [ 89.685, 24.215 ] } },
{ "type": "Feature", "properties": { "name": "Andorra", "min_label": 5.0, "labelrank": 6, "adm0_a3": "AND" }, "geometry": { "type": "Point", "coordinates": [ 1.539, 42.548 ] } },
{ "type": "Feature", "properties": { "name": "Afghanistan", "min_label": 3.0, "labelrank": 3, "adm0_a3": "AFG" }, "geometry": { "type": "Point", "coordinates": [ 66.497, 34.164 ] } },
{ "type": "Feature", "properties": { "name": "Montenegro", "min_label": 5.0, "labelrank": 6, "adm0_a3": "MNE" }, "geometry": { "type": "Point", "coordinates": [ 19.144, 42.803 ] } },
{ "type": "Feature", "properties": { "name": "Bosnia and Herzegovina", "min_label": 4.5, "labelrank": 5, "adm0_a3": "BIH" }, "geometry": { "type": "Point", "coordinates": [ 18.068, 44.091 ] } },
{ "type": "Feature", "properties": { "name": "Uganda", "min_label": 3.0, "labelrank": 3, "adm0_a3": "UGA" }, "geometry": { "type": "Point", "coordinates": [ 32.949, 1.973 ] } },
{ "type": "Feature", "properties": { "name": "Guantanamo Bay Naval Base", "min_label": 6.0, "labelrank": 10, "adm0_a3": "USG" }, "geometry": { "type": "Point", "coordinates": [ -75.117, 19.918 ] } },
{ "type": "Feature", "properties": { "name": "Cuba", "min_label": 2.7, "labelrank": 3, "adm0_a3": "CUB" }, "geometry": { "type": "Point", "coordinates": [ -77.976, 21.334 ] } },
{ "type": "Feature", "properties": { "name": "Honduras", "min_label": 4.5, "labelrank": 5, "adm0_a3": "HND" }, "geometry": { "type": "Point", "coordinates": [ -86.888, 14.795 ] } },
{ "type": "Feature", "properties": { "name": "Ecuador", "min_label": 3.0, "labelrank": 3, "adm0_a3": "ECU" }, "geometry": { "type": "Point", "coordinates": [ -78.188, -1.259 ] } },
{ "type": "Feature", "properties": { "name": "Colombia", "min_label": 3.0, "labelrank": 2, "adm0_a3": "COL" }, "geometry": { "type": "Point", "coordinates": [ -73.174, 3.373 ] } },
{ "type": "Feature", "properties": { "name": "Paraguay", "min_label": 3.0, "labelrank": 4, "adm0_a3": "PRY" }, "geometry": { "type": "Point", "coordinates": [ -60.146, -21.675 ] } },
{ "type": "Feature", "properties": { "name": "Brazilian Island", "min_label": 7.7, "labelrank": 9, "adm0_a3": "BRI" }, "geometry": { "type": "Point", "coordinates": [ -57.623, -30.188 ] } },
{ "type": "Feature", "properties": { "name": "Portugal", "min_label": 3.0, "labelrank": 2, "adm0_a3": "PRT" }, "geometry": { "type": "Point", "coordinates": [ -8.272, 39.607 ] } },
{ "type": "Feature", "properties": { "name": "Moldova", "min_label": 5.0, "labelrank": 6, "adm0_a3": "MDA" }, "geometry": { "type": "Point", "coordinates": [ 28.488, 47.435 ] } },
{ "type": "Feature", "properties": { "name": "Turkmenistan", "min_label": 3.0, "labelrank": 4, "adm0_a3": "TKM" }, "geometry": { "type": "Point", "coordinates": [ 58.677, 39.855 ] } },
{ "type": "Feature", "properties": { "name": "Jordan", "min_label": 4.0, "labelrank": 4, "adm0_a3": "JOR" }, "geometry": { "type": "Point", "coordinates": [ 36.376, 30.805 ] } },
{ "type": "Feature", "properties": { "name": "Nepal", "min_label": 3.0, "labelrank": 3, "adm0_a3": "NPL" }, "geometry": { "type": "Point", "coordinates": [ 83.64, 28.298 ] } },
{ "type": "Feature", "properties": { "name": "Lesotho", "min_label": 4.0, "labelrank": 6, "adm0_a3": "LSO" }, "geometry": { "type": "Point", "coordinates": [ 28.247, -29.48 ] } },
{ "type": "Feature", "properties": { "name": "Cameroon", "min_label": 3.0, "labelrank": 3, "adm0_a3": "CMR" }, "geometry": { "type": "Point", "coordinates": [ 12.473, 4.585 ] } },
{ "type": "Feature", "properties": { "name": "Gabon", "min_label": 3.0, "labelrank": 4, "adm0_a3": "GAB" }, "geometry": { "type": "Point", "coordinates": [ 11.836, -0.438 ] } },
{ "type": "Feature", "properties": { "name": "Niger", "min_label": 3.0, "labelrank": 3, "adm0_a3": "NER" }, "geometry": { "type": "Point", "coordinates": [ 9.504, 17.446 ] } },
{ "type": "Feature", "properties": { "name": "Burkina Faso", "min_label": 3.0, "labelrank": 3, "adm0_a3": "BFA" }, "geometry": { "type": "Point", "coordinates": [ -1.364, 12.673 ] } },
{ "type": "Feature", "properties": { "name": "Togo", "min_label": 5.0, "labelrank": 6, "adm0_a3": "TGO" }, "geometry": { "type": "Point", "coordinates": [ 1.058, 8.807 ] } },
{ "type": "Feature", "properties": { "name": "Ghana", "min_label": 2.7, "labelrank": 3, "adm0_a3": "GHA" }, "geometry": { "type": "Point", "coordinates": [ -1.037, 7.718 ] } },
{ "type": "Feature", "properties": { "name": "Guinea-Bissau", "min_label": 5.0, "labelrank": 6, "adm0_a3": "GNB" }, "geometry": { "type": "Point", "coordinates": [ -14.524, 12.164 ] } },
{ "type": "Feature", "properties": { "name": "Gibraltar", "min_label": 5.0, "labelrank": 5, "adm0_a3": "GIB" }, "geometry": { "type": "Point", "coordinates": [ -5.347, 36.129 ] } },
{ "type": "Feature", "properties": { "name": "United States of America", "min_label": 1.7, "labelrank": 2, "adm0_a3": "USA" }, "geometry": { "type": "Point", "coordinates": [ -97.483, 39.538 ] } },
{ "type": "Feature", "properties": { "name": "Canada", "min_label": 1.7, "labelrank": 2, "adm0_a3": "CAN" }, "geometry": { "type": "Point", "coordinates": [ -101.911, 60.324 ] } },
{ "type": "Feature", "properties": { "name": "Mexico", "min_label": 2.0, "labelrank": 2, "adm0_a3": "MEX" }, "geometry": { "type": "Point", "coordinates": [ -102.289, 23.92 ] } },
{ "type": "Feature", "properties": { "name": "Belize", "min_label": 5.0, "labelrank": 6, "adm0_a3": "BLZ" }, "geometry": { "type": "Point", "coordinates": [ -88.713, 17.202 ] } },
{ "type": "Feature", "properties": { "name": "Panama", "min_label": 4.0, "labelrank": 4, "adm0_a3": "PAN" }, "geometry": { "type": "Point", "coordinates": [ -80.352, 8.722 ] } },
{ "type": "Feature", "properties": { "name": "Venezuela", "min_label": 2.5, "labelrank": 3, "adm0_a3": "VEN" }, "geometry": { "type": "Point", "coordinates": [ -64.599, 7.182 ] } },
{ "type": "Feature", "properties": { "name": "Papua New Guinea", "min_label": 2.5, "labelrank": 2, "adm0_a3": "PNG" }, "geometry": { "type": "Point", "coordinates": [ 143.91, -5.695 ] } },
{ "type": "Feature", "properties": { "name": "Egypt", "min_label": 1.7, "labelrank": 2, "adm0_a3": "EGY" }, "geometry": { "type": "Point", "coordinates": [ 29.446, 26.186 ] } },
{ "type": "Feature", "properties": { "name": "Yemen", "min_label": 3.0, "labelrank": 3, "adm0_a3": "YEM" }, "geometry": { "type": "Point", "coordinates": [ 45.874, 15.328 ] } },
{ "type": "Feature", "properties": { "name": "Mauritania", "min_label": 3.0, "labelrank": 3, "adm0_a3": "MRT" }, "geometry": { "type": "Point", "coordinates": [ -9.74, 19.587 ] } },
{ "type": "Feature", "properties": { "name": "Equatorial Guinea", "min_label": 4.0, "labelrank": 4, "adm0_a3": "GNQ" }, "geometry": { "type": "Point", "coordinates": [ 8.99, 2.333 ] } },
{ "type": "Feature", "properties": { "name": "The Gambia", "min_label": 5.0, "labelrank": 6, "adm0_a3": "GMB" }, "geometry": { "type": "Point", "coordinates": [ -14.998, 13.642 ] } },
{ "type": "Feature", "properties": { "name": "Hong Kong", "min_label": 4.0, "labelrank": 4, "adm0_a3": "HKG" }, "geometry": { "type": "Point", "coordinates": [ 114.098, 22.449 ] } },
{ "type": "Feature", "properties": { "name": "Vatican City", "min_label": 5.0, "labelrank": 6, "adm0_a3": "VAT" }, "geometry": { "type": "Point", "coordinates": [ 12.453, 41.903 ] } },
{ "type": "Feature", "properties": { "name": "Turkish Republic of Northern Cyprus", "min_label": 6.0, "labelrank": 6, "adm0_a3": "CYN" }, "geometry": { "type": "Point", "coordinates": [ 33.692, 35.216 ] } },
{ "type": "Feature", "properties": { "name": "United Nations Buffer Zone in Cyprus", "min_label": 7.7, "labelrank": 9, "adm0_a3": "CNM" }, "geometry": { "type": "Point", "coordinates": [ 33.288, 35.141 ] } },
{ "type": "Feature", "properties": { "name": "Siachen Glacier", "min_label": 6.5, "labelrank": 5, "adm0_a3": "KAS" }, "geometry": { "type": "Point", "coordinates": [ 77.13, 35.341 ] } },
{ "type": "Feature", "properties": { "name": "Baikonur", "min_label": 6.0, "labelrank": 5, "adm0_a3": "KAB" }, "geometry": { "type": "Point", "coordinates": [ 63.384, 45.978 ] } },
{ "type": "Feature", "properties": { "name": "Akrotiri Sovereign Base Area", "min_label": 6.5, "labelrank": 3, "adm0_a3": "WSB" }, "geometry": { "type": "Point", "coordinates": [ 32.979, 34.601 ] } },
{ "type": "Feature", "properties": { "name": "Southern Patagonian Ice Field", "min_label": 7.7, "labelrank": 9, "adm0_a3": "SPI" }, "geometry": { "type": "Point", "coordinates": [ -73.314, -49.511 ] } },
{ "type": "Feature", "properties": { "name": "Bir Tawil", "min_label": 7.0, "labelrank": 8, "adm0_a3": "BRT" }, "geometry": { "type": "Point", "coordinates": [ 33.673, 21.86 ] } },
{ "type": "Feature", "properties": { "name": "Antarctica", "min_label": 4.0, "labelrank": 4, "adm0_a3": "ATA" }, "geometry": { "type": "Point", "coordinates": [ 35.885, -79.843 ] } },
{ "type": "Feature", "properties": { "name": "Australia", "min_label": 1.7, "labelrank": 2, "adm0_a3": "AUS" }, "geometry": { "type": "Point", "coordinates": [ 134.05, -24.13 ] } },
{ "type": "Feature", "properties": { "name": "Greenland", "min_label": 1.7, "labelrank": 3, "adm0_a3": "GRL" }, "geometry": { "type": "Point", "coordinates": [ -39.335, 74.319 ] } },
{ "type": "Feature", "properties": { "name": "Fiji", "min_label": 3.0, "labelrank": 6, "adm0_a3": "FJI" }, "geometry": { "type": "Point", "coordinates": [ 177.975, -17.826 ] } },
{ "type": "Feature", "properties": { "name": "New Zealand", "min_label": 2.0, "labelrank": 2, "adm0_a3": "NZL" }, "geometry": { "type": "Point", "coordinates": [ 172.787, -39.759 ] } },
{ "type": "Feature", "properties": { "name": "New Caledonia", "min_label": 4.6, "labelrank": 3, "adm0_a3": "NCL" }, "geometry": { "type": "Point", "coordinates": [ 165.084, -21.065 ] } },
{ "type": "Feature", "properties": { "name": "Madagascar", "min_label": 2.7, "labelrank": 3, "adm0_a3": "MDG" }, "geometry": { "type": "Point", "coordinates": [ 46.704, -18.628 ] } },
{ "type": "Feature", "properties": { "name": "Philippines", "min_label": 2.5, "labelrank": 2, "adm0_a3": "PHL" }, "geometry": { "type": "Point", "coordinates": [ 122.465, 11.198 ] } },
{ "type": "Feature", "properties": { "name": "Sri Lanka", "min_label": 3.0, "labelrank": 3, "adm0_a3": "LKA" }, "geometry": { "type": "Point", "coordinates": [ 80.705, 7.581 ] } },
{ "type": "Feature", "properties": { "name": "Curaçao", "min_label": 5.0, "labelrank": 5, "adm0_a3": "CUW" }, "geometry": { "type": "Point", "coordinates": [ -68.921, 12.145 ] } },
{ "type": "Feature", "properties": { "name": "Aruba", "min_label": 5.0, "labelrank": 5, "adm0_a3": "ABW" }, "geometry": { "type": "Point", "coordinates": [ -69.973, 12.517 ] } },
{ "type": "Feature", "properties": { "name": "The Bahamas", "min_label": 4.0, "labelrank": 4, "adm0_a3": "BHS" }, "geometry": { "type": "Point", "coordinates": [ -77.147, 26.402 ] } },
{ "type": "Feature", "properties": { "name": "Turks and Caicos Islands", "min_label": 5.0, "labelrank": 6, "adm0_a3": "TCA" }, "geometry": { "type": "Point", "coordinates": [ -71.753, 21.817 ] } },
{ "type": "Feature", "properties": { "name": "Taiwan", "min_label": 4.5, "labelrank": 3, "adm0_a3": "TWN" }, "geometry": { "type": "Point", "coordinates": [ 120.868, 23.652 ] } },
{ "type": "Feature", "properties": { "name": "Japan", "min_label": 1.7, "labelrank": 2, "adm0_a3": "JPN" }, "geometry": { "type": "Point", "coordinates": [ 138.442, 36.143 ] } },
{ "type": "Feature", "properties": { "name": "Saint Pierre and Miquelon", "min_label": 5.0, "labelrank": 4, "adm0_a3": "SPM" }, "geometry": { "type": "Point", "coordinates": [ -56.332, 47.04 ] } },
{ "type": "Feature", "properties": { "name": "Iceland", "min_label": 2.0, "labelrank": 3, "adm0_a3": "ISL" }, "geometry": { "type": "Point", "coordinates": [ -18.674, 64.779 ] } },
{ "type": "Feature", "properties": { "name": "Pitcairn Islands", "min_label": 5.0, "labelrank": 4, "adm0_a3": "PCN" }, "geometry": { "type": "Point", "coordinates": [ -128.318, -24.365 ] } },
{ "type": "Feature", "properties": { "name": "French Polynesia", "min_label": 3.5, "labelrank": 4, "adm0_a3": "PYF" }, "geometry": { "type": "Point", "coordinates": [ -149.462, -17.628 ] } },
{ "type": "Feature", "properties": { "name": "French Southern and Antarctic Lands", "min_label": 4.0, "labelrank": 6, "adm0_a3": "ATF" }, "geometry": { "type": "Point", "coordinates": [ 69.122, -49.304 ] } },
{ "type": "Feature", "properties": { "name": "Seychelles", "min_label": 5.0, "labelrank": 6, "adm0_a3": "SYC" }, "geometry": { "type": "Point", "coordinates": [ 55.48, -4.677 ] } },
{ "type": "Feature", "properties": { "name": "Kiribati", "min_label": 5.0, "labelrank": 6, "adm0_a3": "KIR" }, "geometry": { "type": "Point", "coordinates": [ -157.385, 1.82 ] } },
{ "type": "Feature", "properties": { "name": "Marshall Islands", "min_label": 5.0, "labelrank": 6, "adm0_a3": "MHL" }, "geometry": { "type": "Point", "coordinates": [ 171.194, 7.083 ] } },
{ "type": "Feature", "properties": { "name": "Trinidad and Tobago", "min_label": 4.5, "labelrank": 5, "adm0_a3": "TTO" }, "geometry": { "type": "Point", "coordinates": [ -60.918, 10.999 ] } },
{ "type": "Feature", "properties": { "name": "Grenada", "min_label": 4.0, "labelrank": 6, "adm0_a3": "GRD" }, "geometry": { "type": "Point", "coordinates": [ -61.68, 12.113 ] } },
{ "type": "Feature", "properties": { "name": "Saint Vincent and the Grenadines", "min_label": 5.0, "labelrank": 6, "adm0_a3": "VCT" }, "geometry": { "type": "Point", "coordinates": [ -61.336, 13.088 ] } },
{ "type": "Feature", "properties": { "name": "Barbados", "min_label": 4.5, "labelrank": 5, "adm0_a3": "BRB" }, "geometry": { "type": "Point", "coordinates": [ -59.569, 13.164 ] } },
{ "type": "Feature", "properties": { "name": "Saint Lucia", "min_label": 5.0, "labelrank": 6, "adm0_a3": "LCA" }, "geometry": { "type": "Point", "coordinates": [ -60.98, 13.892 ] } },
{ "type": "Feature", "properties": { "name": "Dominica", "min_label": 4.0, "labelrank": 6, "adm0_a3": "DMA" }, "geometry": { "type": "Point", "coordinates": [ -61.345, 15.459 ] } },
{ "type": "Feature", "properties": { "name": "United States Minor Outlying Islands", "min_label": 7.0, "labelrank": 5, "adm0_a3": "UMI" }, "geometry": { "type": "Point", "coordinates": [ 166.645, 19.286 ] } },
{ "type": "Feature", "properties": { "name": "Montserrat", "min_label": 5.0, "labelrank": 6, "adm0_a3": "MSR" }, "geometry": { "type": "Point", "coordinates": [ -62.188, 16.737 ] } },
{ "type": "Feature", "properties": { "name": "Antigua and Barbuda", "min_label": 5.0, "labelrank": 6, "adm0_a3": "ATG" }, "geometry": { "type": "Point", "coordinates": [ -61.791, 17.352 ] } },
{ "type": "Feature", "properties": { "name": "Saint Kitts and Nevis", "min_label": 5.0, "labelrank": 6, "adm0_a3": "KNA" }, "geometry": { "type": "Point", "coordinates": [ -62.758, 17.337 ] } },
{ "type": "Feature", "properties": { "name": "United States Virgin Islands", "min_label": 5.0, "labelrank": 6, "adm0_a3": "VIR" }, "geometry": { "type": "Point", "coordinates": [ -64.779, 17.747 ] } },
{ "type": "Feature", "properties": { "name": "Saint Barthélemy", "min_label": 5.7, "labelrank": 6, "adm0_a3": "BLM" }, "geometry": { "type": "Point", "coordinates": [ -62.833, 17.902 ] } },
{ "type": "Feature", "properties": { "name": "Puerto Rico", "min_label": 3.0, "labelrank": 5, "adm0_a3": "PRI" }, "geometry": { "type": "Point", "coordinates": [ -66.481, 18.235 ] } },
{ "type": "Feature", "properties": { "name": "Anguilla", "min_label": 5.0, "labelrank": 6, "adm0_a3": "AIA" }, "geometry": { "type": "Point", "coordinates": [ -63.026, 18.243 ] } },
{ "type": "Feature", "properties": { "name": "British Virgin Islands", "min_label": 5.0, "labelrank": 6, "adm0_a3": "VGB" }, "geometry": { "type": "Point", "coordinates": [ -64.637, 18.427 ] } },
{ "type": "Feature", "properties": { "name": "Jamaica", "min_label": 4.0, "labelrank": 4, "adm0_a3": "JAM" }, "geometry": { "type": "Point", "coordinates": [ -77.319, 18.137 ] } },
{ "type": "Feature", "properties": { "name": "Cayman Islands", "min_label": 5.0, "labelrank": 5, "adm0_a3": "CYM" }, "geometry": { "type": "Point", "coordinates": [ -81.241, 19.32 ] } },
{ "type": "Feature", "properties": { "name": "Bermuda", "min_label": 4.0, "labelrank": 6, "adm0_a3": "BMU" }, "geometry": { "type": "Point", "coordinates": [ -64.764, 32.297 ] } },
{ "type": "Feature", "properties": { "name": "Heard Island and McDonald Islands", "min_label": 4.5, "labelrank": 5, "adm0_a3": "HMD" }, "geometry": { "type": "Point", "coordinates": [ 73.505, -53.103 ] } },
{ "type": "Feature", "properties": { "name": "Saint Helena", "min_label": 5.0, "labelrank": 6, "adm0_a3": "SHN" }, "geometry": { "type": "Point", "coordinates": [ -5.713, -15.95 ] } },
{ "type": "Feature", "properties": { "name": "Mauritius", "min_label": 4.0, "labelrank": 5, "adm0_a3": "MUS" }, "geometry": { "type": "Point", "coordinates": [ 57.566, -20.3 ] } },
{ "type": "Feature", "properties": { "name": "Comoros", "min_label": 4.0, "labelrank": 6, "adm0_a3": "COM" }, "geometry": { "type": "Point", "coordinates": [ 43.318, -11.728 ] } },
{ "type": "Feature", "properties": { "name": "São Tomé and Príncipe", "min_label": 5.0, "labelrank": 6, "adm0_a3": "STP" }, "geometry": { "type": "Point", "coordinates": [ 7.021, 0.971 ] } },
{ "type": "Feature", "properties": { "name": "Cape Verde", "min_label": 4.0, "labelrank": 4, "adm0_a3": "CPV" }, "geometry": { "type": "Point", "coordinates": [ -23.639, 15.075 ] } },
{ "type": "Feature", "properties": { "name": "Malta", "min_label": 4.0, "labelrank": 5, "adm0_a3": "MLT" }, "geometry": { "type": "Point", "coordinates": [ 14.433, 35.893 ] } },
{ "type": "Feature", "properties": { "name": "Jersey", "min_label": 5.0, "labelrank": 6, "adm0_a3": "JEY" }, "geometry": { "type": "Point", "coordinates": [ -2.09, 49.221 ] } },
{ "type": "Feature", "properties": { "name": "Guernsey", "min_label": 5.0, "labelrank": 6, "adm0_a3": "GGY" }, "geometry": { "type": "Point", "coordinates": [ -2.562, 49.464 ] } },
{ "type": "Feature", "properties": { "name": "Isle of Man", "min_label": 5.0, "labelrank": 6, "adm0_a3": "IMN" }, "geometry": { "type": "Point", "coordinates": [ -4.53, 54.221 ] } },
{ "type": "Feature", "properties": { "name": "Åland", "min_label": 5.0, "labelrank": 6, "adm0_a3": "ALD" }, "geometry": { "type": "Point", "coordinates": [ 19.87, 60.156 ] } },
{ "type": "Feature", "properties": { "name": "Faroe Islands", "min_label": 4.0, "labelrank": 6, "adm0_a3": "FRO" }, "geometry": { "type": "Point", "coordinates": [ -7.058, 62.186 ] } },
{ "type": "Feature", "properties": { "name": "Australian Indian Ocean Territories", "min_label": 5.0, "labelrank": 5, "adm0_a3": "IOA" }, "geometry": { "type": "Point", "coordinates": [ 105.673, -10.491 ] } },
{ "type": "Feature", "properties": { "name": "British Indian Ocean Territory", "min_label": 5.0, "labelrank": 5, "adm0_a3": "IOT" }, "geometry": { "type": "Point", "coordinates": [ 71.348, -6.191 ] } },
{ "type": "Feature", "properties": { "name": "Singapore", "min_label": 4.0, "labelrank": 6, "adm0_a3": "SGP" }, "geometry": { "type": "Point", "coordinates": [ 103.817, 1.367 ] } },
{ "type": "Feature", "properties": { "name": "Norfolk Island", "min_label": 4.5, "labelrank": 5, "adm0_a3": "NFK" }, "geometry": { "type": "Point", "coordinates": [ 167.955, -29.033 ] } },
{ "type": "Feature", "properties": { "name": "Cook Islands", "min_label": 4.0, "labelrank": 4, "adm0_a3": "COK" }, "geometry": { "type": "Point", "coordinates": [ -159.786, -21.216 ] } },
{ "type": "Feature", "properties": { "name": "Tonga", "min_label": 4.0, "labelrank": 4, "adm0_a3": "TON" }, "geometry": { "type": "Point", "coordinates": [ -175.163, -21.21 ] } },
{ "type": "Feature", "properties": { "name": "Wallis and Futuna", "min_label": 4.7, "labelrank": 4, "adm0_a3": "WLF" }, "geometry": { "type": "Point", "coordinates": [ -178.137, -14.286 ] } },
{ "type": "Feature", "properties": { "name": "Samoa", "min_label": 3.0, "labelrank": 4, "adm0_a3": "WSM" }, "geometry": { "type": "Point", "coordinates": [ -172.438, -13.639 ] } },
{ "type": "Feature", "properties": { "name": "Solomon Islands", "min_label": 3.0, "labelrank": 3, "adm0_a3": "SLB" }, "geometry": { "type": "Point", "coordinates": [ 159.17, -8.03 ] } },
{ "type": "Feature", "properties": { "name": "Tuvalu", "min_label": 5.0, "labelrank": 6, "adm0_a3": "TUV" }, "geometry": { "type": "Point", "coordinates": [ 179.21, -8.514 ] } },
{ "type": "Feature", "properties": { "name": "Maldives", "min_label": 4.0, "labelrank": 5, "adm0_a3": "MDV" }, "geometry": { "type": "Point", "coordinates": [ 73.508, 4.174 ] } },
{ "type": "Feature", "properties": { "name": "Nauru", "min_label": 5.0, "labelrank": 6, "adm0_a3": "NRU" }, "geometry": { "type": "Point", "coordinates": [ 166.933, -0.52 ] } },
{ "type": "Feature", "properties": { "name": "Federated States of Micronesia", "min_label": 5.0, "labelrank": 6, "adm0_a3": "FSM" }, "geometry": { "type": "Point", "coordinates": [ 158.234, 6.888 ] } },
{ "type": "Feature", "properties": { "name": "South Georgia and the South Sandwich Islands", "min_label": 5.0, "labelrank": 4, "adm0_a3": "SGS" }, "geometry": { "type": "Point", "coordinates": [ -31.063, -55.683 ] } },
{ "type": "Feature", "properties": { "name": "Falkland Islands", "min_label": 4.5, "labelrank": 5, "adm0_a3": "FLK" }, "geometry": { "type": "Point", "coordinates": [ -58.739, -51.609 ] } },
{ "type": "Feature", "properties": { "name": "Vanuatu", "min_label": 4.0, "labelrank": 4, "adm0_a3": "VUT" }, "geometry": { "type": "Point", "coordinates": [ 166.909, -15.372 ] } },
{ "type": "Feature", "properties": { "name": "Niue", "min_label": 4.0, "labelrank": 4, "adm0_a3": "NIU" }, "geometry": { "type": "Point", "coordinates": [ -169.863, -19.046 ] } },
{ "type": "Feature", "properties": { "name": "American Samoa", "min_label": 4.0, "labelrank": 4, "adm0_a3": "ASM" }, "geometry": { "type": "Point", "coordinates": [ -170.747, -14.327 ] } },
{ "type": "Feature", "properties": { "name": "Palau", "min_label": 5.0, "labelrank": 6, "adm0_a3": "PLW" }, "geometry": { "type": "Point", "coordinates": [ 134.58, 7.518 ] } },
{ "type": "Feature", "properties": { "name": "Guam", "min_label": 3.0, "labelrank": 6, "adm0_a3": "GUM" }, "geometry": { "type": "Point", "coordinates": [ 144.704, 13.354 ] } },
{ "type": "Feature", "properties": { "name": "Northern Mariana Islands", "min_label": 5.0, "labelrank": 6, "adm0_a3": "MNP" }, "geometry": { "type": "Point", "coordinates": [ 145.734, 15.188 ] } },
{ "type": "Feature", "properties": { "name": "Bahrain", "min_label": 4.0, "labelrank": 4, "adm0_a3": "BHR" }, "geometry": { "type": "Point", "coordinates": [ 50.555, 26.056 ] } },
{ "type": "Feature", "properties": { "name": "Coral Sea Islands", "min_label": 4.5, "labelrank": 5, "adm0_a3": "CSI" }, "geometry": { "type": "Point", "coordinates": [ 154.391, -21.029 ] } },
{ "type": "Feature", "properties": { "name": "Wake Island", "min_label": 6.0, "labelrank": 6, "adm0_a3": "PGA" }, "geometry": { "type": "Point", "coordinates": [ 115.82, 10.73 ] } },
{ "type": "Feature", "properties": { "name": "Clipperton Island", "min_label": 5.0, "labelrank": 5, "adm0_a3": "CLP" }, "geometry": { "type": "Point", "coordinates": [ -109.22, 10.297 ] } },
{ "type": "Feature", "properties": { "name": "Macau", "min_label": 4.0, "labelrank": 4, "adm0_a3": "MAC" }, "geometry": { "type": "Point", "coordinates": [ 113.556, 22.13 ] } },
{ "type": "Feature", "properties": { "name": "Ashmore and Cartier Islands", "min_label": 4.5, "labelrank": 5, "adm0_a3": "ATC" }, "geometry": { "type": "Point", "coordinates": [ 123.586, -12.433 ] } },
{ "type": "Feature", "properties": { "name": "Bajo Nuevo Bank", "min_label": 7.0, "labelrank": 8, "adm0_a3": "BJN" }, "geometry": { "type": "Point", "coordinates": [ -79.846, 15.792 ] } },
{ "type": "Feature", "properties": { "name": "Serranilla Bank", "min_label": 7.0, "labelrank": 5, "adm0_a3": "SER" }, "geometry": { "type": "Point", "coordinates": [ -78.638, 15.864 ] } },
{ "type": "Feature", "properties": { "name": "Scarborough Shoal", "min_label": 6.0, "labelrank": 6, "adm0_a3": "SCR" }, "geometry": { "type": "Point", "coordinates": [ 117.754, 15.152 ] } }
]
}
