{"type":"FeatureCollection", "features": [
{"type":"Feature","geometry":{"type":"Polygon","coordinates":[[[106.57999,52.79998],[106.26001,52.61999],[105.98002,52.52],[105.48,52.28001],[105.05998,52],[104.39996,51.85999],[103.86,51.85999],[103.62001,51.73999],[103.76,51.6],[104.30002,51.50001],[104.81999,51.46001],[105.24002,51.52001],[105.74004,51.75999],[106.10002,52.03998],[106.64003,52.32001],[107.31999,52.42],[107.79996,52.58],[108.17999,52.79998],[108.45997,53.14001],[108.76001,53.20001],[108.80001,53.38],[108.60002,53.43999],[108.99999,53.78003],[109.22003,53.61998],[109.31997,53.82],[109.47996,54.33999],[109.66,54.71999],[109.7,54.98],[109.92981,55.71296],[109.50699,55.73091],[109.19347,55.5356],[109.0527,55.0276],[108.37998,54.26],[108.03995,53.85997],[107.59998,53.51999],[107.29999,53.38],[107.08001,53.18001],[106.53999,52.94],[106.57999,52.79998]]]},"properties":{"name":"Lake Baikal"}},
{"type":"Feature","geometry":{"type":"Polygon","coordinates":[[[-98.9554,53.92978],[-99.23681,53.21629],[-98.20098,52.18457],[-97.23569,51.49779],[-96.92111,50.75406],[-96.72559,50.44891],[-96.23789,50.69101],[-96.39259,51.3973],[-97.6438,53.42521],[-97.80501,54.05939],[-97.95799,54.3371],[-98.9554,53.92978]]]},"properties":{"name":"Lake Winnipeg"}},
{"type":"Feature","geometry":{"type":"Polygon","coordinates":[[[-115,61.97239],[-115.6788,61.69179],[-116.80281,61.3259],[-118.1796,61.55629],[-118.38499,61.5211],[-118.34747,61.36137],[-118.06111,61.31197],[-116.43999,60.86001],[-115.34099,60.87659],[-113.64001,61.07999],[-112.63051,61.55991],[-111.27599,62.34911],[-110.1009,62.51562],[-109.11651,62.69281],[-109.09011,62.8141],[-109.40001,62.87818],[-110.20001,63.08],[-111.04001,62.92001],[-111.77891,62.4436],[-113.35341,62.04448],[-114.45259,62.42821],[-115.84279,62.7503],[-116.0586,62.7788],[-115.8067,62.54171],[-115,61.97239]]]},"properties":{"name":"Great Slave Lake"}},
{"type":"Feature","geometry":{"type":"Polygon","coordinates":[[[-79.05631,43.2541],[-78.53499,43.37999],[-77.74915,43.34283],[-76.93,43.26],[-76.18,43.59],[-76.23927,43.97915],[-76.35303,44.13467],[-76.56555,44.20803],[-76.88269,44.06946],[-77.16149,43.85014],[-77.60536,44.03933],[-78.45053,43.90319],[-79.15617,43.75743],[-79.46116,43.6392],[-79.76047,43.2972],[-79.36169,43.20238],[-79.05631,43.2541]]]},"properties":{"name":"Lake Ontario"}},
{"type":"Feature","geometry":{"type":"Polygon","coordinates":[[[-83.12001,42.08002],[-83.46283,41.69397],[-82.8461,41.48711],[-82.34745,41.43592],[-81.62351,41.56894],[-81.0312,41.84551],[-80.51645,41.98033],[-79.76221,42.26962],[-78.90058,42.86671],[-78.92001,42.965],[-79.79135,42.84204],[-80.27918,42.71566],[-80.54516,42.56009],[-81.09497,42.66076],[-81.39226,42.61518],[-81.82919,42.33553],[-82.57123,42.01702],[-83.12001,42.08002]]]},"properties":{"name":"Lake Erie"}},
{"type":"Feature","geometry":{"type":"Polygon","coordinates":[[[-89.6,48.00999],[-90.61999,47.68001],[-91.33,47.28001],[-92.00877,46.85843],[-92.01192,46.71167],[-91.00999,46.92],[-90.39703,46.57649],[-89.62499,46.83084],[-88.82261,47.1548],[-87.93992,47.48591],[-88.26122,46.95858],[-87.69428,46.83104],[-86.99001,46.45001],[-86.10262,46.67266],[-85.11999,46.76001],[-84.91001,46.48001],[-84.60491,46.43959],[-84.39559,46.77684],[-84.81528,46.90233],[-84.64501,47.2822],[-85.04062,47.5757],[-84.86422,47.86008],[-85.98653,48.01035],[-86.32103,48.57729],[-86.56001,48.71108],[-87.24904,48.73511],[-88.17895,48.9367],[-88.40424,48.80632],[-88.62642,48.56251],[-89.19406,48.40547],[-89.6,48.00999]]]},"properties":{"name":"Lake Superior"}},
{"type":"Feature","geometry":{"type":"Polygon","coordinates":[[[33.85037,0.12816],[33.33185,0.32499],[32.90614,0.08677],[32.27284,-0.05612],[31.81514,-0.64043],[31.8662,-1.02738],[31.83602,-1.62931],[31.64802,-2.32921],[31.92656,-2.71451],[32.37309,-2.48993],[32.95177,-2.43045],[33.07672,-2.54713],[33.64718,-2.30089],[33.25175,-1.95797],[33.57943,-1.50601],[34.07263,-1.05983],[34.13624,-0.31931],[33.85037,0.12816]]]},"properties":{"name":"Lake Victoria"}},
{"type":"Feature","geometry":{"type":"Polygon","coordinates":[[[29.83671,61.22608],[30.50205,60.84321],[30.53388,60.6301],[31.10893,60.14646],[31.10625,59.92769],[31.50974,59.92035],[31.69944,60.23565],[32.58388,60.20894],[32.5999,60.53351],[32.81575,60.48189],[32.94433,60.6426],[32.52688,61.11751],[30.852,61.77504],[29.83671,61.22608]]]},"properties":{"name":"Lake Ladoga"}},
{"type":"Feature","geometry":{"type":"Polygon","coordinates":[[[78.99077,46.74862],[78.39711,46.65767],[78.29701,46.46853],[77.85993,46.64785],[77.18132,46.64341],[76.20313,46.78001],[74.93938,46.81678],[74.09432,46.42781],[74.02068,46.20491],[73.67925,46.18307],[73.73713,46.01275],[73.43999,45.80586],[73.43674,45.60946],[74.09995,44.98893],[74.27803,46.00407],[74.77138,46.10783],[74.91122,46.40466],[75.40566,46.47081],[75.46333,46.67061],[75.61128,46.50719],[77.20607,46.39557],[78.44506,46.29717],[78.88989,46.36993],[79.24517,46.64516],[78.99077,46.74862]]]},"properties":{"name":"Lake Balkhash"}},
{"type":"Feature","geometry":{"type":"Polygon","coordinates":[[[30.80601,-8.57834],[31.02212,-8.78654],[31.18903,-8.72991],[30.60416,-7.54192],[30.52804,-6.92273],[29.72204,-6.24411],[29.95123,-5.86099],[29.75842,-5.4669],[29.79196,-5.04088],[29.60009,-4.89639],[29.65259,-4.42014],[29.28103,-3.4555],[29.10172,-5.05401],[29.37199,-5.61645],[29.19318,-6.03803],[29.53652,-6.75416],[30.14703,-7.29924],[30.27736,-7.84836],[30.56685,-8.11501],[30.46443,-8.49819],[30.80601,-8.57834]]]},"properties":{"name":"Lake Tanganyika"}},
{"type":"Feature","geometry":{"type":"Polygon","coordinates":[[[35.2602,-14.27747],[35.05598,-13.74293],[34.86757,-13.70113],[34.69388,-12.42239],[34.93702,-11.46343],[34.60789,-11.08051],[34.52423,-10.03014],[33.99558,-9.49544],[33.90659,-9.80173],[34.2599,-10.44758],[34.32269,-11.65298],[34.03253,-12.20856],[34.32998,-12.94458],[34.32093,-13.37939],[34.5511,-13.67209],[34.54676,-14.04767],[34.70654,-14.26202],[34.88121,-14.01201],[35.23623,-14.40129],[35.2602,-14.27747]]]},"properties":{"name":"Lake Malawi"}},
{"type":"Feature","geometry":{"type":"Polygon","coordinates":[[[13.97928,59.20491],[13.59145,59.33648],[13.1953,59.129],[13.02704,58.99353],[12.69709,58.95384],[12.52216,58.88028],[12.53777,58.77595],[12.46015,58.5062],[12.8301,58.50904],[13.28268,58.60867],[13.91892,58.9025],[13.98445,59.08621],[13.97928,59.20491]]]},"properties":{"name":"Vänern"}},
{"type":"Feature","geometry":{"type":"Polygon","coordinates":[[[-80.70644,26.78896],[-80.6937,27.03463],[-80.91971,27.06892],[-80.93244,26.82327],[-80.70644,26.78896]]]},"properties":{"name":"Lake Okeechobee"}},
{"type":"Feature","geometry":{"type":"Polygon","coordinates":[[[-84.85549,11.1479],[-85.03685,11.52165],[-85.56534,11.94033],[-85.88517,11.9001],[-85.79132,11.50974],[-85.29014,11.17617],[-84.85549,11.1479]]]},"properties":{"name":"Lago de Nicaragua"}},
{"type":"Feature","geometry":{"type":"Polygon","coordinates":[[[37.14371,11.85059],[37.33636,11.71339],[37.48188,11.82509],[37.51836,12.1606],[37.24401,12.23388],[37.01483,12.0356],[37.14371,11.85059]]]},"properties":{"name":"Lake Tana"}},
{"type":"Feature","geometry":{"type":"Polygon","coordinates":[[[-69.40674,-16.1262],[-69.25099,-16.22754],[-69.18205,-16.40117],[-69.09084,-16.46199],[-69.00116,-16.53641],[-68.90525,-16.50664],[-68.74624,-16.356],[-68.95969,-15.91329],[-68.98697,-15.8859],[-69.59675,-15.41048],[-69.8856,-15.35426],[-69.86798,-15.54608],[-69.87702,-15.66984],[-69.98366,-15.73718],[-69.7291,-15.92879],[-69.40674,-16.1262]]]},"properties":{"name":"Lago Titicaca"}},
{"type":"Feature","geometry":{"type":"Polygon","coordinates":[[[-99.40377,53.12585],[-99.39318,53.26791],[-99.66551,53.29582],[-100.0565,53.44333],[-99.91067,53.82131],[-99.87129,53.92847],[-100.18357,53.93035],[-100.04779,54.10013],[-99.99549,54.21586],[-100.23587,54.23033],[-100.3263,54.09401],[-100.40449,53.94508],[-100.42673,53.90741],[-100.33488,53.74525],[-100.60685,53.53162],[-100.43146,53.28419],[-99.80499,53.14291],[-99.54847,53.12043],[-99.40377,53.12585]]]},"properties":{"name":"Cedar Lake"}},
{"type":"Feature","geometry":{"type":"Polygon","coordinates":[[[35.71465,62.28023],[35.23395,62.67535],[34.99541,62.74847],[34.61435,62.76245],[35.1397,62.48776],[35.46371,62.25602],[35.21659,62.19328],[35.08027,62.14119],[34.83563,62.29677],[34.62613,62.45223],[34.66562,62.22979],[34.28982,62.29775],[34.26502,62.21915],[34.48692,61.86697],[34.85734,61.5518],[35.16,61.39429],[35.57832,61.08635],[35.20729,61.11444],[34.86684,61.11637],[35.35074,60.94858],[36.10946,61.01509],[36.3914,61.27605],[36.05416,61.71631],[35.71465,62.28023]]]},"properties":{"name":"Lake Onega"}},
{"type":"Feature","geometry":{"type":"Polygon","coordinates":[[[-112.18405,41.34125],[-112.21901,41.42856],[-112.40533,41.33802],[-112.58956,41.43892],[-112.87814,41.62816],[-112.70549,41.16754],[-112.67883,41.13049],[-112.17193,40.85146],[-112.13876,41.14235],[-112.18405,41.34125]]]},"properties":{"name":"Great Salt Lake"}},
{"type":"Feature","geometry":{"type":"Polygon","coordinates":[[[-117.75929,66.22368],[-117.61279,66.41998],[-117.60545,66.55935],[-120.17695,66.46527],[-119.35744,66.87519],[-119.48725,66.9693],[-124.89754,66.15116],[-124.95363,66.04925],[-122.35622,65.90184],[-122.32599,65.79379],[-123.17963,65.31937],[-123.23271,65.18041],[-122.5645,65.03107],[-121.05728,65.44634],[-120.94527,65.37774],[-121.3361,64.99461],[-121.35509,64.87999],[-119.7022,65.36795],[-119.66481,65.52742],[-119.74568,65.65436],[-119.72005,65.7348],[-118.1071,65.76692],[-117.97375,65.8549],[-117.75929,66.22368]]]},"properties":{"name":"Great Bear Lake"}},
{"type":"Feature","geometry":{"type":"Polygon","coordinates":[[[-109.6533,59.03764],[-106.54695,59.29282],[-106.54517,59.31969],[-109.09672,59.55042],[-111.16001,58.75985],[-111.19949,58.68557],[-111.08626,58.56017],[-109.6533,59.03764]]]},"properties":{"name":"Lake Athabasca"}},
{"type":"Feature","geometry":{"type":"Polygon","coordinates":[[[-101.89514,58.01403],[-102.12875,58.01915],[-102.81369,57.46435],[-102.81323,57.28715],[-102.57681,56.93828],[-103.0144,56.5651],[-103.07833,56.7108],[-103.14874,56.70411],[-103.2825,56.40994],[-103.20416,56.3454],[-101.93403,57.23067],[-101.9709,57.34867],[-101.54385,57.8681],[-101.89514,58.01403]]]},"properties":{"name":"Reindeer Lake"}},
{"type":"Feature","geometry":{"type":"Polygon","coordinates":[[[-84.93,45.79],[-84.08,45.58998],[-83.34,45.20001],[-83.25879,44.74574],[-83.35,44.29001],[-83.89999,43.88998],[-83.8487,43.63832],[-83.65,43.63],[-83.02999,44.07],[-82.65999,43.97],[-82.48,43.39001],[-82.43,42.98001],[-81.78273,43.31085],[-81.70018,43.59005],[-81.75265,44.06465],[-81.27568,44.62017],[-81.40234,45.25005],[-80.89769,44.63164],[-80.085,44.49393],[-79.76293,44.8246],[-80.41056,45.59014],[-80.7368,45.90381],[-81.63137,46.09755],[-82.44199,46.19964],[-83.20251,46.21015],[-83.95257,46.33428],[-84.14871,46.55576],[-84.33671,46.40877],[-83.83919,46.01022],[-84.71999,45.91999],[-84.75356,45.92448],[-84.93,45.79]]]},"properties":{"name":"Lake Huron"}},
{"type":"Feature","geometry":{"type":"Polygon","coordinates":[[[-84.75356,45.92448],[-85.53999,46.03001],[-86.32,45.82999],[-87.00001,45.74],[-87.59643,45.09371],[-87.98832,44.73332],[-87.85282,44.61505],[-87.11806,45.25933],[-86.96748,45.26287],[-87.48636,44.49336],[-87.71221,43.7965],[-87.90215,43.23051],[-87.77673,42.74085],[-87.80345,42.494],[-87.79569,42.23411],[-87.52618,41.70851],[-87.43422,41.64071],[-87.09445,41.64617],[-86.82444,41.75619],[-86.62192,41.89442],[-86.21605,42.3817],[-86.18843,43.0414],[-86.52001,43.66],[-86.47027,44.08423],[-86.20936,44.5748],[-85.95984,44.91059],[-85.55999,45.15001],[-85.4671,44.81458],[-85.29045,45.30824],[-85.07,45.40999],[-84.93,45.79],[-84.75356,45.92448]]]},"properties":{"name":"Lake Michigan"}}
]}