{"type":"FeatureCollection","features":[{"type":"Feature","properties":{"name":"Arctic Ocean","featurecla":"ocean","min_label":1},"geometry":{"type":"LineString","coordinates":[[-180.0,78.0],[-175.0,78.0],[-170.0,78.0],[-165.0,78.0],[-160.0,78.0],[-155.0,78.0],[-150.0,78.0],[-145.0,78.0],[-140.0,78.0],[-135.0,78.0],[-130.0,78.0],[-125.0,78.0],[-120.0,78.0]]}},{"type":"Feature","properties":{"name":"Southern Ocean","featurecla":"ocean","min_label":1},"geometry":{"type":"LineString","coordinates":[[33.499,-62.878],[34.989,-62.878],[36.479,-62.878],[37.969,-62.878],[39.46,-62.878],[40.95,-62.878],[42.44,-62.878],[43.931,-62.878],[45.421,-62.878],[46.911,-62.878],[48.401,-62.878],[49.892,-62.878],[51.382,-62.878],[52.872,-62.878],[54.363,-62.878],[55.853,-62.878],[57.343,-62.878],[58.833,-62.878],[60.324,-62.878],[61.814,-62.878],[63.304,-62.878],[64.795,-62.878],[66.285,-62.878],[67.775,-62.878],[69.265,-62.878],[70.756,-62.878],[72.246,-62.878],[73.736,-62.878],[75.227,-62.878],[76.717,-62.878],[78.207,-62.878],[79.697,-62.878],[81.188,-62.878],[82.678,-62.878],[84.168,-62.878],[85.659,-62.878],[87.149,-62.878],[88.639,-62.878],[90.129,-62.878],[91.62,-62.878]]}},{"type":"Feature","properties":{"name":"Atlantic Ocean","featurecla":"ocean","min_label":1},"geometry":{"type":"LineString","coordinates":[[-71.417,37.65],[-69.918,37.65],[-68.42,37.65],[-66.921,37.65],[-65.423,37.65],[-63.924,37.65],[-62.426,37.65],[-60.927,37.65],[-59.429,37.65],[-57.931,37.65],[-56.432,37.65],[-54.934,37.65],[-53.435,37.65],[-51.937,37.65],[-50.438,37.65],[-48.94,37.65],[-47.441,37.65],[-45.943,37.65],[-44.444,37.65],[-42.946,37.65],[-41.448,37.65],[-39.949,37.65],[-38.451,37.65],[-36.952,37.65],[-35.454,37.65],[-33.955,37.65],[-32.457,37.65],[-30.958,37.65],[-29.46,37.65],[-27.961,37.65],[-26.463,37.65],[-24.965,37.65],[-23.466,37.65],[-21.968,37.65],[-20.469,37.65],[-18.971,37.65],[-17.472,37.65],[-15.974,37.65],[-14.475,37.65],[-12.977,37.65]]}},{"type":"Feature","properties":{"name":"Pacific Ocean","featurecla":"ocean","min_label":1},"geometry":{"type":"LineString","coordinates":[[-162.895,11.69],[-161.411,11.69],[-159.926,11.69],[-158.442,11.69],[-156.957,11.69],[-155.473,11.69],[-153.988,11.69],[-152.503,11.69],[-151.019,11.69],[-149.534,11.69],[-148.05,11.69],[-146.565,11.69],[-145.081,11.69],[-143.596,11.69],[-142.111,11.69],[-140.627,11.69],[-139.142,11.69],[-137.658,11.69],[-136.173,11.69],[-134.689,11.69],[-133.204,11.69],[-131.72,11.69],[-130.235,11.69],[-128.75,11.69],[-127.266,11.69],[-125.781,11.69],[-124.297,11.69],[-122.812,11.69],[-121.328,11.69],[-119.843,11.69],[-118.359,11.69],[-116.874,11.69],[-115.389,11.69],[-113.905,11.69],[-112.42,11.69],[-110.936,11.69],[-109.451,11.69],[-107.967,11.69],[-106.482,11.69],[-104.997,11.69],[-103.513,11.69]]}},{"type":"Feature","properties":{"name":"Pacific Ocean","featurecla":"ocean","min_label":1},"geometry":{"type":"LineString","coordinates":[[-154.802,-29.101],[-153.312,-29.101],[-151.822,-29.101],[-150.332,-29.101],[-148.842,-29.101],[-147.352,-29.101],[-145.862,-29.101],[-144.372,-29.101],[-142.883,-29.101],[-141.393,-29.101],[-139.903,-29.101],[-138.413,-29.101],[-136.923,-29.101],[-135.433,-29.101],[-133.943,-29.101],[-132.453,-29.101],[-130.963,-29.101],[-129.474,-29.101],[-127.984,-29.101],[-126.494,-29.101],[-125.004,-29.101],[-123.514,-29.101],[-122.024,-29.101],[-120.534,-29.101],[-119.044,-29.101],[-117.555,-29.101],[-116.065,-29.101],[-114.575,-29.101],[-113.085,-29.101],[-111.595,-29.101],[-110.105,-29.101],[-108.615,-29.101],[-107.125,-29.101],[-105.636,-29.101],[-104.146,-29.101],[-102.656,-29.101],[-101.166,-29.101],[-99.676,-29.101],[-98.186,-29.101],[-96.696,-29.101]]}},{"type":"Feature","properties":{"name":"Indian Ocean","featurecla":"ocean","min_label":1},"geometry":{"type":"LineString","coordinates":[[57.765,-46.34],[59.254,-46.34],[60.744,-46.34],[62.234,-46.34],[63.723,-46.34],[65.213,-46.34],[66.703,-46.34],[68.192,-46.34],[69.682,-46.34],[71.172,-46.34],[72.662,-46.34],[74.151,-46.34],[75.641,-46.34],[77.131,-46.34],[78.62,-46.34],[80.11,-46.34],[81.6,-46.34],[83.089,-46.34],[84.579,-46.34],[86.069,-46.34],[87.558,-46.34],[89.048,-46.34],[90.538,-46.34],[92.027,-46.34],[93.517,-46.34],[95.007,-46.34],[96.496,-46.34],[97.986,-46.34],[99.476,-46.34],[100.965,-46.34],[102.455,-46.34],[103.945,-46.34],[105.434,-46.34],[106.924,-46.34],[108.414,-46.34],[109.904,-46.34],[111.393,-46.34],[112.883,-46.34],[114.373,-46.34],[115.862,-46.34]]}},{"type":"Feature","properties":{"name":"Atlantic Ocean","featurecla":"ocean","min_label":1},"geometry":{"type":"LineString","coordinates":[[-51.134,-39.335],[-49.634,-39.335],[-48.134,-39.335],[-46.635,-39.335],[-45.135,-39.335],[-43.635,-39.335],[-42.135,-39.335],[-40.636,-39.335],[-39.136,-39.335],[-37.636,-39.335],[-36.136,-39.335],[-34.636,-39.335],[-33.137,-39.335],[-31.637,-39.335],[-30.137,-39.335],[-28.637,-39.335],[-27.138,-39.335],[-25.638,-39.335],[-24.138,-39.335],[-22.638,-39.335],[-21.139,-39.335],[-19.639,-39.335],[-18.139,-39.335],[-16.639,-39.335],[-15.139,-39.335],[-13.64,-39.335],[-12.14,-39.335],[-10.64,-39.335],[-9.14,-39.335],[-7.641,-39.335],[-6.141,-39.335],[-4.641,-39.335],[-3.141,-39.335],[-1.642,-39.335],[-0.142,-39.335],[1.358,-39.335],[2.858,-39.335],[4.357,-39.335],[5.857,-39.335],[7.357,-39.335],[8.857,-39.335]]}},{"type":"Feature","properties":{"name":"Black Sea","featurecla":"sea","min_label":2},"geometry":{"type":"LineString","coordinates":[[28.484,43.088],[28.996,43.229],[29.508,43.353],[30.019,43.459],[30.531,43.549],[31.043,43.621],[31.554,43.676],[32.066,43.714],[32.577,43.735],[33.089,43.739],[33.601,43.725],[34.112,43.694],[34.624,43.646],[35.136,43.581],[35.647,43.499],[36.159,43.399],[36.671,43.283],[37.182,43.149],[37.694,42.998],[38.205,42.83],[38.717,42.644],[39.229,42.442],[39.74,42.222],[40.252,41.985],[40.764,41.731]]}},{"type":"Feature","properties":{"name":"Philippine Sea","featurecla":"sea","min_label":2},"geometry":{"type":"LineString","coordinates":[[123.196,18.873],[124.664,18.873],[126.133,18.873],[127.602,18.873],[129.071,18.873],[130.54,18.873],[132.009,18.873],[133.477,18.873],[134.946,18.873],[136.415,18.873],[137.884,18.873],[139.353,18.873],[140.822,18.873],[142.29,18.873],[143.759,18.873],[145.228,18.873]]}},{"type":"Feature","properties":{"name":"Tasman Sea","featurecla":"sea","min_label":2},"geometry":{"type":"LineString","coordinates":[[148.383,-38.459],[149.418,-38.688],[150.453,-38.9],[151.489,-39.093],[152.524,-39.267],[153.559,-39.424],[154.595,-39.562],[155.63,-39.682],[156.666,-39.784],[157.701,-39.867],[158.736,-39.932],[159.772,-39.979],[160.807,-40.008],[161.842,-40.018],[162.878,-40.01],[163.913,-39.984],[164.948,-39.939],[165.984,-39.877],[167.019,-39.796],[168.055,-39.696],[169.09,-39.579],[170.125,-39.443],[171.161,-39.288],[172.196,-39.116],[173.231,-38.925]]}},{"type":"Feature","properties":{"name":"Bay of Bengal","featurecla":"bay","min_label":2},"geometry":{"type":"LineString","coordinates":[[80.703,15.46],[82.07,15.46],[83.436,15.46],[84.803,15.46],[86.169,15.46],[87.536,15.46],[88.902,15.46],[90.269,15.46],[91.635,15.46],[93.002,15.46]]}},{"type":"Feature","properties":{"name":"South China Sea","featurecla":"sea","min_label":2},"geometry":{"type":"LineString","coordinates":[[105.337,-1.33],[106.03,-0.364],[106.704,0.603],[107.358,1.57],[107.992,2.537],[108.606,3.503],[109.2,4.47],[109.774,5.437],[110.329,6.404],[110.863,7.37],[111.378,8.337],[111.872,9.304],[112.347,10.271],[112.802,11.237],[113.237,12.204],[113.652,13.171],[114.047,14.137],[114.422,15.104],[114.778,16.071],[115.113,17.038],[115.429,18.004],[115.724,18.971],[116.0,19.938],[116.256,20.905],[116.492,21.871]]}},{"type":"Feature","properties":{"name":"Arabian Sea","featurecla":"sea","min_label":2},"geometry":{"type":"LineString","coordinates":[[52.174,15.089],[53.664,15.089],[55.155,15.089],[56.645,15.089],[58.135,15.089],[59.625,15.089],[61.116,15.089],[62.606,15.089],[64.096,15.089],[65.587,15.089],[67.077,15.089],[68.567,15.089],[70.057,15.089],[71.548,15.089],[73.038,15.089]]}},{"type":"Feature","properties":{"name":"Beaufort Sea","featurecla":"sea","min_label":2},"geometry":{"type":"LineString","coordinates":[[-154.183,71.728],[-152.962,71.636],[-151.742,71.559],[-150.521,71.498],[-149.301,71.452],[-148.08,71.422],[-146.86,71.408],[-145.639,71.41],[-144.419,71.427],[-143.198,71.459],[-141.978,71.508],[-140.757,71.572],[-139.536,71.652],[-138.316,71.747],[-137.095,71.858],[-135.875,71.985],[-134.654,72.127],[-133.434,72.285],[-132.213,72.459],[-130.993,72.649],[-129.772,72.854],[-128.552,73.074],[-127.331,73.311],[-126.111,73.563],[-124.89,73.83]]}},{"type":"Feature","properties":{"name":"Caribbean Sea","featurecla":"sea","min_label":2},"geometry":{"type":"LineString","coordinates":[[-86.309,18.099],[-85.265,17.68],[-84.221,17.286],[-83.177,16.915],[-82.132,16.569],[-81.088,16.247],[-80.044,15.948],[-79.0,15.674],[-77.956,15.425],[-76.912,15.199],[-75.867,14.997],[-74.823,14.82],[-73.779,14.666],[-72.735,14.537],[-71.691,14.432],[-70.646,14.351],[-69.602,14.294],[-68.558,14.261],[-67.514,14.252],[-66.47,14.268],[-65.426,14.307],[-64.381,14.371],[-63.337,14.459],[-62.293,14.57],[-61.249,14.706]]}},{"type":"Feature","properties":{"name":"Gulf of Mexico","featurecla":"gulf","min_label":2},"geometry":{"type":"LineString","coordinates":[[-96.601,24.658],[-95.957,24.779],[-95.313,24.895],[-94.67,25.006],[-94.026,25.111],[-93.382,25.21],[-92.739,25.304],[-92.095,25.392],[-91.452,25.475],[-90.808,25.552],[-90.164,25.623],[-89.521,25.689],[-88.877,25.749],[-88.233,25.804],[-87.59,25.853],[-86.946,25.897],[-86.302,25.935],[-85.659,25.967],[-85.015,25.994],[-84.372,26.015],[-83.728,26.031],[-83.084,26.041],[-82.441,26.045],[-81.797,26.044],[-81.153,26.037]]}},{"type":"Feature","properties":{"name":"Labrador Sea","featurecla":"sea","min_label":2},"geometry":{"type":"LineString","coordinates":[[-61.321,57.751],[-59.937,57.751],[-58.552,57.751],[-57.168,57.751],[-55.784,57.751],[-54.399,57.751],[-53.015,57.751],[-51.631,57.751],[-50.246,57.751],[-48.862,57.751],[-47.478,57.751],[-46.094,57.751]]}},{"type":"Feature","properties":{"name":"Hudson Bay","featurecla":"bay","min_label":2},"geometry":{"type":"LineString","coordinates":[[-93.666,60.301],[-93.006,60.325],[-92.345,60.34],[-91.684,60.345],[-91.024,60.341],[-90.363,60.326],[-89.702,60.302],[-89.041,60.269],[-88.381,60.226],[-87.72,60.173],[-87.059,60.11],[-86.399,60.038],[-85.738,59.956],[-85.077,59.864],[-84.417,59.763],[-83.756,59.652],[-83.095,59.531],[-82.435,59.401],[-81.774,59.261],[-81.113,59.111],[-80.452,58.952],[-79.792,58.783],[-79.131,58.604],[-78.47,58.416],[-77.81,58.217]]}},{"type":"Feature","properties":{"name":"Caspian Sea","featurecla":"sea","min_label":2},"geometry":{"type":"LineString","coordinates":[[52.217,37.35],[51.98,37.726],[51.755,38.102],[51.544,38.478],[51.347,38.854],[51.162,39.23],[50.991,39.606],[50.833,39.982],[50.688,40.358],[50.557,40.734],[50.439,41.11],[50.334,41.486],[50.243,41.862],[50.164,42.239],[50.099,42.615],[50.048,42.991],[50.009,43.367],[49.984,43.743],[49.972,44.119],[49.973,44.495],[49.988,44.871],[50.016,45.247],[50.057,45.623],[50.112,45.999],[50.179,46.375]]}},{"type":"Feature","properties":{"name":"Baffin Bay","featurecla":"bay","min_label":2},"geometry":{"type":"LineString","coordinates":[[-80.119,76.652],[-79.123,76.322],[-78.126,76.004],[-77.13,75.698],[-76.133,75.403],[-75.137,75.12],[-74.14,74.848],[-73.144,74.588],[-72.147,74.34],[-71.151,74.103],[-70.154,73.878],[-69.158,73.664],[-68.162,73.462],[-67.165,73.272],[-66.169,73.093],[-65.172,72.926],[-64.176,72.771],[-63.179,72.627],[-62.183,72.494],[-61.186,72.374],[-60.19,72.265],[-59.193,72.167],[-58.197,72.081],[-57.2,72.007],[-56.204,71.944]]}},{"type":"Feature","properties":{"name":"Gulf of Alaska","featurecla":"gulf","min_label":2},"geometry":{"type":"LineString","coordinates":[[-152.932,58.683],[-151.472,58.683],[-150.013,58.683],[-148.554,58.683],[-147.094,58.683],[-145.635,58.683],[-144.176,58.683],[-142.716,58.683],[-141.257,58.683],[-139.798,58.683],[-138.338,58.683]]}},{"type":"Feature","properties":{"name":"Red Sea","featurecla":"sea","min_label":2},"geometry":{"type":"LineString","coordinates":[[42.569,13.558],[42.244,14.119],[41.919,14.681],[41.595,15.242],[41.272,15.804],[40.95,16.365],[40.628,16.927],[40.307,17.488],[39.987,18.05],[39.668,18.611],[39.35,19.173],[39.032,19.734],[38.715,20.296],[38.399,20.858],[38.084,21.419],[37.769,21.981],[37.455,22.542],[37.142,23.104],[36.83,23.665],[36.519,24.227],[36.208,24.788],[35.898,25.35],[35.589,25.911],[35.281,26.473],[34.973,27.034]]}},{"type":"Feature","properties":{"name":"Sea of Okhotsk","featurecla":"sea","min_label":2},"geometry":{"type":"LineString","coordinates":[[138.756,54.823],[140.226,54.823],[141.696,54.823],[143.166,54.823],[144.636,54.823],[146.106,54.823],[147.577,54.823],[149.047,54.823],[150.517,54.823],[151.987,54.823],[153.457,54.823],[154.927,54.823]]}},{"type":"Feature","properties":{"name":"Weddell Sea","featurecla":"sea","min_label":2},"geometry":{"type":"LineString","coordinates":[[-78.682,-79.049],[-76.072,-78.835],[-73.463,-78.618],[-70.853,-78.398],[-68.244,-78.176],[-65.634,-77.95],[-63.025,-77.721],[-60.416,-77.489],[-57.806,-77.254],[-55.197,-77.016],[-52.587,-76.775],[-49.978,-76.531],[-47.368,-76.284],[-44.759,-76.035],[-42.15,-75.782],[-39.54,-75.526],[-36.931,-75.267],[-34.321,-75.005],[-31.712,-74.741],[-29.103,-74.473],[-26.493,-74.202],[-23.884,-73.928],[-21.274,-73.652],[-18.665,-73.372],[-16.055,-73.089]]}},{"type":"Feature","properties":{"name":"Persian Gulf","featurecla":"gulf","min_label":2},"geometry":{"type":"LineString","coordinates":[[48.386,30.106],[48.726,29.576],[49.065,29.078],[49.405,28.614],[49.745,28.183],[50.085,27.785],[50.424,27.42],[50.764,27.089],[51.104,26.791],[51.444,26.526],[51.783,26.294],[52.123,26.095],[52.463,25.93],[52.803,25.798],[53.143,25.699],[53.482,25.634],[53.822,25.601],[54.162,25.602],[54.502,25.637],[54.841,25.704],[55.181,25.805],[55.521,25.938],[55.861,26.105],[56.2,26.306],[56.54,26.539]]}},{"type":"Feature","properties":{"name":"Celebes Sea","featurecla":"sea","min_label":4},"geometry":{"type":"LineString","coordinates":[[117.874,3.985],[119.32,3.985],[120.766,3.985],[122.212,3.985],[123.658,3.985],[125.104,3.985]]}},{"type":"Feature","properties":{"name":"Sulu Sea","featurecla":"sea","min_label":4},"geometry":{"type":"LineString","coordinates":[[117.756,8.557],[119.089,8.557],[120.422,8.557],[121.755,8.557],[123.088,8.557]]}},{"type":"Feature","properties":{"name":"Norwegian Sea","featurecla":"sea","min_label":4},"geometry":{"type":"LineString","coordinates":[[-7.147,70.961],[-5.699,70.961],[-4.251,70.961],[-2.803,70.961],[-1.356,70.961],[0.092,70.961],[1.54,70.961],[2.988,70.961],[4.436,70.961],[5.883,70.961],[7.331,70.961],[8.779,70.961],[10.227,70.961],[11.675,70.961],[13.123,70.961],[14.57,70.961],[16.018,70.961],[17.466,70.961],[18.914,70.961],[20.362,70.961],[21.81,70.961],[23.257,70.961]]}},{"type":"Feature","properties":{"name":"Greenland Sea","featurecla":"sea","min_label":4},"geometry":{"type":"LineString","coordinates":[[-28.533,69.836],[-26.742,70.53],[-24.95,71.193],[-23.159,71.825],[-21.367,72.426],[-19.575,72.997],[-17.784,73.536],[-15.992,74.045],[-14.201,74.524],[-12.409,74.971],[-10.618,75.388],[-8.826,75.774],[-7.035,76.13],[-5.243,76.455],[-3.451,76.749],[-1.66,77.012],[0.132,77.244],[1.923,77.446],[3.715,77.617],[5.506,77.757],[7.298,77.867],[9.09,77.946],[10.881,77.994],[12.673,78.011],[14.464,77.998]]}},{"type":"Feature","properties":{"name":"Banda Sea","featurecla":"sea","min_label":4},"geometry":{"type":"LineString","coordinates":[[121.154,-4.938],[121.615,-4.974],[122.076,-5.012],[122.537,-5.051],[122.997,-5.091],[123.458,-5.133],[123.919,-5.175],[124.38,-5.219],[124.841,-5.264],[125.302,-5.31],[125.762,-5.358],[126.223,-5.406],[126.684,-5.456],[127.145,-5.507],[127.606,-5.559],[128.066,-5.613],[128.527,-5.667],[128.988,-5.723],[129.449,-5.78],[129.91,-5.839],[130.371,-5.898],[130.831,-5.959],[131.292,-6.021],[131.753,-6.084],[132.214,-6.148]]}},{"type":"Feature","properties":{"name":"Bay of Biscay","featurecla":"bay","min_label":4},"geometry":{"type":"LineString","coordinates":[[-7.478,44.775],[-7.211,44.964],[-6.944,45.135],[-6.677,45.289],[-6.41,45.425],[-6.143,45.544],[-5.876,45.645],[-5.609,45.729],[-5.342,45.795],[-5.075,45.843],[-4.808,45.874],[-4.541,45.887],[-4.274,45.883],[-4.007,45.861],[-3.74,45.822],[-3.473,45.765],[-3.206,45.69],[-2.939,45.598],[-2.672,45.488],[-2.405,45.361],[-2.138,45.216],[-1.871,45.054],[-1.604,44.874],[-1.337,44.677],[-1.071,44.462]]}},{"type":"Feature","properties":{"name":"Gulf of Guinea","featurecla":"gulf","min_label":4},"geometry":{"type":"LineString","coordinates":[[-6.301,4.219],[-5.673,4.235],[-5.045,4.239],[-4.417,4.231],[-3.788,4.211],[-3.16,4.18],[-2.532,4.137],[-1.904,4.083],[-1.276,4.016],[-0.648,3.938],[-0.02,3.848],[0.608,3.747],[1.236,3.634],[1.865,3.509],[2.493,3.372],[3.121,3.224],[3.749,3.064],[4.377,2.892],[5.005,2.709],[5.633,2.513],[6.261,2.306],[6.89,2.088],[7.518,1.857],[8.146,1.615],[8.774,1.362]]}},{"type":"Feature","properties":{"name":"Scotia Sea","featurecla":"sea","min_label":4},"geometry":{"type":"LineString","coordinates":[[-55.315,-61.118],[-55.271,-61.12],[-55.228,-61.122],[-55.184,-61.124],[-55.141,-61.127],[-55.097,-61.13],[-55.053,-61.133],[-55.01,-61.137],[-54.966,-61.141],[-54.923,-61.146],[-54.879,-61.151],[-54.836,-61.156],[-54.792,-61.162],[-54.748,-61.168],[-54.705,-61.175],[-54.661,-61.181],[-54.618,-61.189],[-54.574,-61.196],[-54.531,-61.204],[-54.487,-61.213],[-54.443,-61.221],[-54.4,-61.231],[-54.356,-61.24],[-54.313,-61.25],[-54.269,-61.26]]}},{"type":"Feature","properties":{"name":"Scotia Sea","featurecla":"sea","min_label":4,"beside":1,"from":4,"until":5.75,"tmw":5.0},"geometry":{"type":"Point","coordinates":[-54.083,-61.162]}},{"type":"Feature","properties":{"name":"Baltic Sea","featurecla":"sea","min_label":4},"geometry":{"type":"LineString","coordinates":[[12.856,54.563],[13.265,54.711],[13.675,54.861],[14.084,55.014],[14.493,55.17],[14.903,55.329],[15.312,55.49],[15.722,55.654],[16.131,55.821],[16.54,55.991],[16.95,56.163],[17.359,56.339],[17.768,56.517],[18.178,56.698],[18.587,56.881],[18.997,57.068],[19.406,57.257],[19.815,57.449],[20.225,57.644],[20.634,57.841],[21.044,58.042],[21.453,58.245],[21.862,58.451],[22.272,58.659],[22.681,58.871]]}},{"type":"Feature","properties":{"name":"Barents Sea","featurecla":"sea","min_label":4},"geometry":{"type":"LineString","coordinates":[[20.676,77.311],[22.535,76.76],[24.394,76.263],[26.253,75.821],[28.112,75.433],[29.971,75.099],[31.829,74.82],[33.688,74.594],[35.547,74.423],[37.406,74.306],[39.265,74.244],[41.124,74.236],[42.983,74.281],[44.841,74.382],[46.7,74.536],[48.559,74.745],[50.418,75.008],[52.277,75.325],[54.136,75.696],[55.994,76.122],[57.853,76.602],[59.712,77.136],[61.571,77.724],[63.43,78.367],[65.289,79.064]]}},{"type":"Feature","properties":{"name":"North Sea","featurecla":"sea","min_label":4},"geometry":{"type":"LineString","coordinates":[[-3.161,57.978],[-2.662,57.782],[-2.163,57.595],[-1.664,57.417],[-1.166,57.248],[-0.667,57.088],[-0.168,56.936],[0.331,56.793],[0.829,56.659],[1.328,56.534],[1.827,56.417],[2.326,56.309],[2.825,56.21],[3.323,56.12],[3.822,56.039],[4.321,55.966],[4.82,55.902],[5.318,55.847],[5.817,55.801],[6.316,55.764],[6.815,55.735],[7.313,55.715],[7.812,55.704],[8.311,55.702],[8.81,55.708]]}},{"type":"Feature","properties":{"name":"Sea of the Hebrides","featurecla":"sea","min_label":5.7},"geometry":{"type":"LineString","coordinates":[[-7.753,56.176],[-6.697,56.176],[-5.64,56.176]]}},{"type":"Feature","properties":{"name":"Sea of the Hebrides","featurecla":"sea","min_label":5.7,"beside":1,"from":5.7,"until":5.95,"tmw":8.6},"geometry":{"type":"Point","coordinates":[-4.361,56.584]}},{"type":"Feature","properties":{"name":"Irish Sea","featurecla":"sea","min_label":4},"geometry":{"type":"LineString","coordinates":[[-6.207,53.979],[-5.148,53.979],[-4.089,53.979],[-3.03,53.979]]}},{"type":"Feature","properties":{"name":"Java Sea","featurecla":"sea","min_label":4},"geometry":{"type":"LineString","coordinates":[[105.647,-4.453],[106.179,-4.501],[106.712,-4.549],[107.244,-4.598],[107.777,-4.649],[108.309,-4.7],[108.842,-4.753],[109.374,-4.806],[109.906,-4.86],[110.439,-4.916],[110.971,-4.972],[111.504,-5.03],[112.036,-5.088],[112.568,-5.148],[113.101,-5.208],[113.633,-5.269],[114.166,-5.332],[114.698,-5.395],[115.23,-5.46],[115.763,-5.525],[116.295,-5.592],[116.828,-5.659],[117.36,-5.728],[117.893,-5.797],[118.425,-5.868]]}},{"type":"Feature","properties":{"name":"Andaman Sea","featurecla":"sea","min_label":4},"geometry":{"type":"LineString","coordinates":[[95.299,6.335],[95.339,6.727],[95.375,7.119],[95.408,7.511],[95.437,7.904],[95.462,8.296],[95.484,8.688],[95.502,9.08],[95.516,9.472],[95.527,9.864],[95.534,10.256],[95.537,10.648],[95.537,11.041],[95.533,11.433],[95.525,11.825],[95.514,12.217],[95.499,12.609],[95.48,13.001],[95.458,13.393],[95.432,13.785],[95.402,14.177],[95.369,14.57],[95.332,14.962],[95.291,15.354],[95.247,15.746]]}},{"type":"Feature","properties":{"name":"Yellow Sea","featurecla":"sea","min_label":4},"geometry":{"type":"LineString","coordinates":[[119.485,34.777],[120.836,34.777],[122.187,34.777],[123.538,34.777],[124.89,34.777],[126.241,34.777]]}},{"type":"Feature","properties":{"name":"East China Sea","featurecla":"sea","min_label":4},"geometry":{"type":"LineString","coordinates":[[121.095,27.983],[122.376,27.983],[123.657,27.983],[124.937,27.983],[126.218,27.983],[127.499,27.983],[128.78,27.983]]}},{"type":"Feature","properties":{"name":"Chukchi Sea","featurecla":"sea","min_label":4},"geometry":{"type":"LineString","coordinates":[[-178.353,70.125],[-177.51,69.842],[-176.667,69.589],[-175.823,69.367],[-174.98,69.175],[-174.137,69.014],[-173.294,68.883],[-172.451,68.783],[-171.608,68.713],[-170.764,68.673],[-169.921,68.664],[-169.078,68.685],[-168.235,68.736],[-167.392,68.818],[-166.549,68.93],[-165.706,69.073],[-164.862,69.246],[-164.019,69.45],[-163.176,69.684],[-162.333,69.948],[-161.49,70.243],[-160.647,70.568],[-159.803,70.923],[-158.96,71.309],[-158.117,71.725]]}},{"type":"Feature","properties":{"name":"Bay of Campeche","featurecla":"bay","min_label":4},"geometry":{"type":"LineString","coordinates":[[-96.716,20.231],[-96.471,20.135],[-96.226,20.048],[-95.981,19.968],[-95.735,19.896],[-95.49,19.832],[-95.245,19.776],[-95.0,19.727],[-94.755,19.687],[-94.51,19.654],[-94.264,19.63],[-94.019,19.613],[-93.774,19.604],[-93.529,19.603],[-93.284,19.61],[-93.038,19.624],[-92.793,19.647],[-92.548,19.677],[-92.303,19.715],[-92.058,19.761],[-91.813,19.815],[-91.567,19.877],[-91.322,19.947],[-91.077,20.025],[-90.832,20.11]]}},{"type":"Feature","properties":{"name":"Arafura Sea","featurecla":"sea","min_label":4},"geometry":{"type":"LineString","coordinates":[[131.47,-9.148],[132.778,-9.148],[134.086,-9.148],[135.393,-9.148],[136.701,-9.148],[138.008,-9.148],[139.316,-9.148],[140.624,-9.148]]}},{"type":"Feature","properties":{"name":"Timor Sea","featurecla":"sea","min_label":4},"geometry":{"type":"LineString","coordinates":[[123.59,-11.074],[123.941,-11.077],[124.293,-11.078],[124.644,-11.077],[124.996,-11.075],[125.347,-11.071],[125.699,-11.066],[126.05,-11.058],[126.402,-11.05],[126.753,-11.039],[127.105,-11.027],[127.456,-11.014],[127.807,-10.998],[128.159,-10.981],[128.51,-10.963],[128.862,-10.943],[129.213,-10.921],[129.565,-10.897],[129.916,-10.872],[130.268,-10.845],[130.619,-10.817],[130.971,-10.787],[131.322,-10.755],[131.674,-10.722],[132.025,-10.687]]}},{"type":"Feature","properties":{"name":"Gulf of Thailand","featurecla":"gulf","min_label":4},"geometry":{"type":"LineString","coordinates":[[99.399,9.863],[100.736,9.863],[102.073,9.863],[103.409,9.863],[104.746,9.863]]}},{"type":"Feature","properties":{"name":"Gulf of Thailand","featurecla":"gulf","min_label":4,"beside":1,"from":4,"until":4.25,"tmw":7.4},"geometry":{"type":"Point","coordinates":[105.432,9.842]}},{"type":"Feature","properties":{"name":"Laccadive Sea","featurecla":"sea","min_label":4},"geometry":{"type":"LineString","coordinates":[[73.55,0.387],[73.909,0.932],[74.231,1.478],[74.518,2.024],[74.768,2.57],[74.982,3.116],[75.161,3.662],[75.303,4.208],[75.409,4.754],[75.479,5.3],[75.513,5.846],[75.511,6.392],[75.473,6.938],[75.399,7.484],[75.288,8.03],[75.142,8.576],[74.96,9.122],[74.741,9.668],[74.487,10.214],[74.196,10.76],[73.87,11.306],[73.507,11.852],[73.108,12.398],[72.673,12.944],[72.202,13.489]]}},{"type":"Feature","properties":{"name":"Bellingshausen Sea","featurecla":"sea","min_label":4},"geometry":{"type":"LineString","coordinates":[[-93.791,-72.282],[-92.859,-72.314],[-91.928,-72.336],[-90.997,-72.349],[-90.065,-72.351],[-89.134,-72.344],[-88.203,-72.327],[-87.271,-72.3],[-86.34,-72.263],[-85.409,-72.216],[-84.477,-72.16],[-83.546,-72.093],[-82.614,-72.017],[-81.683,-71.93],[-80.752,-71.834],[-79.82,-71.728],[-78.889,-71.612],[-77.958,-71.486],[-77.026,-71.351],[-76.095,-71.205],[-75.164,-71.05],[-74.232,-70.884],[-73.301,-70.709],[-72.37,-70.524],[-71.438,-70.329]]}},{"type":"Feature","properties":{"name":"Amundsen Sea","featurecla":"sea","min_label":4},"geometry":{"type":"LineString","coordinates":[[-113.499,-74.468],[-112.924,-74.382],[-112.348,-74.302],[-111.772,-74.23],[-111.197,-74.164],[-110.621,-74.106],[-110.045,-74.054],[-109.469,-74.01],[-108.894,-73.972],[-108.318,-73.941],[-107.742,-73.918],[-107.167,-73.901],[-106.591,-73.892],[-106.015,-73.889],[-105.44,-73.894],[-104.864,-73.905],[-104.288,-73.924],[-103.713,-73.949],[-103.137,-73.982],[-102.561,-74.021],[-101.985,-74.067],[-101.41,-74.121],[-100.834,-74.181],[-100.258,-74.249],[-99.683,-74.323]]}},{"type":"Feature","properties":{"name":"Kara Sea","featurecla":"sea","min_label":4},"geometry":{"type":"LineString","coordinates":[[58.589,71.642],[60.274,72.333],[61.959,72.985],[63.644,73.597],[65.329,74.169],[67.013,74.702],[68.698,75.195],[70.383,75.648],[72.068,76.062],[73.753,76.437],[75.437,76.772],[77.122,77.067],[78.807,77.322],[80.492,77.538],[82.177,77.715],[83.861,77.852],[85.546,77.949],[87.231,78.006],[88.916,78.024],[90.601,78.003],[92.285,77.942],[93.97,77.841],[95.655,77.7],[97.34,77.52],[99.025,77.301]]}},{"type":"Feature","properties":{"name":"Laptev Sea","featurecla":"sea","min_label":4},"geometry":{"type":"LineString","coordinates":[[99.173,80.723],[100.702,80.256],[102.23,79.806],[103.759,79.375],[105.287,78.962],[106.816,78.568],[108.344,78.192],[109.873,77.834],[111.401,77.495],[112.93,77.174],[114.458,76.871],[115.987,76.586],[117.516,76.32],[119.044,76.072],[120.573,75.842],[122.101,75.631],[123.63,75.438],[125.158,75.264],[126.687,75.107],[128.215,74.969],[129.744,74.85],[131.272,74.748],[132.801,74.665],[134.329,74.6],[135.858,74.554]]}},{"type":"Feature","properties":{"name":"Great Australian Bight","featurecla":"gulf","min_label":5},"geometry":{"type":"LineString","coordinates":[[120.009,-35.162],[121.019,-35.018],[122.03,-34.91],[123.04,-34.839],[124.05,-34.805],[125.06,-34.808],[126.07,-34.848],[127.08,-34.924],[128.09,-35.038],[129.101,-35.188],[130.111,-35.376],[131.121,-35.6],[132.131,-35.861],[133.141,-36.159],[134.151,-36.494],[135.161,-36.866],[136.172,-37.274],[137.182,-37.72],[138.192,-38.202],[139.202,-38.721],[140.212,-39.278],[141.222,-39.871],[142.232,-40.501],[143.243,-41.167],[144.253,-41.871]]}},{"type":"Feature","properties":{"name":"Gulf of Aden","featurecla":"gulf","min_label":5},"geometry":{"type":"LineString","coordinates":[[43.134,11.605],[43.448,11.631],[43.761,11.661],[44.074,11.696],[44.388,11.736],[44.701,11.78],[45.014,11.829],[45.328,11.882],[45.641,11.94],[45.954,12.002],[46.268,12.069],[46.581,12.14],[46.895,12.216],[47.208,12.297],[47.521,12.382],[47.835,12.472],[48.148,12.566],[48.461,12.664],[48.775,12.767],[49.088,12.875],[49.401,12.987],[49.715,13.104],[50.028,13.226],[50.341,13.352],[50.655,13.482]]}},{"type":"Feature","properties":{"name":"Gulf of Oman","featurecla":"gulf","min_label":5},"geometry":{"type":"LineString","coordinates":[[56.599,24.942],[57.729,24.942],[58.86,24.942],[59.99,24.942],[61.121,24.942]]}},{"type":"Feature","properties":{"name":"Tyrrhenian Sea","featurecla":"sea","min_label":5},"geometry":{"type":"LineString","coordinates":[[9.279,39.003],[10.593,39.003],[11.907,39.003],[13.221,39.003],[14.534,39.003],[15.848,39.003]]}},{"type":"Feature","properties":{"name":"White Sea","featurecla":"sea","min_label":5},"geometry":{"type":"LineString","coordinates":[[32.777,66.174],[33.228,66.008],[33.679,65.863],[34.13,65.739],[34.582,65.637],[35.033,65.557],[35.484,65.498],[35.936,65.461],[36.387,65.445],[36.838,65.45],[37.289,65.477],[37.741,65.526],[38.192,65.596],[38.643,65.688],[39.095,65.801],[39.546,65.935],[39.997,66.091],[40.448,66.269],[40.9,66.468],[41.351,66.688],[41.802,66.93],[42.254,67.194],[42.705,67.478],[43.156,67.785],[43.607,68.113]]}},{"type":"Feature","properties":{"name":"Sea of Azov","featurecla":"sea","min_label":6},"geometry":{"type":"LineString","coordinates":[[35.155,45.984],[35.315,45.965],[35.474,45.952],[35.634,45.945],[35.793,45.943],[35.953,45.947],[36.112,45.957],[36.271,45.973],[36.431,45.995],[36.59,46.022],[36.75,46.055],[36.909,46.094],[37.069,46.138],[37.228,46.188],[37.387,46.244],[37.547,46.306],[37.706,46.374],[37.866,46.447],[38.025,46.526],[38.184,46.611],[38.344,46.702],[38.503,46.799],[38.663,46.901],[38.822,47.009],[38.982,47.123]]}},{"type":"Feature","properties":{"name":"James Bay","featurecla":"bay","min_label":5},"geometry":{"type":"LineString","coordinates":[[-81.661,52.597],[-80.234,52.597],[-78.807,52.597]]}},{"type":"Feature","properties":{"name":"Gulf of Carpentaria","featurecla":"gulf","min_label":5},"geometry":{"type":"LineString","coordinates":[[135.737,-14.962],[137.145,-14.962],[138.554,-14.962],[139.962,-14.962],[141.37,-14.962]]}},{"type":"Feature","properties":{"name":"Gulf of California","featurecla":"gulf","min_label":5},"geometry":{"type":"LineString","coordinates":[[-110.653,24.992],[-109.487,24.992],[-108.321,24.992]]}},{"type":"Feature","properties":{"name":"Gulf of California","featurecla":"gulf","min_label":5,"beside":1,"from":5,"until":5.75,"tmw":8.2},"geometry":{"type":"Point","coordinates":[-106.481,27.599]}},{"type":"Feature","properties":{"name":"Gulf of Finland","featurecla":"gulf","min_label":5.7},"geometry":{"type":"LineString","coordinates":[[23.446,59.577],[23.705,59.625],[23.965,59.67],[24.224,59.713],[24.483,59.754],[24.742,59.792],[25.001,59.828],[25.261,59.861],[25.52,59.893],[25.779,59.921],[26.038,59.948],[26.297,59.972],[26.556,59.994],[26.816,60.014],[27.075,60.031],[27.334,60.046],[27.593,60.059],[27.852,60.069],[28.112,60.077],[28.371,60.083],[28.63,60.087],[28.889,60.088],[29.148,60.086],[29.408,60.083],[29.667,60.077]]}},{"type":"Feature","properties":{"name":"Gulf of Honduras","featurecla":"gulf","min_label":5},"geometry":{"type":"LineString","coordinates":[[-88.805,16.023],[-88.007,16.023],[-87.209,16.023]]}},{"type":"Feature","properties":{"name":"Gulf of Honduras","featurecla":"gulf","min_label":5,"beside":1,"from":5,"until":6.25,"tmw":7.4},"geometry":{"type":"Point","coordinates":[-86.767,16.56]}},{"type":"Feature","properties":{"name":"Gulf of Lion","featurecla":"gulf","min_label":5.7},"geometry":{"type":"LineString","coordinates":[[3.208,42.595],[3.293,42.639],[3.378,42.681],[3.462,42.721],[3.547,42.76],[3.632,42.797],[3.716,42.833],[3.801,42.867],[3.886,42.9],[3.97,42.931],[4.055,42.96],[4.14,42.988],[4.224,43.014],[4.309,43.039],[4.394,43.062],[4.479,43.084],[4.563,43.104],[4.648,43.122],[4.733,43.139],[4.817,43.155],[4.902,43.169],[4.987,43.181],[5.071,43.191],[5.156,43.201],[5.241,43.208]]}},{"type":"Feature","properties":{"name":"Gulf of Bothnia","featurecla":"gulf","min_label":5},"geometry":{"type":"LineString","coordinates":[[17.317,61.526],[18.661,61.526],[20.005,61.526],[21.349,61.526]]}},{"type":"Feature","properties":{"name":"Adriatic Sea","featurecla":"sea","min_label":5},"geometry":{"type":"LineString","coordinates":[[14.421,42.456],[15.715,42.456],[17.01,42.456],[18.304,42.456]]}},{"type":"Feature","properties":{"name":"Bay of Plenty","featurecla":"bay","min_label":5.7},"geometry":{"type":"LineString","coordinates":[[175.947,-37.089],[176.037,-37.147],[176.126,-37.202],[176.216,-37.253],[176.305,-37.301],[176.395,-37.345],[176.484,-37.386],[176.574,-37.423],[176.664,-37.457],[176.753,-37.487],[176.843,-37.513],[176.932,-37.536],[177.022,-37.556],[177.112,-37.572],[177.201,-37.585],[177.291,-37.594],[177.38,-37.599],[177.47,-37.601],[177.559,-37.6],[177.649,-37.595],[177.739,-37.586],[177.828,-37.574],[177.918,-37.558],[178.007,-37.539],[178.097,-37.516]]}},{"type":"Feature","properties":{"name":"Ionian Sea","featurecla":"sea","min_label":5.7},"geometry":{"type":"LineString","coordinates":[[15.665,37.557],[15.955,37.705],[16.244,37.837],[16.534,37.953],[16.824,38.052],[17.113,38.134],[17.403,38.2],[17.693,38.25],[17.982,38.283],[18.272,38.299],[18.562,38.299],[18.851,38.283],[19.141,38.25],[19.431,38.2],[19.72,38.134],[20.01,38.052],[20.3,37.953],[20.589,37.838],[20.879,37.706],[21.169,37.557],[21.458,37.393],[21.748,37.211],[22.038,37.013],[22.327,36.799],[22.617,36.568]]}},{"type":"Feature","properties":{"name":"Gulf of Saint Lawrence","featurecla":"gulf","min_label":5.7},"geometry":{"type":"LineString","coordinates":[[-65.871,47.425],[-65.443,47.541],[-65.016,47.651],[-64.589,47.754],[-64.162,47.851],[-63.735,47.941],[-63.308,48.025],[-62.88,48.103],[-62.453,48.174],[-62.026,48.239],[-61.599,48.298],[-61.172,48.349],[-60.745,48.395],[-60.317,48.434],[-59.89,48.467],[-59.463,48.493],[-59.036,48.513],[-58.609,48.526],[-58.181,48.533],[-57.754,48.534],[-57.327,48.528],[-56.9,48.516],[-56.473,48.497],[-56.046,48.472],[-55.618,48.44]]}},{"type":"Feature","properties":{"name":"Molucca Sea","featurecla":"sea","min_label":5.7},"geometry":{"type":"LineString","coordinates":[[123.661,-0.006],[124.946,-0.006],[126.231,-0.006],[127.516,-0.006]]}},{"type":"Feature","properties":{"name":"Bismarck Sea","featurecla":"sea","min_label":5.7},"geometry":{"type":"LineString","coordinates":[[142.726,-2.152],[143.11,-2.354],[143.494,-2.544],[143.878,-2.722],[144.262,-2.889],[144.647,-3.045],[145.031,-3.19],[145.415,-3.323],[145.799,-3.445],[146.183,-3.555],[146.568,-3.654],[146.952,-3.742],[147.336,-3.818],[147.72,-3.883],[148.104,-3.936],[148.489,-3.978],[148.873,-4.009],[149.257,-4.028],[149.641,-4.036],[150.025,-4.033],[150.41,-4.018],[150.794,-3.992],[151.178,-3.954],[151.562,-3.905],[151.946,-3.845]]}},{"type":"Feature","properties":{"name":"Solomon Sea","featurecla":"sea","min_label":5.7},"geometry":{"type":"LineString","coordinates":[[148.011,-7.534],[148.554,-7.583],[149.098,-7.637],[149.641,-7.698],[150.185,-7.766],[150.729,-7.839],[151.272,-7.919],[151.816,-8.006],[152.359,-8.099],[152.903,-8.198],[153.446,-8.303],[153.99,-8.415],[154.534,-8.533],[155.077,-8.658],[155.621,-8.789],[156.164,-8.926],[156.708,-9.07],[157.251,-9.22],[157.795,-9.376],[158.338,-9.539],[158.882,-9.708],[159.426,-9.884],[159.969,-10.065],[160.513,-10.254],[161.056,-10.448]]}},{"type":"Feature","properties":{"name":"Gulf of Tonkin","featurecla":"gulf","min_label":5.7},"geometry":{"type":"LineString","coordinates":[[106.426,20.104],[107.503,20.104],[108.58,20.104],[109.657,20.104]]}},{"type":"Feature","properties":{"name":"Bay of Fundy","featurecla":"bay","min_label":5.7},"geometry":{"type":"LineString","coordinates":[[-66.92,44.631],[-66.783,44.676],[-66.646,44.721],[-66.509,44.766],[-66.372,44.81],[-66.235,44.853],[-66.099,44.896],[-65.962,44.939],[-65.825,44.981],[-65.688,45.023],[-65.551,45.064],[-65.414,45.104],[-65.278,45.145],[-65.141,45.184],[-65.004,45.224],[-64.867,45.263],[-64.73,45.301],[-64.593,45.339],[-64.456,45.376],[-64.32,45.413],[-64.183,45.45],[-64.046,45.486],[-63.909,45.521],[-63.772,45.557],[-63.635,45.591]]}},{"type":"Feature","properties":{"name":"R\u00edo de la Plata","featurecla":"gulf","min_label":5.7},"geometry":{"type":"LineString","coordinates":[[-57.485,-34.995],[-56.276,-34.995],[-55.066,-34.995]]}},{"type":"Feature","properties":{"name":"Ceram Sea","featurecla":"sea","min_label":5.7},"geometry":{"type":"LineString","coordinates":[[126.456,-2.501],[126.744,-2.387],[127.031,-2.289],[127.319,-2.209],[127.607,-2.144],[127.894,-2.096],[128.182,-2.065],[128.47,-2.05],[128.757,-2.052],[129.045,-2.07],[129.333,-2.104],[129.62,-2.156],[129.908,-2.223],[130.196,-2.307],[130.483,-2.407],[130.771,-2.524],[131.059,-2.658],[131.346,-2.808],[131.634,-2.974],[131.922,-3.157],[132.209,-3.356],[132.497,-3.572],[132.785,-3.805],[133.072,-4.053],[133.36,-4.319]]}},{"type":"Feature","properties":{"name":"Seto Inland Sea","featurecla":"sea","min_label":5.7},"geometry":{"type":"LineString","coordinates":[[131.178,33.424],[131.341,33.479],[131.505,33.534],[131.668,33.587],[131.831,33.639],[131.994,33.689],[132.158,33.739],[132.321,33.787],[132.484,33.834],[132.648,33.879],[132.811,33.924],[132.974,33.967],[133.137,34.009],[133.301,34.05],[133.464,34.09],[133.627,34.128],[133.791,34.165],[133.954,34.201],[134.117,34.236],[134.281,34.27],[134.444,34.302],[134.607,34.333],[134.77,34.363],[134.934,34.391],[135.097,34.419]]}},{"type":"Feature","properties":{"name":"Tikahtnu Inlet","featurecla":"bay","min_label":5.7},"geometry":{"type":"LineString","coordinates":[[-153.821,59.088],[-153.638,59.176],[-153.455,59.267],[-153.272,59.359],[-153.089,59.453],[-152.906,59.548],[-152.723,59.645],[-152.54,59.744],[-152.357,59.844],[-152.174,59.947],[-151.991,60.05],[-151.808,60.156],[-151.625,60.263],[-151.441,60.371],[-151.258,60.482],[-151.075,60.594],[-150.892,60.708],[-150.709,60.823],[-150.526,60.94],[-150.343,61.059],[-150.16,61.179],[-149.977,61.301],[-149.794,61.425],[-149.611,61.55],[-149.428,61.677]]}},{"type":"Feature","properties":{"name":"Bristol Bay","featurecla":"bay","min_label":5.7},"geometry":{"type":"LineString","coordinates":[[-161.759,57.499],[-161.569,57.484],[-161.378,57.475],[-161.187,57.471],[-160.996,57.472],[-160.806,57.478],[-160.615,57.489],[-160.424,57.505],[-160.233,57.526],[-160.043,57.552],[-159.852,57.583],[-159.661,57.62],[-159.471,57.661],[-159.28,57.707],[-159.089,57.759],[-158.898,57.816],[-158.708,57.877],[-158.517,57.944],[-158.326,58.016],[-158.135,58.093],[-157.945,58.174],[-157.754,58.261],[-157.563,58.354],[-157.372,58.451],[-157.182,58.553]]}},{"type":"Feature","properties":{"name":"Melville Bay","featurecla":"bay","min_label":5.7},"geometry":{"type":"LineString","coordinates":[[-66.321,75.947],[-65.934,75.949],[-65.546,75.945],[-65.158,75.936],[-64.77,75.922],[-64.382,75.902],[-63.994,75.877],[-63.607,75.846],[-63.219,75.81],[-62.831,75.769],[-62.443,75.722],[-62.055,75.669],[-61.667,75.612],[-61.28,75.549],[-60.892,75.48],[-60.504,75.406],[-60.116,75.327],[-59.728,75.242],[-59.341,75.152],[-58.953,75.056],[-58.565,74.955],[-58.177,74.849],[-57.789,74.737],[-57.401,74.62],[-57.014,74.497]]}},{"type":"Feature","properties":{"name":"Gulf of Maine","featurecla":"gulf","min_label":5.7},"geometry":{"type":"LineString","coordinates":[[-70.473,42.656],[-70.29,42.731],[-70.108,42.804],[-69.925,42.875],[-69.743,42.944],[-69.56,43.012],[-69.378,43.077],[-69.196,43.14],[-69.013,43.201],[-68.831,43.26],[-68.648,43.317],[-68.466,43.371],[-68.284,43.424],[-68.101,43.475],[-67.919,43.524],[-67.736,43.571],[-67.554,43.615],[-67.371,43.658],[-67.189,43.699],[-67.007,43.737],[-66.824,43.774],[-66.642,43.809],[-66.459,43.841],[-66.277,43.871],[-66.094,43.9]]}},{"type":"Feature","properties":{"name":"Chesapeake Bay","featurecla":"bay","min_label":5.7},"geometry":{"type":"LineString","coordinates":[[-76.249,37.079],[-76.257,37.175],[-76.264,37.272],[-76.272,37.368],[-76.279,37.465],[-76.286,37.562],[-76.292,37.658],[-76.299,37.755],[-76.305,37.851],[-76.311,37.948],[-76.316,38.044],[-76.322,38.141],[-76.327,38.237],[-76.332,38.334],[-76.336,38.431],[-76.341,38.527],[-76.345,38.624],[-76.349,38.72],[-76.352,38.817],[-76.356,38.913],[-76.359,39.01],[-76.362,39.107],[-76.364,39.203],[-76.367,39.3],[-76.369,39.396]]}},{"type":"Feature","properties":{"name":"San Jorge Gulf","featurecla":"gulf","min_label":5.7},"geometry":{"type":"LineString","coordinates":[[-67.526,-46.066],[-66.671,-46.066],[-65.817,-46.066]]}},{"type":"Feature","properties":{"name":"San Jorge Gulf","featurecla":"gulf","min_label":5.7,"beside":1,"from":5.7,"until":5.95,"tmw":6.6},"geometry":{"type":"Point","coordinates":[-65.507,-46.11]}},{"type":"Feature","properties":{"name":"Balearic Sea","featurecla":"sea","min_label":5.7},"geometry":{"type":"LineString","coordinates":[[-0.006,39.313],[0.159,39.406],[0.324,39.496],[0.489,39.582],[0.655,39.665],[0.82,39.744],[0.985,39.819],[1.15,39.891],[1.316,39.959],[1.481,40.024],[1.646,40.085],[1.811,40.143],[1.977,40.197],[2.142,40.247],[2.307,40.294],[2.472,40.338],[2.637,40.378],[2.803,40.414],[2.968,40.447],[3.133,40.476],[3.298,40.501],[3.464,40.524],[3.629,40.542],[3.794,40.557],[3.959,40.568]]}},{"type":"Feature","properties":{"name":"Aegean Sea","featurecla":"sea","min_label":5.7},"geometry":{"type":"LineString","coordinates":[[23.314,39.426],[24.434,39.426],[25.554,39.426],[26.674,39.426]]}},{"type":"Feature","properties":{"name":"Gulf of Mannar","featurecla":"gulf","min_label":5.7},"geometry":{"type":"LineString","coordinates":[[77.486,7.931],[77.581,8.0],[77.675,8.064],[77.77,8.123],[77.865,8.177],[77.959,8.226],[78.054,8.27],[78.149,8.308],[78.243,8.342],[78.338,8.371],[78.433,8.395],[78.527,8.413],[78.622,8.427],[78.717,8.435],[78.811,8.439],[78.906,8.437],[79.001,8.431],[79.095,8.419],[79.19,8.403],[79.285,8.381],[79.379,8.354],[79.474,8.323],[79.569,8.286],[79.663,8.244],[79.758,8.197]]}},{"type":"Feature","properties":{"name":"Shelikhov Gulf","featurecla":"gulf","min_label":5.7},"geometry":{"type":"LineString","coordinates":[[154.939,59.757],[155.342,59.736],[155.746,59.726],[156.15,59.727],[156.554,59.74],[156.957,59.763],[157.361,59.798],[157.765,59.844],[158.169,59.901],[158.572,59.969],[158.976,60.049],[159.38,60.139],[159.784,60.241],[160.187,60.354],[160.591,60.478],[160.995,60.613],[161.398,60.759],[161.802,60.917],[162.206,61.085],[162.61,61.265],[163.013,61.456],[163.417,61.658],[163.821,61.871],[164.225,62.096],[164.628,62.331]]}},{"type":"Feature","properties":{"name":"Bohai Sea","featurecla":"sea","min_label":5.7},"geometry":{"type":"LineString","coordinates":[[117.885,39.049],[119.044,39.049],[120.203,39.049],[121.362,39.049]]}},{"type":"Feature","properties":{"name":"Gulf of Kutch","featurecla":"gulf","min_label":5.7},"geometry":{"type":"LineString","coordinates":[[68.921,22.756],[68.982,22.721],[69.044,22.69],[69.105,22.663],[69.166,22.639],[69.228,22.62],[69.289,22.604],[69.351,22.592],[69.412,22.583],[69.473,22.579],[69.535,22.578],[69.596,22.581],[69.657,22.588],[69.719,22.599],[69.78,22.613],[69.842,22.632],[69.903,22.654],[69.964,22.68],[70.026,22.71],[70.087,22.743],[70.149,22.781],[70.21,22.822],[70.271,22.867],[70.333,22.915],[70.394,22.968]]}},{"type":"Feature","properties":{"name":"Gulf of Panama","featurecla":"gulf","min_label":5.7},"geometry":{"type":"LineString","coordinates":[[-80.277,7.942],[-80.18,7.99],[-80.083,8.034],[-79.986,8.073],[-79.889,8.108],[-79.792,8.138],[-79.695,8.163],[-79.598,8.184],[-79.501,8.2],[-79.404,8.211],[-79.307,8.218],[-79.21,8.22],[-79.113,8.217],[-79.016,8.21],[-78.919,8.198],[-78.822,8.182],[-78.725,8.161],[-78.628,8.135],[-78.531,8.105],[-78.434,8.07],[-78.337,8.03],[-78.24,7.986],[-78.143,7.937],[-78.046,7.883],[-77.949,7.825]]}},{"type":"Feature","properties":{"name":"Amundsen Gulf","featurecla":"gulf","min_label":5},"geometry":{"type":"LineString","coordinates":[[-127.221,70.703],[-126.835,70.703],[-126.448,70.702],[-126.062,70.7],[-125.676,70.696],[-125.289,70.692],[-124.903,70.686],[-124.516,70.679],[-124.13,70.671],[-123.744,70.662],[-123.357,70.651],[-122.971,70.639],[-122.584,70.626],[-122.198,70.612],[-121.812,70.597],[-121.425,70.58],[-121.039,70.563],[-120.653,70.544],[-120.266,70.524],[-119.88,70.503],[-119.493,70.48],[-119.107,70.456],[-118.721,70.432],[-118.334,70.406],[-117.948,70.378]]}},{"type":"Feature","properties":{"name":"Ungava Bay","featurecla":"bay","min_label":5.7},"geometry":{"type":"LineString","coordinates":[[-70.251,60.28],[-70.044,60.158],[-69.838,60.046],[-69.631,59.942],[-69.424,59.847],[-69.217,59.762],[-69.011,59.685],[-68.804,59.618],[-68.597,59.559],[-68.39,59.51],[-68.184,59.469],[-67.977,59.437],[-67.77,59.415],[-67.563,59.401],[-67.356,59.397],[-67.15,59.401],[-66.943,59.415],[-66.736,59.437],[-66.529,59.468],[-66.323,59.509],[-66.116,59.558],[-65.909,59.617],[-65.702,59.684],[-65.496,59.76],[-65.289,59.846]]}},{"type":"Feature","properties":{"name":"Bering Sea","featurecla":"sea","min_label":4},"geometry":{"type":"LineString","coordinates":[[-179.285,58.569],[-177.788,58.569],[-176.292,58.569],[-174.796,58.569],[-173.3,58.569],[-171.804,58.569],[-170.308,58.569],[-168.812,58.569],[-167.316,58.569],[-165.82,58.569],[-164.324,58.569],[-162.828,58.569]]}},{"type":"Feature","properties":{"name":"East Siberian Sea","featurecla":"sea","min_label":5},"geometry":{"type":"LineString","coordinates":[[141.691,75.002],[143.149,74.909],[144.607,74.808],[146.065,74.7],[147.522,74.585],[148.98,74.463],[150.438,74.333],[151.896,74.197],[153.354,74.053],[154.812,73.902],[156.27,73.745],[157.728,73.579],[159.185,73.407],[160.643,73.228],[162.101,73.041],[163.559,72.848],[165.017,72.647],[166.475,72.439],[167.933,72.224],[169.391,72.002],[170.849,71.772],[172.306,71.536],[173.764,71.292],[175.222,71.041],[176.68,70.783]]}},{"type":"Feature","properties":{"name":"Lincoln Sea","featurecla":"sea","min_label":5},"geometry":{"type":"LineString","coordinates":[[-67.629,83.086],[-66.485,83.026],[-65.341,82.971],[-64.197,82.922],[-63.052,82.879],[-61.908,82.841],[-60.764,82.809],[-59.62,82.782],[-58.476,82.761],[-57.332,82.745],[-56.188,82.735],[-55.044,82.731],[-53.9,82.732],[-52.755,82.739],[-51.611,82.751],[-50.467,82.769],[-49.323,82.792],[-48.179,82.821],[-47.035,82.856],[-45.891,82.896],[-44.747,82.942],[-43.602,82.993],[-42.458,83.05],[-41.314,83.112],[-40.17,83.181]]}},{"type":"Feature","properties":{"name":"Franklin Bay","featurecla":"bay","min_label":7.6},"geometry":{"type":"LineString","coordinates":[[-125.841,69.407],[-125.815,69.412],[-125.789,69.418],[-125.763,69.423],[-125.737,69.428],[-125.711,69.432],[-125.685,69.437],[-125.659,69.441],[-125.633,69.445],[-125.607,69.449],[-125.581,69.453],[-125.555,69.457],[-125.529,69.46],[-125.504,69.464],[-125.478,69.467],[-125.452,69.469],[-125.426,69.472],[-125.4,69.475],[-125.374,69.477],[-125.348,69.479],[-125.322,69.481],[-125.296,69.483],[-125.27,69.484],[-125.244,69.486],[-125.218,69.487]]}},{"type":"Feature","properties":{"name":"Boca Grande","featurecla":"bay","min_label":6},"geometry":{"type":"LineString","coordinates":[[-61.529,8.248],[-61.483,8.328],[-61.437,8.403],[-61.39,8.472],[-61.344,8.536],[-61.298,8.595],[-61.252,8.648],[-61.206,8.697],[-61.16,8.739],[-61.113,8.777],[-61.067,8.809],[-61.021,8.836],[-60.975,8.857],[-60.929,8.873],[-60.883,8.884],[-60.837,8.89],[-60.79,8.89],[-60.744,8.885],[-60.698,8.875],[-60.652,8.859],[-60.606,8.838],[-60.56,8.812],[-60.513,8.78],[-60.467,8.743],[-60.421,8.701]]}},{"type":"Feature","properties":{"name":"Maraj\u00f3 Bay","featurecla":"bay","min_label":7.6},"geometry":{"type":"LineString","coordinates":[[-49.493,-1.602],[-49.162,-1.602],[-48.832,-1.602]]}},{"type":"Feature","properties":{"name":"San Mat\u00edas Gulf","featurecla":"gulf","min_label":6},"geometry":{"type":"LineString","coordinates":[[-65.059,-41.243],[-64.28,-41.243],[-63.5,-41.243]]}},{"type":"Feature","properties":{"name":"Gulf of Corcovado","featurecla":"gulf","min_label":6},"geometry":{"type":"LineString","coordinates":[[-73.482,-45.205],[-73.487,-45.062],[-73.49,-44.919],[-73.49,-44.777],[-73.487,-44.634],[-73.483,-44.491],[-73.476,-44.348],[-73.466,-44.205],[-73.454,-44.063],[-73.44,-43.92],[-73.423,-43.777],[-73.404,-43.634],[-73.383,-43.492],[-73.359,-43.349],[-73.333,-43.206],[-73.304,-43.063],[-73.273,-42.92],[-73.239,-42.778],[-73.204,-42.635],[-73.165,-42.492],[-73.125,-42.349],[-73.082,-42.206],[-73.036,-42.064],[-72.988,-41.921],[-72.938,-41.778]]}},{"type":"Feature","properties":{"name":"Wrigley Gulf","featurecla":"gulf","min_label":6},"geometry":{"type":"LineString","coordinates":[[-134.236,-74.826],[-133.876,-74.756],[-133.515,-74.69],[-133.155,-74.628],[-132.795,-74.57],[-132.434,-74.516],[-132.074,-74.466],[-131.713,-74.421],[-131.353,-74.379],[-130.993,-74.341],[-130.632,-74.307],[-130.272,-74.278],[-129.911,-74.252],[-129.551,-74.231],[-129.191,-74.213],[-128.83,-74.2],[-128.47,-74.19],[-128.11,-74.185],[-127.749,-74.183],[-127.389,-74.186],[-127.028,-74.193],[-126.668,-74.203],[-126.308,-74.218],[-125.947,-74.237],[-125.587,-74.26]]}},{"type":"Feature","properties":{"name":"Sulzberger Bay","featurecla":"bay","min_label":6},"geometry":{"type":"LineString","coordinates":[[-157.129,-77.035],[-156.681,-77.028],[-156.234,-77.021],[-155.787,-77.015],[-155.339,-77.009],[-154.892,-77.004],[-154.444,-76.999],[-153.997,-76.994],[-153.549,-76.99],[-153.102,-76.986],[-152.654,-76.982],[-152.207,-76.979],[-151.76,-76.976],[-151.312,-76.974],[-150.865,-76.971],[-150.417,-76.97],[-149.97,-76.968],[-149.522,-76.967],[-149.075,-76.966],[-148.627,-76.966],[-148.18,-76.966],[-147.732,-76.967],[-147.285,-76.967],[-146.838,-76.968],[-146.39,-76.97]]}},{"type":"Feature","properties":{"name":"Ba\u00eda de S\u00e3o Marcos","featurecla":"bay","min_label":7.6},"geometry":{"type":"LineString","coordinates":[[-44.478,-2.455],[-43.982,-2.455],[-43.487,-2.455]]}},{"type":"Feature","properties":{"name":"Frobisher Bay","featurecla":"bay","min_label":6},"geometry":{"type":"LineString","coordinates":[[-68.672,63.65],[-68.55,63.598],[-68.428,63.547],[-68.306,63.497],[-68.183,63.447],[-68.061,63.397],[-67.939,63.349],[-67.817,63.301],[-67.694,63.253],[-67.572,63.206],[-67.45,63.16],[-67.328,63.114],[-67.206,63.069],[-67.083,63.025],[-66.961,62.981],[-66.839,62.937],[-66.717,62.895],[-66.594,62.852],[-66.472,62.811],[-66.35,62.77],[-66.228,62.73],[-66.105,62.69],[-65.983,62.651],[-65.861,62.612],[-65.739,62.574]]}},{"type":"Feature","properties":{"name":"Disko Bay","featurecla":"bay","min_label":6},"geometry":{"type":"LineString","coordinates":[[-53.993,70.314],[-53.851,70.166],[-53.708,70.028],[-53.566,69.902],[-53.423,69.786],[-53.28,69.68],[-53.138,69.585],[-52.995,69.501],[-52.852,69.427],[-52.71,69.364],[-52.567,69.312],[-52.425,69.27],[-52.282,69.239],[-52.139,69.218],[-51.997,69.208],[-51.854,69.209],[-51.712,69.22],[-51.569,69.242],[-51.426,69.274],[-51.284,69.317],[-51.141,69.371],[-50.998,69.435],[-50.856,69.51],[-50.713,69.595],[-50.571,69.691]]}},{"type":"Feature","properties":{"name":"Hamilton Inlet","featurecla":"bay","min_label":7.6},"geometry":{"type":"LineString","coordinates":[[-60.185,53.484],[-60.078,53.525],[-59.97,53.566],[-59.863,53.606],[-59.755,53.646],[-59.648,53.686],[-59.541,53.725],[-59.433,53.763],[-59.326,53.802],[-59.218,53.839],[-59.111,53.876],[-59.003,53.913],[-58.896,53.949],[-58.789,53.985],[-58.681,54.02],[-58.574,54.055],[-58.466,54.09],[-58.359,54.124],[-58.251,54.157],[-58.144,54.19],[-58.037,54.223],[-57.929,54.255],[-57.822,54.286],[-57.714,54.318],[-57.607,54.348]]}},{"type":"Feature","properties":{"name":"Kattegat","featurecla":"sea","min_label":6},"geometry":{"type":"LineString","coordinates":[[10.386,56.636],[11.558,56.636],[12.729,56.636]]}},{"type":"Feature","properties":{"name":"Gulf of Khambhat","featurecla":"gulf","min_label":6},"geometry":{"type":"LineString","coordinates":[[70.982,20.691],[71.898,20.691],[72.813,20.691]]}},{"type":"Feature","properties":{"name":"Kronotsky Gulf","featurecla":"gulf","min_label":6},"geometry":{"type":"LineString","coordinates":[[159.962,54.001],[160.454,54.001],[160.945,54.001]]}},{"type":"Feature","properties":{"name":"Kronotsky Gulf","featurecla":"gulf","min_label":6,"beside":1,"from":6,"until":6.75,"tmw":6.6},"geometry":{"type":"Point","coordinates":[161.631,53.895]}},{"type":"Feature","properties":{"name":"Uda Gulf","featurecla":"bay","min_label":6},"geometry":{"type":"LineString","coordinates":[[135.363,54.727],[136.436,54.727],[137.51,54.727]]}},{"type":"Feature","properties":{"name":"Uchiura Bay","featurecla":"bay","min_label":6},"geometry":{"type":"LineString","coordinates":[[140.52,42.555],[140.625,42.425],[140.73,42.305],[140.835,42.194],[140.94,42.093],[141.045,42.001],[141.15,41.919],[141.255,41.846],[141.36,41.783],[141.465,41.729],[141.57,41.685],[141.675,41.65],[141.781,41.625],[141.886,41.609],[141.991,41.603],[142.096,41.606],[142.201,41.618],[142.306,41.64],[142.411,41.672],[142.516,41.713],[142.621,41.764],[142.726,41.824],[142.831,41.893],[142.936,41.972],[143.041,42.061]]}},{"type":"Feature","properties":{"name":"Shark Bay","featurecla":"bay","min_label":6},"geometry":{"type":"LineString","coordinates":[[114.113,-26.244],[114.065,-26.168],[114.019,-26.091],[113.975,-26.014],[113.932,-25.937],[113.891,-25.861],[113.851,-25.784],[113.814,-25.707],[113.778,-25.631],[113.743,-25.554],[113.71,-25.477],[113.679,-25.401],[113.65,-25.324],[113.622,-25.247],[113.596,-25.171],[113.571,-25.094],[113.549,-25.017],[113.527,-24.941],[113.508,-24.864],[113.49,-24.787],[113.474,-24.711],[113.459,-24.634],[113.446,-24.557],[113.435,-24.48],[113.426,-24.404]]}},{"type":"Feature","properties":{"name":"Gulf of Gab\u00e8s","featurecla":"gulf","min_label":6},"geometry":{"type":"LineString","coordinates":[[10.446,33.772],[10.46,33.828],[10.475,33.884],[10.492,33.94],[10.511,33.997],[10.531,34.053],[10.552,34.109],[10.576,34.165],[10.601,34.222],[10.627,34.278],[10.655,34.334],[10.685,34.39],[10.716,34.447],[10.749,34.503],[10.784,34.559],[10.82,34.615],[10.858,34.671],[10.897,34.728],[10.938,34.784],[10.98,34.84],[11.024,34.896],[11.07,34.953],[11.117,35.009],[11.166,35.065],[11.216,35.121]]}},{"type":"Feature","properties":{"name":"Mackenzie Bay","featurecla":"bay","min_label":6},"geometry":{"type":"LineString","coordinates":[[-138.843,69.548],[-138.674,69.505],[-138.505,69.465],[-138.336,69.428],[-138.167,69.396],[-137.998,69.367],[-137.829,69.341],[-137.66,69.319],[-137.491,69.301],[-137.322,69.286],[-137.153,69.274],[-136.984,69.267],[-136.815,69.263],[-136.646,69.262],[-136.477,69.265],[-136.308,69.271],[-136.139,69.281],[-135.97,69.295],[-135.801,69.312],[-135.632,69.333],[-135.463,69.357],[-135.294,69.385],[-135.125,69.417],[-134.956,69.452],[-134.787,69.49]]}},{"type":"Feature","properties":{"name":"Gulf of Boothia","featurecla":"gulf","min_label":5.7},"geometry":{"type":"LineString","coordinates":[[-92.326,70.194],[-92.039,70.122],[-91.751,70.051],[-91.463,69.982],[-91.176,69.915],[-90.888,69.849],[-90.601,69.784],[-90.313,69.721],[-90.025,69.659],[-89.738,69.598],[-89.45,69.539],[-89.163,69.482],[-88.875,69.426],[-88.587,69.371],[-88.3,69.318],[-88.012,69.266],[-87.725,69.215],[-87.437,69.166],[-87.149,69.119],[-86.862,69.073],[-86.574,69.028],[-86.287,68.985],[-85.999,68.943],[-85.711,68.903],[-85.424,68.864]]}},{"type":"Feature","properties":{"name":"Kane Basin","featurecla":"bay","min_label":5.7},"geometry":{"type":"LineString","coordinates":[[-77.574,78.695],[-77.058,78.761],[-76.542,78.825],[-76.025,78.888],[-75.509,78.95],[-74.993,79.01],[-74.477,79.069],[-73.961,79.126],[-73.445,79.182],[-72.929,79.237],[-72.413,79.29],[-71.897,79.342],[-71.38,79.393],[-70.864,79.442],[-70.348,79.489],[-69.832,79.536],[-69.316,79.581],[-68.8,79.624],[-68.284,79.666],[-67.768,79.707],[-67.252,79.746],[-66.736,79.784],[-66.219,79.821],[-65.703,79.856],[-65.187,79.89]]}},{"type":"Feature","properties":{"name":"Foxe Basin","featurecla":"bay","min_label":5.7},"geometry":{"type":"LineString","coordinates":[[-85.73,65.441],[-85.21,65.633],[-84.689,65.813],[-84.168,65.983],[-83.648,66.142],[-83.127,66.29],[-82.607,66.427],[-82.086,66.554],[-81.566,66.669],[-81.045,66.774],[-80.525,66.867],[-80.004,66.95],[-79.483,67.022],[-78.963,67.083],[-78.442,67.133],[-77.922,67.172],[-77.401,67.2],[-76.881,67.218],[-76.36,67.224],[-75.84,67.22],[-75.319,67.205],[-74.799,67.179],[-74.278,67.142],[-73.757,67.094],[-73.237,67.035]]}},{"type":"Feature","properties":{"name":"Gulf of Tehuantepec","featurecla":"gulf","min_label":6},"geometry":{"type":"LineString","coordinates":[[-95.99,15.667],[-95.875,15.711],[-95.761,15.751],[-95.647,15.785],[-95.533,15.815],[-95.418,15.84],[-95.304,15.861],[-95.19,15.876],[-95.076,15.887],[-94.961,15.893],[-94.847,15.894],[-94.733,15.89],[-94.618,15.882],[-94.504,15.869],[-94.39,15.851],[-94.276,15.828],[-94.161,15.8],[-94.047,15.768],[-93.933,15.73],[-93.819,15.688],[-93.704,15.641],[-93.59,15.59],[-93.476,15.533],[-93.362,15.472],[-93.247,15.406]]}},{"type":"Feature","properties":{"name":"Gulf of Guayaquil","featurecla":"gulf","min_label":6},"geometry":{"type":"LineString","coordinates":[[-80.677,-3.619],[-80.641,-3.559],[-80.608,-3.5],[-80.576,-3.44],[-80.547,-3.38],[-80.521,-3.32],[-80.496,-3.26],[-80.474,-3.201],[-80.454,-3.141],[-80.437,-3.081],[-80.421,-3.021],[-80.408,-2.961],[-80.398,-2.902],[-80.389,-2.842],[-80.383,-2.782],[-80.379,-2.722],[-80.378,-2.662],[-80.379,-2.602],[-80.382,-2.543],[-80.387,-2.483],[-80.395,-2.423],[-80.405,-2.363],[-80.417,-2.303],[-80.431,-2.244],[-80.448,-2.184]]}},{"type":"Feature","properties":{"name":"Gulf of Masirah","featurecla":"gulf","min_label":6},"geometry":{"type":"LineString","coordinates":[[57.782,19.131],[57.81,19.187],[57.838,19.244],[57.864,19.3],[57.891,19.357],[57.916,19.413],[57.941,19.47],[57.966,19.527],[57.99,19.583],[58.013,19.64],[58.036,19.696],[58.058,19.753],[58.079,19.809],[58.1,19.866],[58.12,19.923],[58.14,19.979],[58.159,20.036],[58.178,20.092],[58.195,20.149],[58.213,20.206],[58.23,20.262],[58.246,20.319],[58.261,20.375],[58.276,20.432],[58.291,20.488]]}},{"type":"Feature","properties":{"name":"Yana Bay","featurecla":"gulf","min_label":5.7},"geometry":{"type":"LineString","coordinates":[[133.251,71.624],[133.553,71.8],[133.854,71.967],[134.156,72.122],[134.458,72.268],[134.759,72.403],[135.061,72.528],[135.362,72.642],[135.664,72.747],[135.966,72.84],[136.267,72.924],[136.569,72.997],[136.87,73.06],[137.172,73.112],[137.474,73.154],[137.775,73.186],[138.077,73.207],[138.379,73.218],[138.68,73.219],[138.982,73.209],[139.283,73.189],[139.585,73.159],[139.887,73.118],[140.188,73.067],[140.49,73.005]]}},{"type":"Feature","properties":{"name":"East Korea Bay","featurecla":"bay","min_label":6},"geometry":{"type":"LineString","coordinates":[[128.264,38.788],[128.209,38.837],[128.158,38.885],[128.111,38.933],[128.068,38.981],[128.03,39.03],[127.996,39.078],[127.966,39.126],[127.941,39.174],[127.92,39.223],[127.903,39.271],[127.89,39.319],[127.881,39.367],[127.877,39.416],[127.877,39.464],[127.882,39.512],[127.89,39.561],[127.903,39.609],[127.92,39.657],[127.942,39.705],[127.967,39.754],[127.997,39.802],[128.031,39.85],[128.07,39.898],[128.112,39.947]]}},{"type":"Feature","properties":{"name":"Geographe Bay","featurecla":"bay","min_label":6},"geometry":{"type":"LineString","coordinates":[[115.286,-33.41],[115.307,-33.29],[115.326,-33.171],[115.341,-33.051],[115.354,-32.932],[115.364,-32.812],[115.372,-32.693],[115.377,-32.573],[115.378,-32.454],[115.377,-32.334],[115.374,-32.215],[115.367,-32.095],[115.358,-31.976],[115.346,-31.856],[115.331,-31.736],[115.313,-31.617],[115.293,-31.497],[115.27,-31.378],[115.244,-31.258],[115.215,-31.139],[115.184,-31.019],[115.149,-30.9],[115.112,-30.78],[115.073,-30.661],[115.03,-30.541]]}},{"type":"Feature","properties":{"name":"Gulf of Papua","featurecla":"gulf","min_label":6},"geometry":{"type":"LineString","coordinates":[[142.516,-8.71],[142.675,-8.652],[142.833,-8.599],[142.991,-8.551],[143.15,-8.508],[143.308,-8.469],[143.466,-8.435],[143.625,-8.406],[143.783,-8.381],[143.941,-8.361],[144.1,-8.346],[144.258,-8.336],[144.416,-8.331],[144.575,-8.33],[144.733,-8.334],[144.892,-8.343],[145.05,-8.356],[145.208,-8.374],[145.367,-8.397],[145.525,-8.425],[145.683,-8.457],[145.842,-8.494],[146.0,-8.536],[146.158,-8.583],[146.317,-8.634]]}},{"type":"Feature","properties":{"name":"Olenyok Gulf","featurecla":"gulf","min_label":6},"geometry":{"type":"LineString","coordinates":[[118.744,73.311],[118.932,73.3],[119.12,73.29],[119.308,73.281],[119.496,73.273],[119.684,73.265],[119.872,73.258],[120.06,73.252],[120.248,73.247],[120.436,73.242],[120.624,73.238],[120.812,73.235],[120.999,73.233],[121.187,73.231],[121.375,73.231],[121.563,73.231],[121.751,73.231],[121.939,73.233],[122.127,73.235],[122.315,73.238],[122.503,73.242],[122.691,73.247],[122.879,73.252],[123.067,73.258],[123.255,73.265]]}},{"type":"Feature","properties":{"name":"Gulf of Riga","featurecla":"gulf","min_label":6},"geometry":{"type":"LineString","coordinates":[[21.937,57.843],[22.037,57.882],[22.138,57.917],[22.239,57.947],[22.339,57.973],[22.44,57.995],[22.541,58.012],[22.642,58.024],[22.742,58.032],[22.843,58.035],[22.944,58.034],[23.044,58.029],[23.145,58.019],[23.246,58.004],[23.346,57.985],[23.447,57.962],[23.548,57.934],[23.648,57.902],[23.749,57.865],[23.85,57.823],[23.951,57.777],[24.051,57.727],[24.152,57.672],[24.253,57.613],[24.353,57.549]]}},{"type":"Feature","properties":{"name":"Gulf of Sidra","featurecla":"gulf","min_label":6},"geometry":{"type":"LineString","coordinates":[[15.694,31.828],[15.866,31.794],[16.038,31.761],[16.21,31.728],[16.381,31.696],[16.553,31.664],[16.725,31.633],[16.896,31.602],[17.068,31.572],[17.24,31.543],[17.412,31.514],[17.583,31.485],[17.755,31.457],[17.927,31.429],[18.098,31.402],[18.27,31.376],[18.442,31.35],[18.614,31.324],[18.785,31.299],[18.957,31.275],[19.129,31.251],[19.3,31.227],[19.472,31.204],[19.644,31.182],[19.816,31.16]]}},{"type":"Feature","properties":{"name":"Sea of Crete","featurecla":"sea","min_label":6},"geometry":{"type":"LineString","coordinates":[[23.104,37.018],[23.298,36.889],[23.492,36.769],[23.685,36.658],[23.879,36.555],[24.073,36.461],[24.267,36.375],[24.461,36.299],[24.655,36.23],[24.849,36.171],[25.043,36.12],[25.237,36.078],[25.431,36.045],[25.624,36.02],[25.818,36.004],[26.012,35.997],[26.206,35.998],[26.4,36.008],[26.594,36.027],[26.788,36.054],[26.982,36.09],[27.176,36.135],[27.369,36.188],[27.563,36.25],[27.757,36.321]]}},{"type":"Feature","properties":{"name":"Ligurian Sea","featurecla":"sea","min_label":6},"geometry":{"type":"LineString","coordinates":[[7.958,43.901],[8.028,43.897],[8.097,43.892],[8.167,43.887],[8.237,43.882],[8.306,43.876],[8.376,43.87],[8.445,43.864],[8.515,43.857],[8.585,43.85],[8.654,43.843],[8.724,43.836],[8.793,43.828],[8.863,43.82],[8.933,43.811],[9.002,43.803],[9.072,43.794],[9.142,43.784],[9.211,43.775],[9.281,43.765],[9.35,43.755],[9.42,43.744],[9.49,43.733],[9.559,43.722],[9.629,43.711]]}},{"type":"Feature","properties":{"name":"Alboran Sea","featurecla":"sea","min_label":7.6},"geometry":{"type":"LineString","coordinates":[[-5.312,35.847],[-5.156,35.876],[-4.999,35.901],[-4.843,35.924],[-4.686,35.944],[-4.53,35.961],[-4.373,35.975],[-4.217,35.986],[-4.06,35.994],[-3.904,36.0],[-3.747,36.003],[-3.591,36.003],[-3.434,36.0],[-3.277,35.994],[-3.121,35.986],[-2.964,35.974],[-2.808,35.96],[-2.651,35.943],[-2.495,35.923],[-2.338,35.9],[-2.182,35.875],[-2.025,35.846],[-1.869,35.815],[-1.712,35.781],[-1.556,35.744]]}},{"type":"Feature","properties":{"name":"Bight of Benin","featurecla":"bay","min_label":6},"geometry":{"type":"LineString","coordinates":[[1.272,5.849],[1.438,5.873],[1.604,5.892],[1.77,5.907],[1.936,5.918],[2.102,5.925],[2.268,5.928],[2.434,5.926],[2.601,5.92],[2.767,5.91],[2.933,5.896],[3.099,5.878],[3.265,5.855],[3.431,5.828],[3.597,5.797],[3.763,5.761],[3.929,5.722],[4.096,5.678],[4.262,5.63],[4.428,5.578],[4.594,5.521],[4.76,5.461],[4.926,5.396],[5.092,5.327],[5.258,5.254]]}},{"type":"Feature","properties":{"name":"Bight of Biafra","featurecla":"bay","min_label":6},"geometry":{"type":"LineString","coordinates":[[6.856,4.245],[6.975,4.252],[7.094,4.255],[7.213,4.255],[7.332,4.25],[7.451,4.241],[7.571,4.228],[7.69,4.211],[7.809,4.191],[7.928,4.166],[8.047,4.137],[8.166,4.105],[8.286,4.068],[8.405,4.027],[8.524,3.983],[8.643,3.934],[8.762,3.882],[8.881,3.825],[9.0,3.765],[9.12,3.7],[9.239,3.632],[9.358,3.56],[9.477,3.483],[9.596,3.403],[9.715,3.319]]}},{"type":"Feature","properties":{"name":"Bah\u00eda Blanca","featurecla":"bay","min_label":6},"geometry":{"type":"LineString","coordinates":[[-62.306,-39.001],[-62.272,-39.028],[-62.237,-39.053],[-62.203,-39.075],[-62.168,-39.094],[-62.133,-39.112],[-62.099,-39.126],[-62.064,-39.138],[-62.029,-39.147],[-61.995,-39.154],[-61.96,-39.158],[-61.926,-39.16],[-61.891,-39.159],[-61.856,-39.155],[-61.822,-39.149],[-61.787,-39.14],[-61.753,-39.129],[-61.718,-39.115],[-61.683,-39.099],[-61.649,-39.08],[-61.614,-39.058],[-61.579,-39.034],[-61.545,-39.008],[-61.51,-38.978],[-61.476,-38.947]]}},{"type":"Feature","properties":{"name":"Bah\u00eda Blanca","featurecla":"bay","min_label":6,"beside":1,"from":6,"until":6.25,"tmw":5.8},"geometry":{"type":"Point","coordinates":[-61.32,-39.075]}},{"type":"Feature","properties":{"name":"Gulf of Penas","featurecla":"gulf","min_label":6},"geometry":{"type":"LineString","coordinates":[[-75.393,-47.135],[-74.813,-47.135],[-74.233,-47.135]]}},{"type":"Feature","properties":{"name":"Gulf of Penas","featurecla":"gulf","min_label":6,"beside":1,"from":6,"until":6.25,"tmw":6.2},"geometry":{"type":"Point","coordinates":[-74.022,-47.133]}},{"type":"Feature","properties":{"name":"Bah\u00eda Grande","featurecla":"bay","min_label":6},"geometry":{"type":"LineString","coordinates":[[-68.496,-52.123],[-68.535,-52.031],[-68.57,-51.94],[-68.6,-51.849],[-68.625,-51.757],[-68.646,-51.666],[-68.662,-51.575],[-68.674,-51.484],[-68.681,-51.392],[-68.684,-51.301],[-68.681,-51.21],[-68.675,-51.118],[-68.663,-51.027],[-68.647,-50.936],[-68.627,-50.844],[-68.602,-50.753],[-68.572,-50.662],[-68.538,-50.57],[-68.499,-50.479],[-68.455,-50.388],[-68.407,-50.297],[-68.354,-50.205],[-68.297,-50.114],[-68.235,-50.023],[-68.168,-49.931]]}},{"type":"Feature","properties":{"name":"Marguerite Bay","featurecla":"bay","min_label":5.7},"geometry":{"type":"LineString","coordinates":[[-70.14,-68.817],[-70.007,-68.787],[-69.874,-68.759],[-69.74,-68.73],[-69.607,-68.703],[-69.473,-68.676],[-69.34,-68.649],[-69.207,-68.624],[-69.073,-68.598],[-68.94,-68.574],[-68.806,-68.549],[-68.673,-68.526],[-68.54,-68.503],[-68.406,-68.48],[-68.273,-68.459],[-68.139,-68.437],[-68.006,-68.417],[-67.872,-68.396],[-67.739,-68.377],[-67.606,-68.358],[-67.472,-68.339],[-67.339,-68.321],[-67.205,-68.304],[-67.072,-68.287],[-66.939,-68.271]]}},{"type":"Feature","properties":{"name":"Prydz Bay","featurecla":"bay","min_label":5.7},"geometry":{"type":"LineString","coordinates":[[67.383,-72.247],[67.836,-71.861],[68.289,-71.498],[68.742,-71.156],[69.195,-70.836],[69.648,-70.538],[70.101,-70.261],[70.554,-70.006],[71.007,-69.773],[71.46,-69.562],[71.913,-69.373],[72.366,-69.205],[72.819,-69.059],[73.271,-68.935],[73.724,-68.832],[74.177,-68.752],[74.63,-68.693],[75.083,-68.655],[75.536,-68.64],[75.989,-68.646],[76.442,-68.675],[76.895,-68.724],[77.348,-68.796],[77.801,-68.889],[78.254,-69.005]]}},{"type":"Feature","properties":{"name":"Vincennes Bay","featurecla":"bay","min_label":6},"geometry":{"type":"LineString","coordinates":[[104.825,-66.008],[105.062,-66.05],[105.3,-66.089],[105.538,-66.127],[105.776,-66.162],[106.014,-66.194],[106.252,-66.225],[106.489,-66.254],[106.727,-66.28],[106.965,-66.304],[107.203,-66.326],[107.441,-66.345],[107.678,-66.363],[107.916,-66.378],[108.154,-66.391],[108.392,-66.402],[108.63,-66.411],[108.868,-66.418],[109.105,-66.422],[109.343,-66.424],[109.581,-66.424],[109.819,-66.422],[110.057,-66.418],[110.295,-66.411],[110.532,-66.402]]}},{"type":"Feature","properties":{"name":"Porpoise Bay","featurecla":"bay","min_label":6},"geometry":{"type":"LineString","coordinates":[[126.715,-66.525],[126.864,-66.569],[127.012,-66.608],[127.161,-66.642],[127.31,-66.671],[127.459,-66.695],[127.608,-66.715],[127.757,-66.729],[127.906,-66.739],[128.054,-66.743],[128.203,-66.743],[128.352,-66.738],[128.501,-66.728],[128.65,-66.713],[128.799,-66.693],[128.948,-66.669],[129.096,-66.639],[129.245,-66.605],[129.394,-66.565],[129.543,-66.521],[129.692,-66.472],[129.841,-66.418],[129.99,-66.359],[130.138,-66.295],[130.287,-66.226]]}},{"type":"Feature","properties":{"name":"Davis Sea","featurecla":"sea","min_label":5.7},"geometry":{"type":"LineString","coordinates":[[85.785,-65.955],[86.832,-65.788],[87.879,-65.633],[88.927,-65.491],[89.974,-65.361],[91.021,-65.243],[92.068,-65.138],[93.116,-65.045],[94.163,-64.965],[95.21,-64.897],[96.257,-64.841],[97.305,-64.798],[98.352,-64.767],[99.399,-64.749],[100.447,-64.743],[101.494,-64.75],[102.541,-64.769],[103.588,-64.8],[104.636,-64.844],[105.683,-64.901],[106.73,-64.969],[107.777,-65.05],[108.825,-65.144],[109.872,-65.25],[110.919,-65.368]]}},{"type":"Feature","properties":{"name":"L\u00fctzow-Holm Bay","featurecla":"bay","min_label":6},"geometry":{"type":"LineString","coordinates":[[34.254,-68.895],[34.5,-68.95],[34.747,-69.0],[34.993,-69.047],[35.24,-69.09],[35.486,-69.128],[35.733,-69.163],[35.979,-69.194],[36.226,-69.221],[36.472,-69.244],[36.719,-69.263],[36.965,-69.278],[37.212,-69.289],[37.459,-69.297],[37.705,-69.3],[37.952,-69.299],[38.198,-69.295],[38.445,-69.286],[38.691,-69.274],[38.938,-69.257],[39.184,-69.237],[39.431,-69.213],[39.677,-69.185],[39.924,-69.152],[40.17,-69.116]]}},{"type":"Feature","properties":{"name":"Antongil Bay","featurecla":"bay","min_label":7.6},"geometry":{"type":"LineString","coordinates":[[49.88,-16.192],[49.886,-16.163],[49.891,-16.134],[49.895,-16.105],[49.898,-16.076],[49.9,-16.047],[49.901,-16.018],[49.901,-15.989],[49.9,-15.96],[49.898,-15.931],[49.895,-15.902],[49.891,-15.873],[49.886,-15.844],[49.88,-15.815],[49.873,-15.786],[49.865,-15.757],[49.856,-15.728],[49.846,-15.699],[49.835,-15.67],[49.823,-15.641],[49.81,-15.612],[49.796,-15.583],[49.782,-15.554],[49.766,-15.525],[49.749,-15.496]]}},{"type":"Feature","properties":{"name":"Hangzhouwan","featurecla":"bay","min_label":6},"geometry":{"type":"LineString","coordinates":[[120.322,30.13],[120.388,30.17],[120.453,30.207],[120.518,30.242],[120.583,30.274],[120.648,30.303],[120.714,30.33],[120.779,30.355],[120.844,30.377],[120.909,30.396],[120.975,30.413],[121.04,30.428],[121.105,30.44],[121.17,30.449],[121.235,30.456],[121.301,30.46],[121.366,30.462],[121.431,30.462],[121.496,30.459],[121.562,30.453],[121.627,30.445],[121.692,30.434],[121.757,30.421],[121.822,30.405],[121.888,30.387]]}},{"type":"Feature","properties":{"name":"Karaginsky Gulf","featurecla":"gulf","min_label":6},"geometry":{"type":"LineString","coordinates":[[162.267,58.116],[162.425,58.216],[162.582,58.315],[162.74,58.412],[162.897,58.506],[163.054,58.598],[163.212,58.689],[163.369,58.777],[163.526,58.863],[163.684,58.947],[163.841,59.029],[163.999,59.108],[164.156,59.186],[164.313,59.261],[164.471,59.335],[164.628,59.406],[164.786,59.475],[164.943,59.543],[165.1,59.608],[165.258,59.67],[165.415,59.731],[165.572,59.79],[165.73,59.847],[165.887,59.901],[166.045,59.954]]}},{"type":"Feature","properties":{"name":"Kamchatka Gulf","featurecla":"gulf","min_label":6},"geometry":{"type":"LineString","coordinates":[[161.83,55.674],[162.291,55.674],[162.753,55.674]]}},{"type":"Feature","properties":{"name":"Kamchatka Gulf","featurecla":"gulf","min_label":6,"beside":1,"from":6,"until":6.75,"tmw":6.6},"geometry":{"type":"Point","coordinates":[163.145,55.748]}},{"type":"Feature","properties":{"name":"Gulf St Vincent","featurecla":"gulf","min_label":6},"geometry":{"type":"LineString","coordinates":[[135.969,-34.728],[136.685,-34.728],[137.401,-34.728]]}},{"type":"Feature","properties":{"name":"Gulf St Vincent","featurecla":"gulf","min_label":6,"beside":1,"from":6,"until":6.25,"tmw":7.0},"geometry":{"type":"Point","coordinates":[138.693,-34.21]}},{"type":"Feature","properties":{"name":"Gulf of Urab\u00e1","featurecla":"gulf","min_label":7.6},"geometry":{"type":"LineString","coordinates":[[-77.174,8.443],[-77.0,8.443],[-76.826,8.443]]}},{"type":"Feature","properties":{"name":"Gulf of Urab\u00e1","featurecla":"gulf","min_label":7.6,"beside":1,"from":7.6,"until":8.1,"tmw":6.2},"geometry":{"type":"Point","coordinates":[-76.676,8.198]}},{"type":"Feature","properties":{"name":"Maputo Bay","featurecla":"bay","min_label":6},"geometry":{"type":"LineString","coordinates":[[32.807,-25.61],[32.818,-25.61],[32.829,-25.61]]}},{"type":"Feature","properties":{"name":"Maputo Bay","featurecla":"bay","min_label":6,"beside":1,"from":6,"until":24.0,"tmw":5.0},"geometry":{"type":"Point","coordinates":[33.045,-25.633]}},{"type":"Feature","properties":{"name":"St. Helena Bay","featurecla":"bay","min_label":6},"geometry":{"type":"LineString","coordinates":[[18.143,-32.747],[18.164,-32.729],[18.183,-32.712],[18.202,-32.695],[18.219,-32.678],[18.235,-32.661],[18.25,-32.644],[18.264,-32.627],[18.276,-32.61],[18.287,-32.592],[18.298,-32.575],[18.306,-32.558],[18.314,-32.541],[18.321,-32.524],[18.326,-32.507],[18.33,-32.49],[18.333,-32.472],[18.335,-32.455],[18.335,-32.438],[18.335,-32.421],[18.333,-32.404],[18.33,-32.387],[18.326,-32.37],[18.32,-32.353],[18.314,-32.335]]}},{"type":"Feature","properties":{"name":"St. Helena Bay","featurecla":"bay","min_label":6,"beside":1,"from":6,"until":7.25,"tmw":6.6},"geometry":{"type":"Point","coordinates":[18.394,-32.579]}},{"type":"Feature","properties":{"name":"Joseph Bonaparte Gulf","featurecla":"gulf","min_label":6},"geometry":{"type":"LineString","coordinates":[[127.235,-13.848],[127.335,-13.908],[127.436,-13.963],[127.537,-14.015],[127.638,-14.063],[127.738,-14.106],[127.839,-14.146],[127.94,-14.182],[128.041,-14.213],[128.141,-14.241],[128.242,-14.265],[128.343,-14.285],[128.444,-14.3],[128.544,-14.312],[128.645,-14.32],[128.746,-14.324],[128.846,-14.324],[128.947,-14.32],[129.048,-14.312],[129.149,-14.3],[129.249,-14.284],[129.35,-14.264],[129.451,-14.24],[129.552,-14.212],[129.652,-14.18]]}},{"type":"Feature","properties":{"name":"Gulf of Martaban","featurecla":"gulf","min_label":6},"geometry":{"type":"LineString","coordinates":[[95.598,15.805],[96.615,15.805],[97.632,15.805]]}},{"type":"Feature","properties":{"name":"Sakhalin Gulf","featurecla":"gulf","min_label":6},"geometry":{"type":"LineString","coordinates":[[139.963,54.193],[140.069,54.149],[140.175,54.108],[140.28,54.069],[140.386,54.033],[140.492,54.0],[140.597,53.97],[140.703,53.942],[140.809,53.916],[140.914,53.894],[141.02,53.874],[141.126,53.857],[141.231,53.842],[141.337,53.83],[141.443,53.821],[141.549,53.814],[141.654,53.81],[141.76,53.809],[141.866,53.81],[141.971,53.814],[142.077,53.82],[142.183,53.83],[142.288,53.842],[142.394,53.856],[142.5,53.873]]}},{"type":"Feature","properties":{"name":"Chaunskaya Bay","featurecla":"bay","min_label":7},"geometry":{"type":"LineString","coordinates":[[168.349,69.458],[168.451,69.446],[168.553,69.434],[168.655,69.422],[168.757,69.409],[168.859,69.397],[168.961,69.385],[169.063,69.372],[169.165,69.36],[169.267,69.347],[169.369,69.335],[169.471,69.322],[169.574,69.309],[169.676,69.296],[169.778,69.283],[169.88,69.27],[169.982,69.257],[170.084,69.244],[170.186,69.231],[170.288,69.217],[170.39,69.204],[170.492,69.19],[170.594,69.177],[170.696,69.163],[170.798,69.149]]}},{"type":"Feature","properties":{"name":"Khatanga Gulf","featurecla":"gulf","min_label":7},"geometry":{"type":"LineString","coordinates":[[105.737,72.993],[106.04,73.062],[106.344,73.132],[106.647,73.2],[106.951,73.269],[107.254,73.337],[107.557,73.404],[107.861,73.471],[108.164,73.538],[108.468,73.604],[108.771,73.67],[109.075,73.735],[109.378,73.8],[109.681,73.864],[109.985,73.928],[110.288,73.992],[110.592,74.055],[110.895,74.118],[111.199,74.18],[111.502,74.241],[111.805,74.303],[112.109,74.364],[112.412,74.424],[112.716,74.484],[113.019,74.544]]}},{"type":"Feature","properties":{"name":"Garabogazk\u00f6l","featurecla":"bay","min_label":7},"geometry":{"type":"LineString","coordinates":[[52.936,41.17],[53.742,41.17],[54.549,41.17]]}},{"type":"Feature","properties":{"name":"Gulf of Suez","featurecla":"gulf","min_label":7},"geometry":{"type":"LineString","coordinates":[[34.008,27.415],[33.929,27.513],[33.852,27.612],[33.776,27.71],[33.701,27.809],[33.627,27.908],[33.555,28.006],[33.484,28.105],[33.414,28.204],[33.345,28.302],[33.277,28.401],[33.211,28.499],[33.145,28.598],[33.081,28.697],[33.019,28.795],[32.957,28.894],[32.897,28.992],[32.837,29.091],[32.779,29.19],[32.723,29.288],[32.667,29.387],[32.613,29.486],[32.56,29.584],[32.508,29.683],[32.457,29.781]]}},{"type":"Feature","properties":{"name":"Gulf of Ob","featurecla":"gulf","min_label":7},"geometry":{"type":"LineString","coordinates":[[69.708,64.735],[70.063,65.484],[70.418,66.176],[70.773,66.812],[71.128,67.393],[71.483,67.918],[71.838,68.386],[72.193,68.799],[72.548,69.156],[72.903,69.457],[73.258,69.702],[73.613,69.891],[73.969,70.024],[74.324,70.101],[74.679,70.123],[75.034,70.088],[75.389,69.997],[75.744,69.851],[76.099,69.649],[76.454,69.39],[76.809,69.076],[77.164,68.706],[77.519,68.28],[77.874,67.798],[78.229,67.26]]}},{"type":"Feature","properties":{"name":"Yenisei Gulf","featurecla":"gulf","min_label":7},"geometry":{"type":"LineString","coordinates":[[78.508,72.679],[78.709,72.706],[78.91,72.725],[79.112,72.734],[79.313,72.734],[79.515,72.724],[79.716,72.705],[79.918,72.677],[80.119,72.639],[80.321,72.592],[80.522,72.536],[80.724,72.47],[80.925,72.395],[81.126,72.311],[81.328,72.217],[81.529,72.114],[81.731,72.001],[81.932,71.879],[82.134,71.748],[82.335,71.607],[82.537,71.457],[82.738,71.298],[82.94,71.129],[83.141,70.951],[83.342,70.764]]}},{"type":"Feature","properties":{"name":"Sea of Marmara","featurecla":"sea","min_label":7},"geometry":{"type":"LineString","coordinates":[[26.902,40.501],[27.015,40.528],[27.129,40.554],[27.242,40.578],[27.356,40.601],[27.47,40.622],[27.583,40.641],[27.697,40.658],[27.81,40.674],[27.924,40.689],[28.037,40.701],[28.151,40.712],[28.264,40.722],[28.378,40.729],[28.492,40.735],[28.605,40.74],[28.719,40.743],[28.832,40.744],[28.946,40.743],[29.059,40.741],[29.173,40.738],[29.287,40.732],[29.4,40.725],[29.514,40.717],[29.627,40.706]]}},{"type":"Feature","properties":{"name":"Gulf of Aqaba","featurecla":"gulf","min_label":7.6},"geometry":{"type":"LineString","coordinates":[[34.51,28.087],[34.527,28.143],[34.544,28.2],[34.561,28.256],[34.578,28.313],[34.595,28.369],[34.611,28.426],[34.628,28.483],[34.644,28.539],[34.661,28.596],[34.677,28.652],[34.693,28.709],[34.709,28.765],[34.725,28.822],[34.74,28.879],[34.756,28.935],[34.772,28.992],[34.787,29.048],[34.802,29.105],[34.817,29.162],[34.832,29.218],[34.847,29.275],[34.862,29.331],[34.877,29.388],[34.892,29.444]]}},{"type":"Feature","properties":{"name":"Massachusetts Bay","featurecla":"bay","min_label":7.6},"geometry":{"type":"LineString","coordinates":[[-70.988,42.31],[-70.705,42.31],[-70.421,42.31]]}},{"type":"Feature","properties":{"name":"Massachusetts Bay","featurecla":"bay","min_label":7.6,"beside":1,"from":7.6,"until":7.85,"tmw":7.8},"geometry":{"type":"Point","coordinates":[-69.909,42.157]}},{"type":"Feature","properties":{"name":"Delaware Bay","featurecla":"bay","min_label":7.6},"geometry":{"type":"LineString","coordinates":[[-75.025,38.861],[-75.061,38.905],[-75.095,38.948],[-75.128,38.991],[-75.16,39.034],[-75.189,39.077],[-75.217,39.121],[-75.243,39.164],[-75.268,39.207],[-75.291,39.25],[-75.312,39.294],[-75.332,39.337],[-75.35,39.38],[-75.366,39.423],[-75.381,39.466],[-75.394,39.51],[-75.406,39.553],[-75.415,39.596],[-75.423,39.639],[-75.43,39.683],[-75.435,39.726],[-75.438,39.769],[-75.439,39.812],[-75.439,39.855],[-75.437,39.899]]}},{"type":"Feature","properties":{"name":"Darnley Bay","featurecla":"bay","min_label":7.6},"geometry":{"type":"LineString","coordinates":[[-124.384,69.47],[-124.334,69.474],[-124.284,69.479],[-124.234,69.484],[-124.184,69.489],[-124.134,69.494],[-124.084,69.5],[-124.034,69.505],[-123.984,69.512],[-123.934,69.518],[-123.884,69.525],[-123.834,69.531],[-123.785,69.539],[-123.735,69.546],[-123.685,69.554],[-123.635,69.561],[-123.585,69.57],[-123.535,69.578],[-123.485,69.587],[-123.435,69.596],[-123.385,69.605],[-123.335,69.614],[-123.285,69.624],[-123.235,69.634],[-123.185,69.644]]}},{"type":"Feature","properties":{"name":"Richard Collinson Inlet","featurecla":"bay","min_label":7.7},"geometry":{"type":"LineString","coordinates":[[-114.427,72.619],[-114.379,72.655],[-114.331,72.688],[-114.282,72.719],[-114.234,72.748],[-114.185,72.774],[-114.137,72.799],[-114.089,72.821],[-114.04,72.841],[-113.992,72.859],[-113.943,72.874],[-113.895,72.887],[-113.847,72.899],[-113.798,72.908],[-113.75,72.914],[-113.701,72.919],[-113.653,72.921],[-113.604,72.921],[-113.556,72.919],[-113.508,72.915],[-113.459,72.908],[-113.411,72.899],[-113.362,72.888],[-113.314,72.875],[-113.266,72.86]]}},{"type":"Feature","properties":{"name":"Liddon Gulf","featurecla":"gulf","min_label":7.6},"geometry":{"type":"LineString","coordinates":[[-114.761,74.964],[-114.618,74.976],[-114.474,74.986],[-114.33,74.996],[-114.187,75.006],[-114.043,75.015],[-113.899,75.024],[-113.756,75.032],[-113.612,75.04],[-113.468,75.048],[-113.325,75.055],[-113.181,75.061],[-113.037,75.067],[-112.894,75.073],[-112.75,75.078],[-112.607,75.083],[-112.463,75.087],[-112.319,75.091],[-112.176,75.094],[-112.032,75.097],[-111.888,75.099],[-111.745,75.101],[-111.601,75.103],[-111.457,75.104],[-111.314,75.104]]}},{"type":"Feature","properties":{"name":"Wynniatt Bay","featurecla":"bay","min_label":7.7},"geometry":{"type":"LineString","coordinates":[[-111.776,72.294],[-111.715,72.329],[-111.654,72.362],[-111.594,72.395],[-111.533,72.426],[-111.472,72.455],[-111.411,72.483],[-111.35,72.51],[-111.289,72.536],[-111.229,72.56],[-111.168,72.583],[-111.107,72.604],[-111.046,72.624],[-110.985,72.643],[-110.924,72.66],[-110.863,72.676],[-110.803,72.69],[-110.742,72.704],[-110.681,72.715],[-110.62,72.726],[-110.559,72.735],[-110.498,72.743],[-110.438,72.749],[-110.377,72.754],[-110.316,72.758]]}},{"type":"Feature","properties":{"name":"Hadley Bay","featurecla":"bay","min_label":7.6},"geometry":{"type":"LineString","coordinates":[[-108.613,72.434],[-108.234,72.434],[-107.855,72.434]]}},{"type":"Feature","properties":{"name":"Bathurst Inlet","featurecla":"bay","min_label":7.7},"geometry":{"type":"LineString","coordinates":[[-108.384,67.049],[-107.886,67.049],[-107.387,67.049]]}},{"type":"Feature","properties":{"name":"Sherman Basin","featurecla":"bay","min_label":7.7},"geometry":{"type":"LineString","coordinates":[[-98.326,67.926],[-98.28,67.914],[-98.234,67.902],[-98.189,67.892],[-98.143,67.881],[-98.097,67.871],[-98.052,67.862],[-98.006,67.853],[-97.96,67.845],[-97.915,67.837],[-97.869,67.829],[-97.823,67.822],[-97.778,67.815],[-97.732,67.809],[-97.686,67.804],[-97.64,67.799],[-97.595,67.794],[-97.549,67.79],[-97.503,67.786],[-97.458,67.783],[-97.412,67.78],[-97.366,67.778],[-97.321,67.776],[-97.275,67.775],[-97.229,67.774]]}},{"type":"Feature","properties":{"name":"Wager Bay","featurecla":"bay","min_label":7.7},"geometry":{"type":"LineString","coordinates":[[-91.165,65.968],[-91.03,65.957],[-90.896,65.944],[-90.762,65.929],[-90.627,65.913],[-90.493,65.895],[-90.359,65.875],[-90.224,65.854],[-90.09,65.831],[-89.956,65.806],[-89.821,65.78],[-89.687,65.752],[-89.553,65.722],[-89.418,65.691],[-89.284,65.658],[-89.149,65.624],[-89.015,65.587],[-88.881,65.549],[-88.746,65.51],[-88.612,65.469],[-88.478,65.426],[-88.343,65.381],[-88.209,65.335],[-88.075,65.287],[-87.94,65.237]]}},{"type":"Feature","properties":{"name":"Hall Basin","featurecla":"gulf","min_label":7.6},"geometry":{"type":"LineString","coordinates":[[-68.188,81.432],[-67.914,81.436],[-67.641,81.44],[-67.368,81.444],[-67.095,81.448],[-66.822,81.453],[-66.549,81.457],[-66.276,81.461],[-66.003,81.466],[-65.73,81.47],[-65.457,81.475],[-65.184,81.479],[-64.911,81.484],[-64.637,81.488],[-64.364,81.493],[-64.091,81.498],[-63.818,81.502],[-63.545,81.507],[-63.272,81.512],[-62.999,81.517],[-62.726,81.522],[-62.453,81.527],[-62.18,81.532],[-61.907,81.537],[-61.633,81.542]]}},{"type":"Feature","properties":{"name":"In\u00fatil Bay","featurecla":"bay","min_label":7.7},"geometry":{"type":"LineString","coordinates":[[-70.469,-53.555],[-70.031,-53.555],[-69.593,-53.555]]}},{"type":"Feature","properties":{"name":"Guba Gusinaya","featurecla":"bay","min_label":7.7},"geometry":{"type":"LineString","coordinates":[[145.141,71.79],[145.218,71.805],[145.296,71.82],[145.373,71.836],[145.451,71.851],[145.528,71.867],[145.605,71.883],[145.683,71.899],[145.76,71.916],[145.837,71.933],[145.915,71.95],[145.992,71.967],[146.07,71.985],[146.147,72.002],[146.224,72.02],[146.302,72.039],[146.379,72.057],[146.456,72.076],[146.534,72.095],[146.611,72.114],[146.688,72.134],[146.766,72.154],[146.843,72.174],[146.921,72.194],[146.998,72.215]]}},{"type":"Feature","properties":{"name":"Bali Sea","featurecla":"sea","min_label":7.6},"geometry":{"type":"LineString","coordinates":[[114.553,-8.006],[115.807,-8.006],[117.061,-8.006]]}},{"type":"Feature","properties":{"name":"Davao Gulf","featurecla":"gulf","min_label":7.6},"geometry":{"type":"LineString","coordinates":[[125.883,6.079],[125.872,6.128],[125.861,6.176],[125.85,6.224],[125.84,6.273],[125.831,6.321],[125.822,6.369],[125.813,6.417],[125.805,6.466],[125.797,6.514],[125.79,6.562],[125.783,6.611],[125.777,6.659],[125.771,6.707],[125.765,6.756],[125.761,6.804],[125.756,6.852],[125.752,6.901],[125.749,6.949],[125.746,6.997],[125.743,7.045],[125.741,7.094],[125.739,7.142],[125.738,7.19],[125.737,7.239]]}},{"type":"Feature","properties":{"name":"Halmahera Sea","featurecla":"sea","min_label":7.6},"geometry":{"type":"LineString","coordinates":[[127.875,-0.652],[127.997,-0.617],[128.118,-0.587],[128.24,-0.562],[128.361,-0.543],[128.482,-0.529],[128.604,-0.521],[128.725,-0.519],[128.847,-0.521],[128.968,-0.529],[129.09,-0.543],[129.211,-0.562],[129.332,-0.587],[129.454,-0.617],[129.575,-0.652],[129.697,-0.693],[129.818,-0.74],[129.94,-0.792],[130.061,-0.849],[130.183,-0.912],[130.304,-0.98],[130.425,-1.054],[130.547,-1.133],[130.668,-1.217],[130.79,-1.307]]}},{"type":"Feature","properties":{"name":"Gulf of Tomini","featurecla":"gulf","min_label":7.6},"geometry":{"type":"LineString","coordinates":[[120.256,-0.362],[120.381,-0.36],[120.506,-0.358],[120.631,-0.354],[120.756,-0.349],[120.881,-0.343],[121.006,-0.336],[121.131,-0.328],[121.256,-0.319],[121.381,-0.308],[121.506,-0.297],[121.631,-0.284],[121.755,-0.27],[121.88,-0.256],[122.005,-0.24],[122.13,-0.223],[122.255,-0.204],[122.38,-0.185],[122.505,-0.165],[122.63,-0.143],[122.755,-0.121],[122.88,-0.097],[123.005,-0.072],[123.13,-0.046],[123.255,-0.019]]}},{"type":"Feature","properties":{"name":"Flores Sea","featurecla":"sea","min_label":7.6},"geometry":{"type":"LineString","coordinates":[[117.421,-7.883],[117.633,-7.753],[117.845,-7.636],[118.056,-7.533],[118.268,-7.444],[118.48,-7.369],[118.692,-7.307],[118.904,-7.26],[119.116,-7.226],[119.327,-7.206],[119.539,-7.2],[119.751,-7.208],[119.963,-7.23],[120.175,-7.266],[120.387,-7.315],[120.599,-7.379],[120.81,-7.456],[121.022,-7.547],[121.234,-7.652],[121.446,-7.771],[121.658,-7.903],[121.87,-8.05],[122.081,-8.21],[122.293,-8.385],[122.505,-8.573]]}},{"type":"Feature","properties":{"name":"Sibuyan Sea","featurecla":"sea","min_label":7.6},"geometry":{"type":"LineString","coordinates":[[121.589,12.722],[122.435,12.722],[123.282,12.722]]}},{"type":"Feature","properties":{"name":"Buli Bay","featurecla":"gulf","min_label":7.6},"geometry":{"type":"LineString","coordinates":[[128.319,0.728],[128.889,0.728],[129.46,0.728]]}},{"type":"Feature","properties":{"name":"Kao Bay","featurecla":"gulf","min_label":7.7},"geometry":{"type":"LineString","coordinates":[[128.054,1.678],[128.517,1.678],[128.981,1.678]]}},{"type":"Feature","properties":{"name":"Bohol Sea","featurecla":"sea","min_label":7.6},"geometry":{"type":"LineString","coordinates":[[123.275,9.069],[124.348,9.069],[125.42,9.069]]}},{"type":"Feature","properties":{"name":"Ragay Gulf","featurecla":"gulf","min_label":7.8},"geometry":{"type":"LineString","coordinates":[[122.698,13.268],[122.968,13.268],[123.238,13.268]]}},{"type":"Feature","properties":{"name":"Samar Sea","featurecla":"sea","min_label":7.7},"geometry":{"type":"LineString","coordinates":[[123.325,12.563],[123.79,12.563],[124.256,12.563]]}},{"type":"Feature","properties":{"name":"Tayabas Bay","featurecla":"bay","min_label":7.7},"geometry":{"type":"LineString","coordinates":[[121.03,13.52],[121.079,13.515],[121.128,13.512],[121.177,13.509],[121.226,13.508],[121.275,13.508],[121.324,13.509],[121.373,13.511],[121.422,13.515],[121.471,13.519],[121.52,13.525],[121.569,13.531],[121.618,13.539],[121.667,13.548],[121.716,13.558],[121.765,13.569],[121.814,13.582],[121.863,13.595],[121.912,13.61],[121.961,13.626],[122.01,13.643],[122.059,13.661],[122.108,13.68],[122.157,13.7],[122.206,13.722]]}},{"type":"Feature","properties":{"name":"Leyte Gulf","featurecla":"gulf","min_label":7.8},"geometry":{"type":"LineString","coordinates":[[125.05,10.769],[125.351,10.769],[125.652,10.769]]}},{"type":"Feature","properties":{"name":"Visayan Sea","featurecla":"sea","min_label":7.7},"geometry":{"type":"LineString","coordinates":[[123.182,11.325],[123.754,11.325],[124.326,11.325]]}},{"type":"Feature","properties":{"name":"Savu Sea","featurecla":"sea","min_label":7.6},"geometry":{"type":"LineString","coordinates":[[118.943,-8.752],[119.181,-8.918],[119.419,-9.069],[119.657,-9.206],[119.895,-9.328],[120.133,-9.434],[120.371,-9.526],[120.609,-9.604],[120.847,-9.666],[121.085,-9.714],[121.323,-9.747],[121.561,-9.765],[121.799,-9.769],[122.038,-9.757],[122.276,-9.731],[122.514,-9.69],[122.752,-9.634],[122.99,-9.564],[123.228,-9.479],[123.466,-9.378],[123.704,-9.264],[123.942,-9.134],[124.18,-8.99],[124.418,-8.83],[124.656,-8.656]]}},{"type":"Feature","properties":{"name":"Cordova Bay","featurecla":"bay","min_label":7.7},"geometry":{"type":"LineString","coordinates":[[-133.432,55.559],[-133.383,55.519],[-133.334,55.479],[-133.285,55.439],[-133.236,55.4],[-133.188,55.361],[-133.139,55.322],[-133.09,55.284],[-133.041,55.246],[-132.992,55.208],[-132.944,55.171],[-132.895,55.134],[-132.846,55.097],[-132.797,55.061],[-132.748,55.025],[-132.7,54.99],[-132.651,54.954],[-132.602,54.919],[-132.553,54.885],[-132.504,54.851],[-132.456,54.817],[-132.407,54.783],[-132.358,54.75],[-132.309,54.717],[-132.26,54.685]]}},{"type":"Feature","properties":{"name":"Bay of Mecklenburg","featurecla":"bay","min_label":7.6},"geometry":{"type":"LineString","coordinates":[[10.926,54.075],[10.985,54.11],[11.044,54.144],[11.104,54.176],[11.163,54.206],[11.222,54.235],[11.281,54.262],[11.341,54.287],[11.4,54.311],[11.459,54.333],[11.518,54.354],[11.578,54.373],[11.637,54.39],[11.696,54.406],[11.756,54.42],[11.815,54.433],[11.874,54.444],[11.933,54.453],[11.993,54.461],[12.052,54.467],[12.111,54.471],[12.17,54.474],[12.23,54.475],[12.289,54.475],[12.348,54.473]]}},{"type":"Feature","properties":{"name":"Sargasso Sea","featurecla":"sea","min_label":4},"geometry":{"type":"LineString","coordinates":[[-69.257,27.533],[-67.839,27.533],[-66.421,27.533],[-65.004,27.533],[-63.586,27.533],[-62.168,27.533],[-60.751,27.533],[-59.333,27.533],[-57.916,27.533],[-56.498,27.533],[-55.08,27.533],[-53.663,27.533],[-52.245,27.533],[-50.827,27.533]]}},{"type":"Feature","properties":{"name":"San Francisco Bay","featurecla":"bay","min_label":7.6},"geometry":{"type":"LineString","coordinates":[[-122.453,37.946],[-122.417,37.915],[-122.382,37.889],[-122.346,37.866],[-122.31,37.847],[-122.274,37.832],[-122.239,37.821],[-122.203,37.815],[-122.167,37.812],[-122.131,37.813],[-122.096,37.818],[-122.06,37.828],[-122.024,37.841],[-121.988,37.858],[-121.952,37.879],[-121.917,37.905],[-121.881,37.934],[-121.845,37.968],[-121.809,38.005],[-121.774,38.046],[-121.738,38.092],[-121.702,38.141],[-121.666,38.194],[-121.631,38.252],[-121.595,38.313]]}},{"type":"Feature","properties":{"name":"Monterey Bay","featurecla":"bay","min_label":7.6},"geometry":{"type":"LineString","coordinates":[[-122.044,36.802],[-121.924,36.802],[-121.805,36.802]]}},{"type":"Feature","properties":{"name":"Monterey Bay","featurecla":"bay","min_label":7.6,"beside":1,"from":7.6,"until":8.35,"tmw":5.8},"geometry":{"type":"Point","coordinates":[-121.731,36.767]}},{"type":"Feature","properties":{"name":"Salish Sea","featurecla":"sea","min_label":6},"geometry":{"type":"LineString","coordinates":[[-124.161,48.253],[-123.48,48.253],[-122.8,48.253]]}},{"type":"Feature","properties":{"name":"Gulf of Anadyr","featurecla":"gulf","min_label":5.7},"geometry":{"type":"LineString","coordinates":[[-179.754,64.265],[-178.34,64.265],[-176.925,64.265],[-175.511,64.265],[-174.096,64.265]]}},{"type":"Feature","properties":{"name":"Mediterranean Sea","featurecla":"sea","min_label":2},"geometry":{"type":"LineString","coordinates":[[0.589,40.951],[1.96,40.303],[3.332,39.685],[4.704,39.097],[6.075,38.538],[7.447,38.009],[8.819,37.509],[10.19,37.039],[11.562,36.598],[12.934,36.187],[14.305,35.805],[15.677,35.453],[17.049,35.131],[18.42,34.837],[19.792,34.574],[21.163,34.34],[22.535,34.135],[23.907,33.96],[25.278,33.815],[26.65,33.699],[28.022,33.612],[29.393,33.555],[30.765,33.528],[32.137,33.53],[33.508,33.561]]}},{"type":"Feature","properties":{"name":"Ross Sea","featurecla":"sea","min_label":2},"geometry":{"type":"LineString","coordinates":[[-174.549,-78.947],[-171.759,-78.558],[-168.968,-78.176],[-166.178,-77.802],[-163.387,-77.435],[-160.597,-77.076],[-157.806,-76.725],[-155.016,-76.382],[-152.226,-76.047],[-149.435,-75.719],[-146.645,-75.399],[-143.854,-75.087],[-141.064,-74.782],[-138.274,-74.485],[-135.483,-74.196],[-132.693,-73.915],[-129.902,-73.641],[-127.112,-73.375],[-124.322,-73.117],[-121.531,-72.866],[-118.741,-72.624],[-115.95,-72.389],[-113.16,-72.161],[-110.369,-71.942],[-107.579,-71.73]]}},{"type":"Feature","properties":{"name":"Coral Sea","featurecla":"sea","min_label":2},"geometry":{"type":"LineString","coordinates":[[147.015,-18.363],[148.511,-18.363],[150.007,-18.363],[151.503,-18.363],[152.999,-18.363],[154.494,-18.363],[155.99,-18.363],[157.486,-18.363],[158.982,-18.363],[160.478,-18.363],[161.974,-18.363],[163.47,-18.363],[164.966,-18.363],[166.462,-18.363],[167.958,-18.363]]}},{"type":"Feature","properties":{"name":"Sea of Japan","featurecla":"sea","min_label":2},"geometry":{"type":"LineString","coordinates":[[128.783,39.566],[130.134,39.566],[131.484,39.566],[132.835,39.566],[134.186,39.566],[135.537,39.566],[136.887,39.566],[138.238,39.566],[139.589,39.566]]}}]}