{"type":"FeatureCollection", "features": [
{"type":"Feature","geometry":{"type":"Polygon","coordinates":[[[179.53,71.44],[180,90],[-180,90],[-180,71.54],[-178.35,71.53],[-177.5,71.21],[-156.47,71.41],[-156.41,71.4],[-122.51,76.36],[-119.09,77.3],[-116.33,77.54],[-115.03,77.97],[-113.78,77.91],[-113.29,78.33],[-110.4,78.75],[-105.57,79.06],[-103.62,79.34],[-100.13,80],[-98.98,80.1],[-96.77,80.14],[-95.27,81],[-92,81.19],[-90.64,80.59],[-87.67,80.37],[-85.68,79.62],[-85.67,79.7],[-86.31,80.32],[-91.65,81.68],[-82.12,82.6],[-79.89,82.94],[-69.86,83.11],[-40.36,83.47],[-38.75,83.37],[-30.7,83.59],[-25.89,83.28],[17.96,80.15],[22.45,80.4],[27.04,80.12],[44.97,80.62],[48.41,80.64],[48.4,80.57],[49.83,80.9],[50.38,81.43],[58,81.8],[59.36,81.84],[63.05,81.71],[63.68,81.62],[65.14,81.15],[65.36,81.07],[89.92,81.15],[91.39,81.19],[95.16,81.27],[96.19,81.18],[96.2,81.27],[138.84,76.25],[156.04,77.47],[179.53,71.44]]]},"properties":{"name":"Arctic Ocean","featurecla":"ocean","min_label":1}},
{"type":"Feature","geometry":{"type":"Polygon","coordinates":[[[-57.65,-61.97],[-55.07,-61.18],[-54.71,-61.14],[-54.18,-61.27],[-55.08,-63.32],[-56.46,-63.42],[-57.17,-63.23],[-59.05,-64.45],[-59.96,-64.43],[-62.15,-65.33],[-61.88,-66.3],[-63.75,-66.28],[-65.5,-67.38],[-65.64,-68.13],[-63.46,-69.04],[-61.96,-70.12],[-61.07,-71.13],[-11.93,-71.13],[-9.23,-71.17],[-5.94,-70.71],[-5.95,-71.34],[-0.9,-71.35],[5.11,-70.66],[8.52,-70.47],[11.7,-70.77],[12.93,-70.21],[18.12,-70.54],[19.27,-70.9],[22.98,-70.81],[27.21,-70.91],[30,-70.3],[32.62,-70],[32.57,-69.07],[34.2,-68.73],[40.65,-68.73],[42.82,-68.12],[46.4,-67.62],[48.65,-67.79],[49.25,-66.94],[51.88,-66.02],[53.67,-65.86],[55.71,-66.08],[59.25,-67.49],[63.7,-67.51],[68.33,-67.89],[69.58,-67.79],[79.14,-68.15],[83.74,-67.35],[85.42,-65.07],[92.64,-63.32],[99.5,-63.15],[108.88,-64.05],[112.96,-65.81],[115.31,-66.56],[115.27,-67.03],[118.14,-67.08],[119.13,-67.37],[122.18,-66.86],[125.4,-66.42],[126.42,-66.46],[130.58,-66.21],[135.35,-66.13],[139.9,-66.72],[143.45,-66.88],[145.97,-67.62],[146.8,-68.27],[151.07,-68.38],[153.08,-68.86],[154.2,-68.42],[155.52,-69.02],[159.78,-69.52],[161.04,-70.32],[162.67,-70.3],[167.57,-70.81],[170.73,-71.94],[180,-71.94],[180,-60.53],[166.07,-60.53],[19.62,-60.53],[-44.86,-60.53],[-45.61,-60.53],[-45.94,-60.53],[-56.24,-60.53],[-68.08,-60.53],[-180,-60.53],[-180,-71.94],[-107.17,-71.94],[-102.13,-71.99],[-98.62,-71.76],[-95.61,-72.18],[-71.87,-68.94],[-70.4,-68.8],[-69.14,-67.52],[-67.71,-67.16],[-67.5,-67.14],[-65.62,-66.14],[-64.07,-65.55],[-63.76,-65.03],[-63.8,-64.79],[-64.17,-64.58],[-63.9,-64.52],[-63.92,-64.46],[-63.79,-64.44],[-63.68,-64.36],[-63.68,-64.34],[-63.49,-64.26],[-62.62,-63.07],[-61.06,-62.68],[-60,-62.62],[-58.76,-62.21],[-57.65,-61.97]]]},"properties":{"name":"Southern Ocean","featurecla":"ocean","min_label":1}},
{"type":"Feature","geometry":{"type":"Polygon","coordinates":[[[-24.02,64.87],[-30.99,68.06],[-33.16,67.63],[-34.1,66.73],[-36.38,65.83],[-39.58,65.34],[-40.66,64.92],[-40.55,63.73],[-42.15,62.57],[-42.11,61.86],[-43.32,59.93],[-43.94,59.82],[-43.95,59.78],[-52.74,47.77],[-53.07,46.68],[-54.17,46.88],[-54.86,47.38],[-55.95,46.94],[-56.37,46.78],[-59.88,46.16],[-60.51,46.19],[-60.53,46.21],[-61.45,45.71],[-61.51,45.68],[-61.28,45.24],[-63.76,44.49],[-65.74,43.56],[-69.95,41.69],[-72.26,41.29],[-72.31,41.14],[-73.19,40.65],[-73.82,40.81],[-73.83,40.85],[-74.18,39.73],[-74.94,38.95],[-75.09,38.78],[-75.04,38.5],[-75.94,37.16],[-76,36.91],[-75.58,35.87],[-75.54,35.28],[-76.73,34.71],[-77.13,34.71],[-78.01,33.91],[-78.58,33.87],[-79.28,33.14],[-80.85,32.11],[-81.52,30.87],[-81.25,29.79],[-80.52,28.49],[-80.65,28.18],[-80.04,26.62],[-78.96,26.67],[-78.8,26.53],[-78.16,25.2],[-78.44,24.63],[-80.64,23.1],[-77.5,21.87],[-76.65,21.28],[-75.72,21.11],[-74.15,20.18],[-73.37,19.82],[-71.83,19.7],[-70.95,19.91],[-68.68,18.9],[-68.35,18.57],[-67.18,18.42],[-65.63,18.38],[-63.53,18.72],[-61.66,18.08],[-59.74,14.97],[-59.21,12.82],[-60.25,11.38],[-60.85,10.25],[-61.01,9.56],[-60.79,9.36],[-60.33,8.63],[-59.2,8.07],[-58.48,7.04],[-56.97,5.99],[-55.94,5.8],[-54.83,5.99],[-52.9,5.43],[-51.67,4.23],[-51.22,4.09],[-50.66,2.13],[-49.96,1.66],[-50.24,0.88],[-50.08,0.63],[-50.04,0.56],[-49.83,0.29],[-49.7,0.21],[-49.51,0.08],[-49.38,0.02],[6.56,0.03],[6.56,0.05],[6.47,0.23],[-7.52,4.31],[-7.53,4.36],[-9.13,5.05],[-10.28,6.08],[-10.79,6.31],[-12.88,7.86],[-13.27,9.17],[-13.7,9.85],[-14.43,10.25],[-14.78,10.93],[-15.39,11.22],[-15.5,11.72],[-16.71,12.36],[-16.82,13.34],[-16.59,13.69],[-17.17,14.64],[-16.54,15.84],[-16.08,17.55],[-16.08,18.52],[-16.51,19.36],[-16.21,20.23],[-16.88,21.09],[-16.93,21.9],[-16.51,22.33],[-15.59,24.07],[-15.04,24.55],[-14.41,26.25],[-13.58,26.74],[-12.95,27.91],[-11.43,28.38],[-10.49,29.07],[-9.67,30.11],[-9.81,31.42],[-9.25,32.57],[-8.3,33.37],[-6.9,33.97],[-5.93,35.78],[-5.74,35.82],[-5.64,35.83],[-5.63,35.83],[-5.58,35.84],[-5.62,36.03],[-5.74,36.07],[-6.03,36.19],[-6.88,37.19],[-7.83,37.01],[-8.81,37.43],[-8.91,38.51],[-9.47,38.73],[-8.66,41.03],[-9.24,42.98],[-8,43.69],[-5.88,48.47],[-6.57,49.74],[-5.71,50.11],[-6.4,51.68],[-6.62,52.2],[-9.3,51.5],[-9.96,52.14],[-9.3,53.1],[-10,54.28],[-8.62,54.35],[-8.24,55.15],[-7.35,57.12],[-7.34,57.38],[-7.31,57.53],[-7.17,57.66],[-7.03,57.78],[-6.23,58.5],[-5.02,58.56],[-3.05,58.63],[-1.31,59.88],[-1.06,60.4],[-1.56,60.5],[-6.64,61.69],[-13.85,64.86],[-15.02,64.3],[-18.65,63.41],[-20.2,63.56],[-21.83,64.21],[-22.47,64.79],[-24.02,64.87]],[[-67.59,35.03],[-53.86,35.03],[-51.49,34.62],[-50.42,33.79],[-50.03,32.34],[-50.03,23.5],[-50.66,21.27],[-51.82,20.37],[-53.89,20.04],[-57.66,20.04],[-61.58,20.47],[-66.45,21.89],[-67.88,22.59],[-69.77,24.15],[-70.06,25.14],[-70.06,31.48],[-69.61,33.79],[-68.78,34.78],[-67.59,35.03]]]},"properties":{"name":"Atlantic Ocean","featurecla":"ocean","min_label":1}},
{"type":"Feature","geometry":{"type":"MultiPolygon","coordinates":[[[[180,50.99],[178.21,51.06],[175.78,51.44],[173.19,51.91],[170.33,52.86],[167.05,54.13],[164.77,55.19],[163.3,56.2],[162.97,56.03],[162.09,54.82],[161.51,54.52],[160.02,53.13],[158.61,52.87],[158.1,51.81],[157.14,51.17],[156.25,50.22],[153.56,47.84],[151.81,46.57],[149.43,45.35],[147.05,43.82],[145.82,43.38],[143.97,42.88],[143.25,42.01],[141.69,40.42],[141.9,39.11],[140.93,37.95],[140.97,37],[140.63,36.5],[140.87,35.73],[139.8,34.96],[139.04,34.77],[139.8,33.92],[140.48,31.91],[140.48,31.12],[140.91,30],[142.44,27.62],[142.55,26.72],[142.13,25.03],[141.54,23.87],[141.54,22.54],[141.81,21.75],[142.39,21.27],[144.67,20.9],[145.35,20.64],[146.2,18.84],[146.31,16.62],[145.88,14.61],[145.25,13.44],[144.72,12.91],[128.57,2.62],[128.58,2.6],[128.66,2.38],[129.04,1.65],[129.91,-0.06],[130.57,-0.06],[131.07,-0.06],[172.55,-0.06],[172.02,1.43],[171.81,2.7],[172.23,3.65],[172.98,3.65],[173.61,2.91],[173.82,1.22],[174.46,-0.05],[180,-0.05],[180,50.99]]],[[[-134.64,56.26],[-135.8,57.31],[-135.92,57.45],[-136.51,58.1],[-136.59,58.24],[-162.52,54.05],[-162.96,54.3],[-165.05,53.62],[-168.07,52.71],[-170.63,52.03],[-173.8,51.51],[-176.84,51.21],[-180,51.08],[-180,0.26],[-179.98,0.26],[-92.43,0.26],[-92.47,2.33],[-91.13,2.07],[-89.7,0.05],[-80.1,0.05],[-80.09,0.78],[-78.9,1.21],[-78.62,2.31],[-77.67,2.88],[-77.17,3.86],[-77.43,4.06],[-77.25,5.78],[-77.36,6.5],[-78.13,7.5],[-80.01,7.5],[-80.85,7.22],[-81.03,7.71],[-81.73,8.14],[-83.12,8.35],[-83.64,9.04],[-84.66,9.65],[-85.62,9.9],[-85.74,11.09],[-87.93,13.18],[-88.51,13.18],[-90.61,13.93],[-91.82,14.23],[-93.02,15.31],[-96.21,15.69],[-97.75,15.97],[-98.76,16.53],[-99.69,16.72],[-100.85,17.2],[-101.85,17.92],[-103.44,18.33],[-103.91,18.83],[-104.94,19.31],[-105.67,20.39],[-105.21,21.49],[-105.79,22.63],[-106.92,23.86],[-109.45,23.27],[-109.92,22.89],[-110.36,23.61],[-112.07,24.84],[-112.38,26.21],[-114.45,27.22],[-114.05,28.43],[-114.99,29.38],[-115.67,29.76],[-116.06,30.8],[-116.66,31.56],[-117.47,33.3],[-118.51,34.02],[-119.61,34.42],[-120.48,34.47],[-120.63,35.08],[-121.92,36.57],[-122.16,36.99],[-122.51,37.77],[-122.52,37.83],[-123.7,38.91],[-123.88,39.86],[-124.37,40.49],[-124.07,41.38],[-124.54,42.81],[-124.15,43.69],[-123.99,46.22],[-124.07,46.28],[-124.71,48.38],[-124.77,48.62],[-126.55,49.42],[-128.35,50.7],[-131.22,52.15],[-132.52,53.14],[-132.52,53.2],[-133.05,54.16],[-132.82,54.72],[-133.44,55.28],[-133.53,55.33],[-133.31,55.55],[-133.28,55.6],[-133.75,56],[-133.98,56.1],[-134.24,56.22],[-134.64,56.26]],[[-155.68,18.97],[-156.05,19.75],[-155.83,20.28],[-154.8,19.52],[-155.68,18.97]]]]},"properties":{"name":"Pacific Ocean","featurecla":"ocean","min_label":1}},
{"type":"Feature","geometry":{"type":"MultiPolygon","coordinates":[[[[-68.08,-60.53],[-68.08,-55.65],[-69.09,-54.99],[-69.08,-54.91],[-71.44,-54.62],[-70.86,-54.1],[-71.02,-54.14],[-72.02,-53.89],[-72.21,-53.8],[-73.08,-53.4],[-73.18,-53.36],[-74.63,-52.75],[-74.02,-52.63],[-73.52,-52.04],[-73.9,-51.33],[-75.09,-50.68],[-74.33,-49.97],[-74.34,-48.6],[-74.65,-47.71],[-74.93,-47.72],[-75.25,-47.76],[-75.5,-46.94],[-75.66,-46.61],[-73.72,-45.48],[-73.84,-45.33],[-73.9,-44.13],[-73.87,-43.37],[-74.36,-43.26],[-74.04,-41.8],[-73.54,-41.9],[-73.55,-41.79],[-73.97,-41.12],[-73.23,-39.22],[-73.48,-38.62],[-73.6,-37.19],[-73.22,-37.17],[-72.62,-35.59],[-72.22,-35.1],[-71.66,-33.65],[-71.42,-32.39],[-71.67,-30.33],[-71.32,-29.65],[-71.52,-28.93],[-71.19,-28.38],[-70.45,-25.17],[-70.56,-23.06],[-70.33,-22.85],[-70.09,-21.49],[-70.15,-19.81],[-70.36,-18.4],[-71.53,-17.29],[-72.47,-16.71],[-73.82,-16.15],[-75.1,-15.41],[-76.29,-14.13],[-76.18,-13.52],[-77.22,-11.66],[-77.63,-11.29],[-78.76,-8.62],[-80.11,-6.65],[-80.81,-6.28],[-81.28,-4.32],[-80.8,-3.74],[-80.94,-2.25],[-80.9,-1.08],[-80.1,0.05],[-89.7,0.05],[-91.13,2.07],[-92.47,2.33],[-92.43,0.26],[-179.98,0.26],[-180,0.26],[-180,-16.15],[-180,-16.17],[-180,-16.49],[-180,-16.54],[-180,-16.79],[-180,-16.96],[-180,-60.53],[-68.08,-60.53]]],[[[180,-60.53],[180,-16.96],[180,-16.15],[180,-0.05],[174.46,-0.05],[173.82,1.22],[173.61,2.91],[172.98,3.65],[172.23,3.65],[171.81,2.7],[172.02,1.43],[172.55,-0.06],[131.07,-0.06],[131.33,-0.3],[131.94,-0.61],[132.39,-0.36],[133.97,-0.74],[134.26,-1.36],[134.16,-2.2],[135.04,-3.33],[135.49,-3.35],[137.12,-1.84],[137.81,-1.48],[139.79,-2.35],[140.62,-2.45],[141.97,-2.96],[142.58,-1.85],[143.25,-1.39],[146.61,-2.01],[147.12,-1.97],[149.97,-2.48],[150.45,-2.52],[151.03,-2.71],[152.22,-3.53],[152.69,-4.37],[153.13,-4.29],[154.19,-4.5],[154.57,-5.07],[154.71,-5.29],[154.86,-5.51],[155.84,-6.41],[156.53,-6.62],[157.12,-7.03],[158.68,-7.59],[158.79,-7.65],[159.75,-8.2],[160.69,-8.33],[161.2,-9.09],[161.38,-9.36],[161.49,-9.52],[161.39,-10.21],[162.12,-10.82],[162.29,-10.74],[167.15,-9.9],[167.56,-14.29],[168.07,-14.87],[168.16,-15.47],[168.21,-15.97],[168.19,-16.12],[168.21,-16.34],[168.31,-16.69],[168.32,-16.79],[168.35,-17.55],[168.46,-17.8],[169.06,-18.63],[169.2,-18.96],[169.24,-19.39],[169.46,-19.61],[169.84,-20.27],[167.47,-22.67],[159.04,-29.02],[159.04,-29.88],[159.04,-31.59],[171.99,-34.06],[172.73,-34.45],[173.28,-34.98],[174.32,-35.25],[174.8,-36.31],[175.77,-36.74],[178.27,-37.57],[178.54,-37.69],[177.97,-39.14],[177.13,-39.19],[176.84,-40.16],[175.98,-41.21],[175.24,-41.58],[174.28,-41.74],[172.39,-43.83],[171.44,-44.14],[170.7,-45.68],[169.69,-46.55],[167.96,-46.36],[167.86,-46.7],[167.53,-47.24],[166.38,-48.16],[166.1,-50.54],[165.9,-50.79],[166.07,-50.85],[166.07,-60.53],[180,-60.53]],[[178.25,-17.33],[178.67,-18.08],[177.85,-18.25],[177.62,-17.46],[178.25,-17.33]]]]},"properties":{"name":"Pacific Ocean","featurecla":"ocean","min_label":1}},
{"type":"Feature","geometry":{"type":"Polygon","coordinates":[[[166.07,-60.53],[166.07,-50.85],[165.9,-50.79],[146.78,-43.63],[146.36,-43.52],[145.99,-43.42],[145.91,-43.39],[118.05,-35.06],[118.04,-35.01],[116.52,-34.99],[115.01,-34.26],[115.02,-33.53],[115.02,-30.31],[114.96,-29.43],[114.17,-28.08],[113.58,-26.56],[113.4,-25.65],[113.41,-24.25],[113.76,-23.42],[113.68,-22.64],[114.38,-22.34],[114.86,-21.74],[116.71,-20.65],[117.41,-20.72],[119.1,-20],[120.88,-19.66],[121.49,-19.11],[122.24,-17.97],[122.16,-17.31],[122.97,-16.44],[123.49,-16.49],[124.58,-16.11],[124.38,-15.76],[125.18,-14.71],[126.9,-13.75],[122.9,-10.91],[122.82,-10.86],[121.33,-10.79],[120.65,-10.22],[120.14,-10.2],[118.96,-9.53],[118.48,-8.86],[116.96,-9.08],[115.14,-8.85],[114.6,-8.74],[113.25,-8.29],[112.68,-8.41],[110.61,-8.15],[108.74,-7.67],[107.92,-7.72],[106.63,-7.42],[106.52,-7.05],[105.28,-6.73],[104.61,-5.9],[103.83,-5.08],[102.54,-4.15],[101.58,-3.17],[100.85,-2.14],[100.31,-0.83],[99.6,0.1],[99.16,0.35],[98.56,1.9],[97.7,2.36],[96.97,3.58],[96.44,3.82],[95.49,4.76],[95.22,5.52],[81.87,7.24],[81.64,6.43],[80.72,5.98],[80.22,6.05],[73.12,-0.68],[51.39,10.41],[50.93,10.34],[50.82,9.43],[49.35,6.99],[49.05,6.17],[47.98,4.5],[46.05,2.47],[44.33,1.39],[43.47,0.62],[41.98,-0.97],[41.39,-1.87],[40.22,-2.69],[40.12,-3.25],[39.23,-4.67],[38.82,-5.88],[39.47,-6.88],[39.3,-8.44],[39.78,-9.91],[40.61,-10.66],[44.63,-11.27],[48.89,-11.78],[49.26,-12.08],[49.94,-13.07],[50.48,-15.39],[50.19,-15.96],[49.83,-16.25],[49.45,-17.24],[49.48,-17.9],[48.61,-20.46],[47.91,-22.47],[47.18,-24.79],[46.73,-25.15],[45.11,-25.54],[32.91,-26.57],[32.53,-28.2],[31.34,-29.38],[30.29,-30.97],[27.86,-33.05],[26.43,-33.76],[24.83,-34.17],[23.59,-33.99],[22.25,-34.07],[21.79,-34.37],[20.53,-34.46],[19.63,-34.75],[19.62,-34.81],[19.62,-60.53],[166.07,-60.53]]]},"properties":{"name":"Indian Ocean","featurecla":"ocean","min_label":1}},
{"type":"Feature","geometry":{"type":"Polygon","coordinates":[[[19.62,-60.53],[19.62,-34.81],[19.63,-34.75],[18.81,-34.11],[17.93,-32.73],[17.98,-32.72],[18.01,-32.75],[18.33,-32.3],[18.32,-32.23],[18.22,-31.79],[18.2,-31.72],[18.1,-31.58],[17.19,-30.1],[16.48,-28.64],[15.34,-27.39],[14.97,-26.32],[14.84,-25.03],[14.5,-24.2],[14.53,-22.7],[13.45,-20.92],[12.46,-18.93],[11.78,-18],[11.75,-15.83],[11.97,-15.63],[12.55,-13.44],[13.42,-12.52],[13.79,-11.81],[13.85,-11.05],[13,-9.05],[13.38,-8.37],[12.52,-6.59],[12.04,-5.03],[11.67,-4.43],[9.27,-1.83],[8.71,-0.61],[6.98,0.03],[6.56,0.03],[-49.38,0.02],[-49.41,-0.08],[-49.33,-0.17],[-48.39,-0.31],[-48.03,-0.71],[-46.81,-0.78],[-45.08,-1.47],[-44.55,-1.95],[-43.39,-2.38],[-41.32,-2.94],[-39.96,-2.86],[-38.48,-3.72],[-37.17,-4.91],[-35.55,-5.13],[-35.24,-5.57],[-34.81,-7.29],[-34.83,-7.97],[-35.34,-9.23],[-36.4,-10.48],[-36.94,-10.82],[-38.24,-12.84],[-38.79,-12.78],[-39.09,-13.59],[-38.88,-15.86],[-39.22,-17.32],[-39.74,-18.64],[-39.7,-19.28],[-40.4,-20.57],[-40.79,-20.91],[-41.12,-22.08],[-41.71,-22.31],[-42.04,-22.95],[-44.64,-23.06],[-45.42,-23.69],[-46.87,-24.24],[-47.88,-25],[-48.55,-25.82],[-48.55,-27.2],[-48.8,-28.58],[-49.75,-29.36],[-50.3,-30.43],[-51.15,-31.48],[-52.07,-32.06],[-52.17,-32.08],[-52.65,-33.14],[-53.79,-34.38],[-54.91,-34.93],[-56.75,-36.35],[-56.67,-36.85],[-57.55,-38.09],[-58.18,-38.44],[-59.83,-38.84],[-61.41,-38.98],[-62.08,-39.47],[-62.39,-40.89],[-63.4,-41.16],[-63.79,-42.12],[-64.13,-42.86],[-65.28,-43.63],[-65.64,-45.01],[-65.85,-47.17],[-65.81,-47.94],[-67.69,-49.25],[-67.91,-49.98],[-68.4,-52.3],[-68.7,-52.31],[-68.76,-52.58],[-68.01,-53.56],[-65.35,-54.88],[-66.51,-55.03],[-69.08,-54.91],[-69.09,-54.99],[-68.08,-55.65],[-68.08,-60.53],[-56.24,-60.53],[-45.94,-60.53],[-45.61,-60.53],[-44.86,-60.53],[19.62,-60.53]]]},"properties":{"name":"Atlantic Ocean","featurecla":"ocean","min_label":1}},
{"type":"Feature","geometry":{"type":"Polygon","coordinates":[[[36.58,45.39],[33.91,44.39],[33.56,45.1],[32.51,45.4],[33.66,45.95],[30.8,46.55],[29.6,45.68],[29.56,44.84],[28.65,44.3],[28.56,43.5],[27.48,42.47],[28.2,41.55],[29.05,41.22],[29.13,41.21],[31.25,41.11],[32.31,41.73],[33.38,42.02],[36.05,41.68],[36.51,41.26],[38.38,40.92],[40.27,40.96],[41.41,41.42],[41.76,41.97],[41.49,42.66],[39.87,43.47],[38.72,44.29],[36.62,45.19],[36.72,45.37],[36.58,45.39]]]},"properties":{"name":"Black Sea","featurecla":"sea","min_label":2}},
{"type":"Feature","geometry":{"type":"Polygon","coordinates":[[[139.04,34.77],[138.19,34.6],[136.88,34.81],[135.92,33.56],[135.17,33.91],[134.74,33.82],[134.18,33.25],[133.63,33.51],[132.98,32.84],[132.49,32.92],[132,32.89],[131.34,31.4],[130.7,31.02],[130.68,29.79],[129.45,28.39],[129.29,28.19],[128.26,26.88],[127.66,26.09],[127.01,25.28],[125.32,24.11],[123.97,23.65],[123.09,23.94],[121.93,24.98],[121.3,22.97],[120.87,22.09],[120.86,22.03],[120.82,21.93],[122.05,20.44],[122.27,19.65],[122.18,18.49],[122.15,17.76],[122.52,17.12],[122.14,16.18],[121.6,15.93],[121.39,15.32],[121.8,14.11],[122.86,14.25],[124.14,13.04],[124.1,12.69],[124.3,12.57],[125.15,12.57],[125.54,12.19],[125.71,11.08],[125.66,10.61],[125.64,10.43],[125.68,10.36],[126.06,10.03],[126.17,9.27],[126.58,7.25],[126.17,6.34],[125.67,5.99],[125.38,5.62],[125.42,3.71],[125.63,3.41],[126.71,4.04],[126.86,4.19],[128.57,2.62],[144.72,12.91],[145.25,13.44],[145.88,14.61],[146.31,16.62],[146.2,18.84],[145.35,20.64],[144.67,20.9],[142.39,21.27],[141.81,21.75],[141.54,22.54],[141.54,23.87],[142.13,25.03],[142.55,26.72],[142.44,27.62],[140.91,30],[140.48,31.12],[140.48,31.91],[139.8,33.92],[139.04,34.77]]]},"properties":{"name":"Philippine Sea","featurecla":"sea","min_label":2}},
{"type":"Feature","geometry":{"type":"Polygon","coordinates":[[[167.96,-46.36],[166.73,-46.2],[167.19,-44.96],[168.37,-44.08],[169.66,-43.59],[171.26,-42.47],[171.49,-41.79],[172.64,-40.52],[173.23,-41.28],[174.08,-41.01],[175.05,-40.79],[175.01,-39.95],[173.93,-39.51],[174.6,-38.79],[174.93,-37.8],[174.45,-36.45],[173.95,-36.18],[172.73,-34.45],[171.99,-34.06],[159.04,-31.59],[159.04,-29.88],[153.28,-29.88],[152.94,-31.43],[152.47,-32.44],[151.81,-32.9],[150.96,-34.3],[150.2,-35.83],[149.93,-37.53],[149.44,-37.78],[147.95,-39.73],[148.16,-40.25],[148.17,-40.36],[148.18,-40.46],[148.05,-40.79],[148.3,-42.04],[146.87,-43.61],[146.36,-43.52],[146.78,-43.63],[165.9,-50.79],[166.1,-50.54],[166.38,-48.16],[167.53,-47.24],[167.86,-46.7],[167.96,-46.36]]]},"properties":{"name":"Tasman Sea","featurecla":"sea","min_label":2}},
{"type":"Feature","geometry":{"type":"Polygon","coordinates":[[[95.22,5.52],[95.24,5.57],[94.08,6.26],[93.05,7.69],[92.43,9.18],[92.2,10.35],[92.28,11.66],[92.56,13.25],[92.93,14.39],[93.74,15.82],[94.23,16.24],[94.59,17.57],[94,19.44],[93,20.08],[92.06,21.17],[91.69,22.5],[91.41,22.8],[90.36,22.05],[89.05,21.65],[87.95,21.83],[87.1,21.5],[86.98,20.7],[86.28,19.92],[84.77,19.13],[84.1,18.29],[82.36,17.1],[82.26,16.56],[81.24,16.26],[80.98,15.76],[80.29,15.71],[80.05,15.07],[80.34,13.36],[79.86,11.99],[79.84,10.33],[80.21,9.8],[81.37,8.43],[81.87,7.24],[95.22,5.52]]]},"properties":{"name":"Bay of Bengal","featurecla":"bay","min_label":2}},
{"type":"Feature","geometry":{"type":"Polygon","coordinates":[[[120.82,21.93],[120.09,23.08],[117.46,23.76],[116.47,22.95],[114.65,22.76],[113.01,22.12],[111.94,21.85],[110.19,21.04],[109.94,20.3],[109.93,20.28],[110.67,20.14],[110.97,19.88],[110.45,18.75],[109.52,18.22],[108.7,18.54],[106.48,17.92],[107.18,16.9],[108.03,16.33],[108.82,15.38],[109.08,14.72],[109.27,13.28],[109.2,11.72],[108.27,10.93],[107.26,10.4],[106.81,10.43],[106.57,9.64],[104.77,8.6],[102.35,6.16],[103.42,4.85],[103.44,2.93],[103.81,2.58],[104.28,1.41],[104.43,1.2],[104.25,1.09],[103.37,1.13],[103.15,0.9],[103.06,0.86],[103.01,0.84],[102.94,0.74],[102.91,0.69],[103.48,0.48],[103.43,-0.19],[103.72,-0.89],[104.36,-1.04],[104.67,-2.39],[105.58,-2.49],[106.06,-3.22],[106.56,-3.06],[106.82,-2.58],[107.82,-2.53],[108.27,-2.87],[110.23,-2.91],[110.02,-1.4],[109.13,-0.45],[108.94,0.36],[109.08,1.5],[109.63,2.03],[110.94,1.52],[111.24,2.44],[111.73,2.85],[113.04,3.21],[114.3,4.61],[115.52,5.05],[116.77,6.99],[116.82,7.69],[117.22,8.37],[119.02,10.35],[119.5,11.35],[119.9,12.17],[120.23,12.22],[120.77,12.83],[120.93,13.5],[120.97,13.76],[120.08,14.85],[120.16,16.05],[120.6,18.51],[122.18,18.49],[122.27,19.65],[122.05,20.44],[120.82,21.93]]]},"properties":{"name":"South China Sea","featurecla":"sea","min_label":2}},
{"type":"Feature","geometry":{"type":"Polygon","coordinates":[[[73.12,-0.68],[72.54,0.97],[72.33,4.64],[71.83,9.4],[71.38,12.4],[71.66,13],[72.47,13.56],[74.35,14.56],[73.48,16.05],[72.67,19.84],[70.86,20.72],[70.03,21.18],[69.01,22.41],[68.8,23.07],[68.04,23.85],[67.31,24.18],[66.7,24.86],[66.43,25.58],[64.66,25.18],[63.72,25.39],[61.41,25.1],[59.83,22.46],[59.37,21.5],[58.48,20.42],[58.64,20.34],[58.65,20.21],[57.81,19.02],[56.65,18.59],[56.27,17.95],[55.48,17.84],[55.06,17.04],[54.07,17.01],[52.58,16.47],[52.22,15.66],[51.26,15.21],[51.25,11.83],[51.08,11.34],[51.39,10.41],[73.12,-0.68]]]},"properties":{"name":"Arabian Sea","featurecla":"sea","min_label":2}},
{"type":"Feature","geometry":{"type":"Polygon","coordinates":[[[-156.41,71.4],[-154.2,70.8],[-151.94,70.45],[-149.27,70.5],[-145.2,70.01],[-143.22,70.12],[-141.41,69.65],[-139.17,69.51],[-134.46,69.65],[-131.64,69.57],[-131.63,69.46],[-130.66,69.48],[-127.77,70.22],[-127.98,70.57],[-125.8,71.96],[-123.8,73.77],[-124.69,74.35],[-122.88,76.14],[-122.51,76.36],[-156.41,71.4]]]},"properties":{"name":"Beaufort Sea","featurecla":"sea","min_label":2}},
{"type":"Feature","geometry":{"type":"Polygon","coordinates":[[[-68.35,18.57],[-71.03,18.27],[-71.4,17.65],[-72.06,18.23],[-73.39,18.25],[-73.88,18.04],[-74.23,18.66],[-72.79,18.43],[-72.7,19.44],[-73.37,19.82],[-74.15,20.18],[-75.12,19.9],[-76.16,19.99],[-77.71,19.86],[-77.23,20.64],[-78,20.72],[-78.64,21.52],[-79.27,21.56],[-80.5,22.06],[-81.82,22.2],[-81.9,22.68],[-82.74,22.69],[-83.38,22.22],[-84.85,21.84],[-84.89,21.86],[-84.88,21.87],[-87.02,21.57],[-86.82,21.42],[-86.86,20.89],[-87.47,20.1],[-87.76,18.45],[-88.29,17.31],[-86.91,15.76],[-85.78,16],[-84.26,15.82],[-83.37,15.24],[-83.19,14.34],[-83.57,13.32],[-83.51,12.41],[-83.87,11.3],[-83.45,10.47],[-82.24,9.03],[-81.36,8.78],[-80.13,9.21],[-79.58,9.6],[-78.08,9.24],[-77.26,8.49],[-76.92,8.57],[-75.64,9.45],[-75.67,10.2],[-74.84,11.11],[-73.31,11.3],[-71.71,12.42],[-71.14,12.05],[-71.95,11.41],[-71.6,10.72],[-71.54,10.78],[-71.47,10.96],[-69.63,11.48],[-68.83,11.43],[-67.87,10.47],[-66.25,10.63],[-65.85,10.26],[-64.85,10.1],[-63.87,10.66],[-62.84,10.42],[-61.01,9.56],[-60.85,10.25],[-60.25,11.38],[-59.21,12.82],[-59.74,14.97],[-61.66,18.08],[-63.53,18.72],[-65.63,18.38],[-67.18,18.42],[-68.35,18.57]]]},"properties":{"name":"Caribbean Sea","featurecla":"sea","min_label":2}},
{"type":"Feature","geometry":{"type":"Polygon","coordinates":[[[-84.88,21.87],[-84.88,21.88],[-84.33,22.07],[-84.04,22.67],[-83.03,23],[-83,24.22],[-81.8,24.08],[-80.42,24.47],[-79.9,24.96],[-80.33,25.42],[-81.11,25.14],[-81.37,25.83],[-82.44,27.06],[-82.84,27.85],[-82.65,28.89],[-83.69,29.93],[-85.35,29.88],[-86.26,30.49],[-87.79,30.29],[-88.91,30.41],[-89.73,30.2],[-89.74,30.17],[-89.88,29.46],[-90.75,29.13],[-91.89,29.84],[-92.26,29.56],[-93.69,29.77],[-94.89,29.37],[-95.85,28.64],[-97.16,28.14],[-97.55,26.97],[-97.14,26.03],[-97.67,24.39],[-97.86,22.62],[-97.64,21.6],[-97.2,20.8],[-90.35,21.01],[-89.82,21.27],[-88.13,21.62],[-87.03,21.59],[-87.02,21.57],[-84.88,21.87]]]},"properties":{"name":"Gulf of Mexico","featurecla":"gulf","min_label":2}},
{"type":"Feature","geometry":{"type":"Polygon","coordinates":[[[-43.94,59.82],[-45.38,60.2],[-45.41,60.17],[-64.43,60.32],[-63.19,58.86],[-61.33,57.01],[-61.51,56.39],[-59.93,55.26],[-59,55.15],[-57.57,54.44],[-57.41,54.15],[-55.8,53.21],[-55.69,52.14],[-55.49,51.59],[-56.69,50.06],[-55.03,49.31],[-53.96,49.44],[-53.53,48.23],[-52.74,47.77],[-43.95,59.78],[-43.94,59.82]]]},"properties":{"name":"Labrador Sea","featurecla":"sea","min_label":2}},
{"type":"Feature","geometry":{"type":"Polygon","coordinates":[[[-85.7,65.88],[-86.04,66.02],[-87.68,65.34],[-87.68,65.27],[-87.28,64.83],[-88.65,64.01],[-91.33,63.51],[-93.53,61.87],[-94.65,60.42],[-94.71,58.9],[-93.28,58.76],[-92.25,57.01],[-90.59,57.22],[-88.95,56.85],[-87.56,56.06],[-85.06,55.29],[-82.58,55.15],[-82.22,54.83],[-79.65,54.7],[-77.89,55.24],[-76.65,56.11],[-76.57,57.18],[-77.16,58.02],[-78.51,58.68],[-77.31,60.04],[-77.87,60.79],[-78.13,62.29],[-80.98,63.47],[-83.49,64.1],[-85.5,63.14],[-86.37,64.57],[-85.7,65.88]]]},"properties":{"name":"Hudson Bay","featurecla":"bay","min_label":2}},
{"type":"Feature","geometry":{"type":"Polygon","coordinates":[[[52.85,41.2],[52.49,41.78],[52.6,42.76],[51.84,42.91],[50.83,44.19],[51.42,45.36],[52.53,45.4],[53.14,46.19],[52.92,46.95],[51.18,47.11],[48.16,45.74],[47.52,45.6],[46.75,44.42],[47.23,44.19],[47.46,43.04],[49.56,40.72],[49.36,39.35],[48.85,38.82],[48.96,37.89],[50.13,37.41],[51.12,36.74],[52.19,36.62],[54.02,36.95],[53.87,38.95],[52.73,40.4],[52.94,41.04],[52.85,41.2]]]},"properties":{"name":"Caspian Sea","featurecla":"sea","min_label":2}},
{"type":"Feature","geometry":{"type":"Polygon","coordinates":[[[-72.7,78.38],[-74.54,78.65],[-78.01,77.95],[-79.34,77.16],[-78.5,76.53],[-79.01,76.15],[-79.05,75.87],[-79.63,75.42],[-80.28,74.58],[-77.25,73.51],[-77.01,72.84],[-77.02,72.73],[-75.19,72.43],[-74.32,71.84],[-71.46,71.46],[-68.5,70.61],[-67.29,69.97],[-54.82,69.92],[-54.27,70.31],[-54.26,70.53],[-54.44,70.75],[-54.78,71.37],[-55.6,72.45],[-54.77,72.92],[-57.2,74.13],[-66.73,75.97],[-69.37,76.33],[-71.01,77.14],[-71.6,77.33],[-72.44,77.45],[-72.65,78.11],[-72.7,78.38]]]},"properties":{"name":"Baffin Bay","featurecla":"bay","min_label":2}},
{"type":"Feature","geometry":{"type":"Polygon","coordinates":[[[-136.59,58.24],[-136.6,58.24],[-140.22,59.73],[-142.95,60.1],[-143.81,60.01],[-145.89,60.48],[-146.11,60.41],[-146.7,60.4],[-146.96,60.29],[-147.77,59.94],[-148.2,60.17],[-149.43,60],[-150.96,59.24],[-151.96,59.28],[-153.33,58.89],[-156.47,57.11],[-158.41,56.44],[-158.79,55.99],[-163.34,54.84],[-163.38,54.82],[-163.09,54.67],[-162.96,54.3],[-162.52,54.05],[-136.59,58.24]]]},"properties":{"name":"Gulf of Alaska","featurecla":"gulf","min_label":2}},
{"type":"Feature","geometry":{"type":"Polygon","coordinates":[[[43.25,13.23],[43.28,13.64],[42.72,15.65],[42.7,16.74],[41.23,18.68],[40.76,19.76],[39.61,20.52],[39.09,21.31],[39.1,22.39],[38.46,23.71],[37.54,24.29],[37.15,25.29],[35.18,28.03],[34.62,28.09],[34.39,28],[34.21,27.77],[33.83,27.22],[33.96,26.65],[35.19,24.48],[35.62,24.07],[35.7,22.95],[36.83,22.1],[37.15,21.1],[37.25,19.58],[37.47,18.82],[38.57,18.07],[38.91,17.43],[39.3,15.92],[40.2,15.01],[41.18,14.62],[41.66,13.98],[43.01,12.89],[43.3,12.46],[43.49,12.7],[43.25,13.23]]]},"properties":{"name":"Red Sea","featurecla":"sea","min_label":2}},
{"type":"Feature","geometry":{"type":"Polygon","coordinates":[[[157.14,51.17],[156.5,51.48],[155.56,55.35],[155.98,56.69],[156.81,57.77],[155.16,59.19],[152.88,58.94],[151.49,59.52],[149.64,59.77],[147.51,59.27],[146.44,59.43],[143.19,59.37],[142.03,59],[138.12,56.48],[138.21,55.03],[137.65,54.28],[139.76,54.27],[142.33,54.28],[142.98,54.14],[143.32,52.61],[143.16,52.08],[144.27,49.31],[143.1,49.2],[142.56,47.74],[142.58,46.7],[142.08,45.92],[142.07,45.92],[141.95,45.5],[141.97,45.49],[143.76,44.13],[145.82,43.38],[147.05,43.82],[149.43,45.35],[151.81,46.57],[153.56,47.84],[156.25,50.22],[157.14,51.17]]]},"properties":{"name":"Sea of Okhotsk","featurecla":"sea","min_label":2}},
{"type":"Feature","geometry":{"type":"Polygon","coordinates":[[[-61.07,-71.13],[-60.38,-73.01],[-61.01,-74.48],[-63.92,-75],[-63.36,-75.45],[-71.8,-76.75],[-77.19,-76.63],[-75.39,-77.47],[-72.85,-77.59],[-80.15,-79.27],[-76.5,-79.33],[-75.24,-80.8],[-70.24,-80.86],[-64.75,-81.52],[-65.91,-82.18],[-62.74,-82.53],[-61.59,-83.34],[-53.99,-82.2],[-48.36,-81.89],[-43.67,-82.27],[-41.43,-81.3],[-38.77,-80.88],[-25.26,-79.76],[-29.95,-79.6],[-36.24,-78.77],[-34.08,-77.43],[-28.93,-76.37],[-24.27,-75.77],[-19.49,-75.54],[-15.6,-73.1],[-14.32,-73.12],[-11.5,-72.41],[-10.96,-71.9],[-11.93,-71.13],[-61.07,-71.13]],[[-49.14,-78.09],[-46.83,-77.79],[-43.81,-78.29],[-42.97,-79.48],[-43.53,-80.19],[-54.16,-80.87],[-50.34,-79.48],[-49.14,-78.09]]]},"properties":{"name":"Weddell Sea","featurecla":"sea","min_label":2}},
{"type":"Feature","geometry":{"type":"Polygon","coordinates":[[[57.2,26.1],[56.98,26.91],[56.36,27.2],[54.9,26.56],[53.71,26.73],[52.48,27.62],[51.28,28.13],[50.65,29.42],[49.98,30.21],[47.98,30.01],[48.18,28.98],[48.91,27.63],[49.99,26.83],[50.03,26.11],[50.56,25.09],[51,25.98],[51.54,25.9],[51.59,24.97],[51.31,24.34],[51.91,23.99],[52.65,24.15],[53.89,24.08],[56.43,26.28],[57.2,26.1]]]},"properties":{"name":"Persian Gulf","featurecla":"gulf","min_label":2}},
{"type":"Feature","geometry":{"type":"Polygon","coordinates":[[[125.38,5.62],[124.08,6.4],[124.21,7.4],[122.5,7.67],[122.05,6.92],[122.05,6.74],[121.96,6.42],[121.19,6.04],[120.88,5.95],[120.17,5.33],[119.82,5.08],[119.24,5.19],[118.56,4.5],[117.47,4.08],[117.17,3.59],[118.07,2.32],[117.86,1.97],[118.96,0.95],[120.88,1.26],[122.89,0.85],[123.85,0.84],[125.16,1.65],[125.63,3.41],[125.42,3.71],[125.38,5.62]]]},"properties":{"name":"Celebes Sea","featurecla":"sea","min_label":4}},
{"type":"Feature","geometry":{"type":"Polygon","coordinates":[[[116.77,6.99],[117.13,6.97],[118,6.05],[119.24,5.19],[119.82,5.08],[120.17,5.33],[120.88,5.95],[121.19,6.04],[121.96,6.42],[122.05,6.74],[122.05,6.92],[122.13,7.81],[123.4,8.65],[123.17,9.08],[122.56,9.48],[122.82,10.5],[122.7,10.55],[122.65,10.72],[122.62,10.76],[121.96,10.87],[121.96,11.9],[121.42,12.39],[121.54,13.1],[120.93,13.5],[120.77,12.83],[120.23,12.22],[119.9,12.17],[119.5,11.35],[119.02,10.35],[117.22,8.37],[116.82,7.69],[116.77,6.99]]]},"properties":{"name":"Sulu Sea","featurecla":"sea","min_label":4}},
{"type":"Feature","geometry":{"type":"Polygon","coordinates":[[[-1.06,60.4],[-0.78,60.59],[5.2,60.59],[5.02,60.94],[5.03,61.24],[5.53,62.31],[8.78,63.64],[8.76,63.7],[8.81,63.76],[9.65,63.82],[12.16,65.18],[13.23,66.65],[13.35,68.01],[13.88,68.16],[14.28,68.19],[16.53,68.65],[16.63,68.62],[18.29,69.47],[24.42,70.7],[27.6,71.09],[17.04,76.62],[17.03,76.65],[16.38,76.63],[-8,71.18],[-9.1,70.85],[-13.67,65.55],[-13.85,64.86],[-6.64,61.69],[-1.56,60.5],[-1.06,60.4]]]},"properties":{"name":"Norwegian Sea","featurecla":"sea","min_label":4}},
{"type":"Feature","geometry":{"type":"Polygon","coordinates":[[[-25.89,83.28],[-21.52,82.6],[-21.15,81.69],[-15.56,81.83],[-11.53,81.42],[-14.5,80.76],[-19.43,80.26],[-18.97,79.21],[-20.96,78.55],[-20.23,77.37],[-20.94,76.89],[-19.37,75.39],[-19.23,74.48],[-21.13,74.11],[-20.51,73.49],[-22.19,73.27],[-22.29,72.12],[-21.63,70.47],[-22.27,70.12],[-26.34,68.7],[-28.48,68.43],[-23.53,66.16],[-21.41,66.03],[-16.75,66.13],[-13.67,65.55],[-9.1,70.85],[-8,71.18],[16.38,76.63],[11.77,78.72],[13.38,79.48],[17.62,79.87],[17.96,80.13],[17.96,80.15],[-25.89,83.28]]]},"properties":{"name":"Greenland Sea","featurecla":"sea","min_label":4}},
{"type":"Feature","geometry":{"type":"Polygon","coordinates":[[[123.37,-1.01],[122.81,-0.97],[121.72,-1.86],[122.4,-3.2],[122.25,-3.62],[122.85,-4.06],[121.92,-4.85],[121.62,-4.09],[120.91,-3.56],[121.05,-2.75],[120.25,-3.05],[120.44,-3.71],[120.43,-5.59],[120.48,-5.78],[120.45,-6.23],[120.38,-6.58],[121.08,-7.32],[122.82,-8.11],[123.01,-8.33],[123.03,-8.34],[123.3,-8.4],[123.33,-8.44],[123.92,-8.27],[123.97,-8.35],[124.29,-8.33],[124.36,-8.39],[125.12,-8.33],[125.09,-8.75],[125.8,-8.49],[127.25,-8.39],[127.78,-8.17],[130.77,-8.36],[131.14,-8],[131.71,-7.16],[132.9,-5.85],[133.16,-5.34],[133.11,-5.31],[130.76,-3.84],[129.84,-3.33],[128.42,-3.42],[128.2,-2.87],[127.75,-2.8],[125.99,-3.05],[126.02,-2.45],[125.91,-1.99],[125.89,-1.91],[125.39,-1.84],[125.32,-1.84],[124.36,-1.77],[123.52,-1.44],[123.53,-1.29],[123.37,-1.01]]]},"properties":{"name":"Banda Sea","featurecla":"sea","min_label":4}},
{"type":"Feature","geometry":{"type":"Polygon","coordinates":[[[-8,43.69],[-4.52,43.42],[-2.34,43.33],[-1.48,43.56],[-1.07,45.81],[-2.02,47.04],[-3.16,47.69],[-4.31,47.82],[-4.76,48.44],[-5.88,48.47],[-8,43.69]]]},"properties":{"name":"Bay of Biscay","featurecla":"bay","min_label":4}},
{"type":"Feature","geometry":{"type":"Polygon","coordinates":[[[6.56,0.03],[6.98,0.03],[8.71,-0.61],[9.3,-0.35],[9.63,0.78],[9.49,1.44],[9.81,1.93],[9.9,2.94],[8.69,3.22],[8.44,3.39],[6.63,4.34],[5.58,4.66],[0.95,5.81],[0.26,5.76],[-2,4.76],[-4.04,5.23],[-5.91,5.01],[-7.53,4.36],[-7.52,4.31],[6.47,0.23],[6.56,0.05],[6.56,0.03]]]},"properties":{"name":"Gulf of Guinea","featurecla":"gulf","min_label":4}},
{"type":"Feature","geometry":{"type":"Polygon","coordinates":[[[-55.07,-61.18],[-54.18,-61.27],[-54.71,-61.14],[-55.07,-61.18]]]},"properties":{"name":"Scotia Sea","featurecla":"sea","min_label":4}},
{"type":"Feature","geometry":{"type":"Polygon","coordinates":[[[22.94,59.81],[20.79,59.66],[18.97,59.76],[18.29,59.11],[16.65,58.43],[16.53,57.07],[16,56.22],[14.78,56.16],[14.34,55.53],[12.89,55.41],[12.41,55.3],[12.06,54.85],[12.46,54.4],[13.8,54.04],[13.83,54.06],[14.38,53.92],[18.32,54.84],[19.41,54.39],[21.11,55.62],[21.16,55.64],[21.07,56.82],[21.74,57.57],[22.02,57.93],[22.46,58.6],[22.52,58.7],[22.92,58.98],[23.48,59.03],[23.48,59.07],[22.94,59.81]]]},"properties":{"name":"Baltic Sea","featurecla":"sea","min_label":4}},
{"type":"Feature","geometry":{"type":"Polygon","coordinates":[[[27.04,80.12],[25.64,79.4],[20.86,79.4],[17.96,80.13],[17.62,79.87],[20.18,78.64],[20.24,78.48],[24.24,77.9],[20.99,77.45],[17.04,76.62],[27.6,71.09],[30.94,70.27],[29.6,69.98],[33.68,69.31],[35.86,69.19],[38.98,68.28],[43.33,68.67],[45.89,68.48],[46.69,67.85],[44.94,67.48],[45.99,66.85],[47.71,67.04],[47.87,67.58],[52.55,68.59],[53.97,68.23],[57.13,68.55],[60.66,69.11],[60.28,69.65],[60.26,69.7],[58.48,70.26],[58.48,70.27],[57.62,70.73],[57.36,70.65],[53.72,70.81],[53.36,71.54],[51.81,71.49],[54.15,73.28],[54.21,73.42],[57.09,75.38],[58.88,75.86],[62.97,76.24],[67.65,77.01],[68.91,76.76],[65.36,81.01],[65.36,81.07],[65.14,81.15],[63.68,81.62],[63.05,81.71],[59.36,81.84],[58,81.8],[50.38,81.43],[49.83,80.9],[48.4,80.57],[48.41,80.64],[44.97,80.62],[27.04,80.12]]]},"properties":{"name":"Barents Sea","featurecla":"sea","min_label":4}},
{"type":"Feature","geometry":{"type":"Polygon","coordinates":[[[-3.05,58.63],[-3.99,57.96],[-1.78,57.49],[-2.65,56.32],[-1.66,55.57],[0.56,52.97],[1.66,52.75],[1.38,51.16],[1.71,50.91],[3.59,51.45],[4.71,52.87],[6.09,53.41],[7.29,53.68],[8.54,53.56],[8.96,54.54],[8.13,55.6],[8.28,56.84],[7.13,58.04],[5.71,58.52],[5.56,58.98],[5.35,59.17],[5.2,60.59],[-0.78,60.59],[-1.06,60.4],[-1.31,59.88],[-3.05,58.63]]]},"properties":{"name":"North Sea","featurecla":"sea","min_label":4}},
{"type":"Feature","geometry":{"type":"Polygon","coordinates":[[[-8.24,55.15],[-6.13,55.22],[-5.51,54.58],[-5.08,54.81],[-4.72,55.42],[-5.94,56.61],[-5.82,57.44],[-5.02,58.56],[-6.23,58.5],[-7.03,57.78],[-7.17,57.66],[-7.31,57.53],[-7.34,57.38],[-7.35,57.12],[-8.24,55.15]]]},"properties":{"name":"Sea of the Hebrides","featurecla":"sea","min_label":5.7}},
{"type":"Feature","geometry":{"type":"Polygon","coordinates":[[[-6.4,51.68],[-5.17,51.75],[-3.98,52.54],[-4.11,53.22],[-2.93,53.73],[-3.96,54.78],[-5.08,54.81],[-5.51,54.58],[-6.35,53.99],[-6.03,52.93],[-6.62,52.2],[-6.4,51.68]]]},"properties":{"name":"Irish Sea","featurecla":"sea","min_label":4}},
{"type":"Feature","geometry":{"type":"Polygon","coordinates":[[[105.28,-6.73],[106.07,-5.91],[108.3,-6.26],[108.68,-6.79],[110.43,-6.95],[110.74,-6.47],[112.54,-6.93],[112.79,-7.55],[114.38,-7.77],[115.22,-6.93],[115.39,-6.96],[117.01,-7.09],[118.82,-6.51],[119.46,-5.52],[119.36,-5.32],[116.18,-3.98],[115.96,-3.6],[114.69,-4.17],[114.54,-3.49],[113.53,-3.18],[112.29,-3.32],[111.82,-3.06],[110.23,-2.91],[108.27,-2.87],[107.82,-2.53],[106.82,-2.58],[106.56,-3.06],[106.06,-3.22],[105.84,-3.61],[105.82,-5.68],[105.35,-5.55],[104.61,-5.9],[105.28,-6.73]]]},"properties":{"name":"Java Sea","featurecla":"sea","min_label":4}},
{"type":"Feature","geometry":{"type":"Polygon","coordinates":[[[95.24,5.57],[95.45,5.63],[98.3,7.78],[98.32,8.16],[98.31,8.22],[98.24,8.77],[98.56,9.84],[98.46,10.68],[98.74,11.59],[98.58,13.16],[97.81,14.94],[95.51,15.81],[94.23,16.24],[93.74,15.82],[92.93,14.39],[92.56,13.25],[92.28,11.66],[92.2,10.35],[92.43,9.18],[93.05,7.69],[94.08,6.26],[95.24,5.57]]]},"properties":{"name":"Andaman Sea","featurecla":"sea","min_label":4}},
{"type":"Feature","geometry":{"type":"Polygon","coordinates":[[[126.53,34.32],[126.29,35.15],[126.72,35.77],[126.55,36.48],[126.87,36.98],[126.57,37.8],[125.45,37.73],[125.07,38.56],[125.36,39.53],[124.27,39.92],[123.35,39.76],[121.16,38.73],[120.88,37.79],[121.93,36.96],[120.99,36.6],[119.22,35.01],[120.2,34.33],[120.85,32.66],[121.78,31.96],[126.19,33.27],[126.36,33.47],[126.53,34.32]]]},"properties":{"name":"Yellow Sea","featurecla":"sea","min_label":4}},
{"type":"Feature","geometry":{"type":"Polygon","coordinates":[[[130.7,31.02],[130.2,31.29],[130.19,32.09],[130.64,32.62],[129.66,33],[128.7,32.45],[127.08,32.93],[126.6,33.24],[126.19,33.27],[121.78,31.96],[121.85,31.7],[121.87,30.95],[121.86,30.91],[122,30.14],[122.01,30.02],[122,29.89],[121.6,28.37],[121.1,28.29],[120.28,27.1],[119.26,25.27],[121.09,25.06],[121.93,24.98],[123.09,23.94],[123.97,23.65],[125.32,24.11],[127.01,25.28],[127.66,26.09],[128.26,26.88],[129.29,28.19],[129.45,28.39],[130.68,29.79],[130.7,31.02]]]},"properties":{"name":"East China Sea","featurecla":"sea","min_label":4}},
{"type":"Feature","geometry":{"type":"MultiPolygon","coordinates":[[[[-177.5,71.21],[-180,70.99],[-180,68.98],[-175.35,67.68],[-174.45,67.1],[-171.8,66.93],[-169.73,66.06],[-168.08,65.66],[-164.08,66.61],[-163.76,67.23],[-166.38,68.42],[-164.3,68.94],[-161.88,70.33],[-159.31,70.88],[-158,70.85],[-156.47,71.41],[-177.5,71.21]]],[[[178.65,71],[175.62,69.89],[178.85,69.39],[180,68.98],[180,70.99],[178.65,71]]]]},"properties":{"name":"Chukchi Sea","featurecla":"sea","min_label":4}},
{"type":"Feature","geometry":{"type":"Polygon","coordinates":[[[-97.2,20.8],[-95.82,18.75],[-95.18,18.7],[-94.55,18.17],[-91.97,18.72],[-90.74,19.35],[-90.35,21.01],[-97.2,20.8]]]},"properties":{"name":"Bay of Campeche","featurecla":"bay","min_label":4}},
{"type":"Feature","geometry":{"type":"Polygon","coordinates":[[[130.77,-8.36],[131.86,-11.24],[133.18,-11.71],[135.22,-12.22],[135.79,-11.91],[136.85,-12.23],[141.74,-12.23],[142.17,-10.95],[141.19,-9.22],[139.98,-8.17],[138.86,-8.14],[139.09,-7.59],[138.86,-6.86],[138.06,-5.47],[137.09,-4.92],[135.98,-4.53],[135.2,-4.45],[133.72,-3.58],[133.41,-3.77],[133.54,-4.22],[133.16,-5.34],[132.9,-5.85],[131.71,-7.16],[131.14,-8],[130.77,-8.36]]]},"properties":{"name":"Arafura Sea","featurecla":"sea","min_label":4}},
{"type":"Feature","geometry":{"type":"Polygon","coordinates":[[[126.9,-13.75],[127.04,-13.81],[129.82,-13.61],[130.67,-12.41],[132.37,-12.24],[132.67,-11.65],[131.86,-11.24],[130.77,-8.36],[127.78,-8.17],[127.25,-8.39],[126.38,-8.96],[125.41,-9.28],[124.43,-10.15],[123.67,-10.32],[123.38,-10.57],[122.9,-10.91],[126.9,-13.75]]]},"properties":{"name":"Timor Sea","featurecla":"sea","min_label":4}},
{"type":"Feature","geometry":{"type":"Polygon","coordinates":[[[104.77,8.6],[105.03,10.07],[104.26,10.54],[103.53,10.6],[102.76,12.01],[101.72,12.69],[100.86,12.71],[100.96,13.43],[100.02,13.35],[99.99,12.17],[99.16,10.32],[99.16,9.73],[99.72,9.31],[100.28,8.27],[100.59,7.18],[101.5,6.87],[102.35,6.16],[104.77,8.6]]]},"properties":{"name":"Gulf of Thailand","featurecla":"gulf","min_label":4}},
{"type":"Feature","geometry":{"type":"Polygon","coordinates":[[[80.22,6.05],[79.82,7.32],[77.3,8.15],[76.55,8.9],[76.35,9.92],[75.72,11.36],[75.2,12.06],[74.35,14.56],[72.47,13.56],[71.66,13],[71.38,12.4],[71.83,9.4],[72.33,4.64],[72.54,0.97],[73.12,-0.68],[80.22,6.05]]]},"properties":{"name":"Laccadive Sea","featurecla":"sea","min_label":4}},
{"type":"Feature","geometry":{"type":"Polygon","coordinates":[[[-95.61,-72.18],[-95.59,-72.41],[-95.53,-73.24],[-90.3,-72.98],[-85.98,-73.21],[-82.18,-73.86],[-80.44,-72.94],[-77.13,-73.82],[-74.56,-73.71],[-74.57,-73.61],[-75.69,-72.87],[-75.38,-71.83],[-74.19,-71.38],[-71.19,-70.99],[-71.87,-68.94],[-95.61,-72.18]]]},"properties":{"name":"Bellingshausen Sea","featurecla":"sea","min_label":4}},
{"type":"Feature","geometry":{"type":"Polygon","coordinates":[[[-114.62,-73.9],[-113.51,-74.09],[-113.93,-74.98],[-106.62,-75.34],[-104.9,-75.12],[-98.56,-75.19],[-101.25,-74.49],[-102.68,-73.32],[-102.48,-72.74],[-102.28,-72.12],[-102.24,-72.01],[-114.62,-73.9]]]},"properties":{"name":"Amundsen Sea","featurecla":"sea","min_label":4}},
{"type":"Feature","geometry":{"type":"Polygon","coordinates":[[[65.36,81.07],[65.36,81.01],[68.91,76.76],[68.17,76.28],[61.36,75.31],[56.49,73.3],[56.4,73.21],[55.36,72.47],[56.04,71.35],[57.52,70.78],[57.62,70.73],[58.48,70.27],[58.48,70.26],[60.26,69.7],[60.28,69.65],[63.36,69.68],[68.5,68.35],[68.54,68.97],[67.06,69.69],[66.92,71.28],[68.27,71.68],[69.04,72.67],[72.76,72.71],[74.31,72.94],[74.68,72.89],[74.79,72.81],[76.03,71.91],[78.11,72.36],[78.18,72.42],[78.34,72.51],[78.64,72.85],[78.96,73.01],[80.4,73.36],[86.59,73.89],[87.67,75.13],[90.18,75.59],[96.88,75.93],[100.32,76.48],[100.96,76.96],[100,77.97],[102.32,79.43],[99.71,79.46],[97.56,78.83],[93.07,79.5],[97.45,80.16],[97.26,80.26],[93.87,80.01],[91.52,80.36],[95.16,81.27],[91.39,81.19],[89.92,81.15],[65.36,81.07]]]},"properties":{"name":"Kara Sea","featurecla":"sea","min_label":4}},
{"type":"Feature","geometry":{"type":"Polygon","coordinates":[[[96.19,81.18],[97.26,80.26],[97.45,80.16],[99.71,79.46],[102.32,79.43],[105.34,78.57],[105.82,77.5],[108.03,76.72],[111.12,76.72],[113.87,75.86],[113.61,75.29],[113.39,74.4],[112.78,74.1],[112.84,73.96],[118.94,73.48],[123.33,73.56],[127.74,73.48],[128.89,73.19],[129.41,72.32],[128.36,72.09],[129.76,71.12],[131.56,70.9],[132.66,71.92],[136.1,73.9],[136.24,73.99],[136.96,75.27],[138.84,76.2],[138.84,76.25],[96.2,81.27],[96.19,81.18]]]},"properties":{"name":"Laptev Sea","featurecla":"sea","min_label":4}},
{"type":"Feature","geometry":{"type":"Polygon","coordinates":[[[145.99,-43.42],[145.27,-42.54],[144.72,-40.67],[143.99,-40.1],[143.95,-39.58],[143.55,-38.82],[142.61,-38.45],[141.42,-38.36],[140.63,-38.03],[139.78,-37.25],[139.86,-36.66],[139.04,-35.69],[138.22,-35.62],[138.05,-35.76],[137.33,-35.59],[136.54,-35.88],[135.67,-34.93],[134.23,-32.55],[132.76,-31.96],[132.21,-32.01],[131.14,-31.5],[128.95,-31.7],[127.32,-32.26],[125.92,-32.3],[124.13,-33.13],[123.65,-33.84],[121.41,-33.83],[119.85,-33.97],[118.04,-35.01],[118.05,-35.06],[145.91,-43.39],[145.99,-43.42]]]},"properties":{"name":"Great Australian Bight","featurecla":"gulf","min_label":5}},
{"type":"Feature","geometry":{"type":"Polygon","coordinates":[[[51.26,15.21],[49.35,14.64],[48.67,14.05],[47.99,14.05],[46.79,13.47],[45.66,13.34],[45.04,12.82],[43.92,12.62],[43.91,12.63],[43.86,12.66],[43.74,12.71],[43.63,12.74],[43.49,12.7],[43.3,12.46],[43.31,12.45],[43.35,12.37],[43.41,12.19],[42.8,11.74],[44.39,10.43],[45.82,10.84],[46.57,10.75],[47.4,11.17],[48.9,11.25],[50.11,11.53],[50.79,11.98],[51.25,11.83],[51.26,15.21]]]},"properties":{"name":"Gulf of Aden","featurecla":"gulf","min_label":5}},
{"type":"Feature","geometry":{"type":"Polygon","coordinates":[[[61.41,25.1],[59.46,25.48],[57.8,25.65],[57.2,26.1],[56.43,26.28],[56.37,25.02],[57.22,23.92],[58.58,23.64],[59.83,22.46],[61.41,25.1]]]},"properties":{"name":"Gulf of Oman","featurecla":"gulf","min_label":5}},
{"type":"Feature","geometry":{"type":"Polygon","coordinates":[[[12.47,37.74],[15.63,38.27],[15.69,38.25],[16.2,38.76],[15.69,39.99],[13.73,41.24],[12.63,41.47],[10.71,42.94],[9.76,44.09],[9.38,43.02],[9.55,42.13],[9.19,41.39],[9.2,41.25],[9.81,40.5],[9.56,39.17],[8.9,38.93],[12.47,37.74]]]},"properties":{"name":"Tyrrhenian Sea","featurecla":"sea","min_label":5}},
{"type":"Feature","geometry":{"type":"Polygon","coordinates":[[[38.98,68.28],[40.97,67.71],[41.19,66.83],[38.4,66.06],[35.51,66.4],[34.41,65.4],[34.87,64.56],[36.36,64],[36.88,65.17],[39.76,64.58],[39.82,65.6],[42.21,66.52],[44.1,66.24],[43.78,67.25],[44.17,68.33],[43.33,68.67],[38.98,68.28]]]},"properties":{"name":"White Sea","featurecla":"sea","min_label":5}},
{"type":"Feature","geometry":{"type":"Polygon","coordinates":[[[36.72,45.37],[37.65,45.38],[37.97,46.62],[38.48,47.18],[35.83,46.62],[34.85,46.19],[35.56,45.31],[36.58,45.39],[36.72,45.37]]]},"properties":{"name":"Sea of Azov","featurecla":"sea","min_label":6}},
{"type":"Feature","geometry":{"type":"Polygon","coordinates":[[[-82.22,54.83],[-82.26,52.96],[-81.66,52.29],[-79.84,51.17],[-78.49,52.25],[-79.65,54.7],[-82.22,54.83]]]},"properties":{"name":"James Bay","featurecla":"bay","min_label":5}},
{"type":"Feature","geometry":{"type":"Polygon","coordinates":[[[136.85,-12.23],[136.59,-13],[135.93,-13.3],[135.88,-14.15],[135.53,-15],[136.78,-15.89],[137.7,-16.23],[138.24,-16.72],[139.01,-16.9],[139.25,-17.33],[140.04,-17.7],[140.83,-17.41],[141.22,-16.65],[141.63,-15.06],[141.47,-13.8],[141.74,-12.23],[136.85,-12.23]]]},"properties":{"name":"Gulf of Carpentaria","featurecla":"gulf","min_label":5}},
{"type":"Feature","geometry":{"type":"Polygon","coordinates":[[[-106.92,23.86],[-107.95,24.61],[-108.37,25.19],[-109.38,25.73],[-109.2,26.31],[-110.48,27.32],[-112.16,29.02],[-113.11,30.79],[-113.05,31.18],[-114.84,31.8],[-114.65,30.24],[-112.87,28.42],[-112.73,27.83],[-111.57,26.71],[-111.29,25.79],[-110.68,24.79],[-109.45,23.27],[-106.92,23.86]]]},"properties":{"name":"Gulf of California","featurecla":"gulf","min_label":5}},
{"type":"Feature","geometry":{"type":"Polygon","coordinates":[[[23.48,59.07],[25.51,59.64],[27.89,59.41],[29.15,60],[28.65,60.61],[25.66,60.33],[22.96,59.83],[22.94,59.81],[23.48,59.07]]]},"properties":{"name":"Gulf of Finland","featurecla":"gulf","min_label":5.7}},
{"type":"Feature","geometry":{"type":"Polygon","coordinates":[[[-88.29,17.31],[-88.31,16.63],[-88.89,15.89],[-88.13,15.7],[-86.91,15.76],[-88.29,17.31]]]},"properties":{"name":"Gulf of Honduras","featurecla":"gulf","min_label":5}},
{"type":"Feature","geometry":{"type":"Polygon","coordinates":[[[5.41,43.23],[4.05,43.59],[3.05,42.91],[3.25,41.96],[3.26,41.96],[5.41,43.23]]]},"properties":{"name":"Gulf of Lion","featurecla":"gulf","min_label":5.7}},
{"type":"Feature","geometry":{"type":"Polygon","coordinates":[[[22.94,59.81],[22.96,59.83],[22.58,60.36],[21.44,60.6],[21.61,61.59],[21.1,62.62],[23.25,63.9],[25.35,65.48],[23.69,65.83],[21.57,65.41],[21.47,64.38],[20.76,63.87],[17.9,62.83],[17.13,61.58],[17.25,60.7],[18.97,59.76],[20.79,59.66],[22.94,59.81]]]},"properties":{"name":"Gulf of Bothnia","featurecla":"gulf","min_label":5}},
{"type":"Feature","geometry":{"type":"Polygon","coordinates":[[[20,39.76],[19.4,40.28],[19.58,41.79],[16.9,43.39],[15.94,43.66],[15.12,44.26],[14.85,45.08],[13.03,45.64],[12.27,45.45],[12.4,44.22],[13.56,43.57],[14.01,42.69],[16.01,41.44],[17.95,40.66],[18.34,39.82],[19.65,39.74],[19.93,39.76],[20,39.76]]]},"properties":{"name":"Adriatic Sea","featurecla":"sea","min_label":5}},
{"type":"Feature","geometry":{"type":"Polygon","coordinates":[[[175.77,-36.74],[176.11,-37.65],[177.34,-37.99],[178.27,-37.57],[175.77,-36.74]]]},"properties":{"name":"Bay of Plenty","featurecla":"bay","min_label":5.7}},
{"type":"Feature","geometry":{"type":"Polygon","coordinates":[[[15.63,38.27],[15.1,37.46],[15.11,36.69],[22.45,36.46],[21.15,37.92],[20.78,39.01],[20,39.76],[19.93,39.76],[19.65,39.74],[18.34,39.82],[17.86,40.28],[16.93,40.46],[16.53,39.86],[17.17,39],[15.69,38.25],[15.63,38.27]]]},"properties":{"name":"Ionian Sea","featurecla":"sea","min_label":5.7}},
{"type":"Feature","geometry":{"type":"Polygon","coordinates":[[[-55.95,46.94],[-55.19,47.45],[-59.36,47.87],[-58.02,49.54],[-56.75,51.27],[-57.03,51.45],[-58.51,51.29],[-60.08,50.25],[-61.29,50.2],[-64.52,50.31],[-64.53,49.08],[-64.25,48.55],[-65.32,47.1],[-64.54,46.24],[-63.29,45.75],[-61.51,45.68],[-61.45,45.71],[-60.53,46.21],[-60.51,46.19],[-59.88,46.16],[-56.37,46.78],[-55.95,46.94]]]},"properties":{"name":"Gulf of Saint Lawrence","featurecla":"gulf","min_label":5.7}},
{"type":"Feature","geometry":{"type":"Polygon","coordinates":[[[128.57,2.62],[126.86,4.19],[126.71,4.04],[125.63,3.41],[125.16,1.65],[124.43,0.47],[123.5,0.3],[123.42,-0.74],[123.37,-1.01],[123.53,-1.29],[123.52,-1.44],[124.36,-1.77],[125.32,-1.84],[125.39,-1.84],[125.89,-1.91],[126.32,-1.82],[127.42,-1.54],[127.64,-1.34],[128.25,-0.83],[127.69,-0.24],[127.42,1.25],[128.04,2.17],[128.22,2.29],[128.66,2.38],[128.58,2.6],[128.57,2.62]]]},"properties":{"name":"Molucca Sea","featurecla":"sea","min_label":5.7}},
{"type":"Feature","geometry":{"type":"Polygon","coordinates":[[[141.97,-2.96],[144.48,-3.83],[145.77,-4.82],[145.85,-5.47],[147.45,-5.98],[147.79,-5.49],[148.42,-5.49],[149.25,-5.57],[150.95,-5.42],[151.55,-4.35],[152.38,-4.44],[152.69,-4.37],[152.22,-3.53],[151.03,-2.71],[150.45,-2.52],[149.97,-2.48],[147.12,-1.97],[146.61,-2.01],[143.25,-1.39],[142.58,-1.85],[141.97,-2.96]]]},"properties":{"name":"Bismarck Sea","featurecla":"sea","min_label":5.7}},
{"type":"Feature","geometry":{"type":"Polygon","coordinates":[[[152.69,-4.37],[152.38,-4.44],[151.23,-5.92],[150.43,-6.28],[149.65,-6.29],[148.4,-5.77],[148.42,-5.49],[147.79,-5.49],[147.45,-5.98],[147.12,-6.72],[147.19,-7.38],[148.13,-8.1],[148.58,-9.05],[150.62,-10.56],[151.28,-10.99],[153.28,-11.35],[153.76,-11.59],[159.98,-11.52],[160.52,-11.75],[162.12,-10.82],[161.39,-10.21],[161.49,-9.52],[161.38,-9.36],[161.2,-9.09],[160.69,-8.33],[159.75,-8.2],[158.79,-7.65],[158.68,-7.59],[157.12,-7.03],[156.53,-6.62],[155.84,-6.41],[154.86,-5.51],[154.71,-5.29],[154.57,-5.07],[154.19,-4.5],[153.13,-4.29],[152.69,-4.37]]]},"properties":{"name":"Solomon Sea","featurecla":"sea","min_label":5.7}},
{"type":"Feature","geometry":{"type":"Polygon","coordinates":[[[108.7,18.54],[108.69,19.34],[109.22,19.84],[110.1,20],[109.93,20.28],[109.94,20.3],[109.66,20.92],[109.93,21.48],[108.32,21.69],[107.41,21.28],[105.98,19.94],[105.62,18.97],[106.48,17.92],[108.7,18.54]]]},"properties":{"name":"Gulf of Tonkin","featurecla":"gulf","min_label":5.7}},
{"type":"Feature","geometry":{"type":"Polygon","coordinates":[[[-66.19,44.15],[-65.66,44.76],[-64.45,45.26],[-64.9,45.63],[-67.19,44.68],[-66.19,44.15]]]},"properties":{"name":"Bay of Fundy","featurecla":"bay","min_label":5.7}},
{"type":"Feature","geometry":{"type":"Polygon","coordinates":[[[-54.91,-34.93],[-56.12,-34.91],[-57.17,-34.45],[-57.27,-36.14],[-56.75,-36.35],[-54.91,-34.93]]]},"properties":{"name":"Río de la Plata","featurecla":"gulf","min_label":5.7}},
{"type":"Feature","geometry":{"type":"Polygon","coordinates":[[[128.2,-2.87],[129.54,-2.79],[130.38,-2.99],[130.76,-3.84],[133.11,-5.31],[133.16,-5.34],[133.54,-4.22],[133.41,-3.77],[132.35,-2.97],[132.31,-2.24],[131.93,-1.56],[131,-1.42],[129.2,-1.18],[128.1,-1.57],[127.64,-1.34],[127.42,-1.54],[126.32,-1.82],[125.89,-1.91],[125.91,-1.99],[126.02,-2.45],[125.99,-3.05],[127.75,-2.8],[128.2,-2.87]]]},"properties":{"name":"Ceram Sea","featurecla":"sea","min_label":5.7}},
{"type":"Feature","geometry":{"type":"Polygon","coordinates":[[[132.49,32.92],[132.37,33.51],[132.78,33.99],[134.08,34.36],[134.74,33.82],[135.17,33.91],[134.74,34.77],[133.14,34.3],[130.94,33.98],[130.86,33.91],[132,32.89],[132.49,32.92]]]},"properties":{"name":"Seto Inland Sea","featurecla":"sea","min_label":5.7}},
{"type":"Feature","geometry":{"type":"Polygon","coordinates":[[[-151.96,59.28],[-151.75,60.75],[-154.09,59.36],[-153.33,58.89],[-151.96,59.28]]]},"properties":{"name":"Tikahtnu Inlet","featurecla":"bay","min_label":5.7}},
{"type":"Feature","geometry":{"type":"Polygon","coordinates":[[[-161.44,55.97],[-159.28,56.69],[-157.61,57.6],[-157.52,58.42],[-159.08,58.47],[-160.36,59.05],[-162.13,58.64],[-161.44,55.97]]]},"properties":{"name":"Bristol Bay","featurecla":"bay","min_label":5.7}},
{"type":"Feature","geometry":{"type":"Polygon","coordinates":[[[-57.2,74.13],[-56.8,74.67],[-58.52,75.69],[-63.44,76.34],[-66.73,75.97],[-57.2,74.13]]]},"properties":{"name":"Melville Bay","featurecla":"bay","min_label":5.7}},
{"type":"Feature","geometry":{"type":"Polygon","coordinates":[[[-65.74,43.56],[-66.19,44.15],[-67.19,44.68],[-68.28,44.51],[-70.18,43.77],[-70.61,42.62],[-70.24,42.09],[-69.95,41.69],[-65.74,43.56]]]},"properties":{"name":"Gulf of Maine","featurecla":"gulf","min_label":5.7}},
{"type":"Feature","geometry":{"type":"Polygon","coordinates":[[[-75.94,37.16],[-75.66,37.95],[-76.26,37.89],[-76,36.91],[-75.94,37.16]]]},"properties":{"name":"Chesapeake Bay","featurecla":"bay","min_label":5.7}},
{"type":"Feature","geometry":{"type":"Polygon","coordinates":[[[-65.64,-45.01],[-66.94,-45.26],[-67.56,-46.35],[-66.78,-47.01],[-65.85,-47.17],[-65.64,-45.01]]]},"properties":{"name":"San Jorge Gulf","featurecla":"gulf","min_label":5.7}},
{"type":"Feature","geometry":{"type":"Polygon","coordinates":[[[3.25,41.96],[2.08,41.29],[1.03,41.06],[-0.33,39.52],[0.2,38.76],[1.58,38.66],[4.28,39.83],[4.13,40.06],[3.26,41.96],[3.25,41.96]]]},"properties":{"name":"Balearic Sea","featurecla":"sea","min_label":5.7}},
{"type":"Feature","geometry":{"type":"Polygon","coordinates":[[[26.22,40.08],[25.86,40.84],[24.38,40.91],[23.66,40.22],[22.63,40.5],[23.25,38.66],[23.97,38.28],[24.06,37.71],[24.74,36.93],[26.45,36.59],[27.47,36.74],[26.68,38.2],[27.01,38.89],[26.11,39.47],[26.18,39.99],[26.22,40.08]]]},"properties":{"name":"Aegean Sea","featurecla":"sea","min_label":5.7}},
{"type":"Feature","geometry":{"type":"Polygon","coordinates":[[[79.82,7.32],[79.94,8.91],[79.41,9.2],[78.19,8.89],[78.06,8.38],[77.3,8.15],[79.82,7.32]]]},"properties":{"name":"Gulf of Mannar","featurecla":"gulf","min_label":5.7}},
{"type":"Feature","geometry":{"type":"Polygon","coordinates":[[[156.81,57.77],[158.21,58.03],[161.75,60.15],[163.35,60.8],[164.01,61.34],[164.26,62.7],[163.33,62.55],[163.01,61.79],[160.77,60.75],[159.08,61.92],[157.47,61.8],[154.29,59.83],[155.16,59.19],[156.81,57.77]]]},"properties":{"name":"Shelikhov Gulf","featurecla":"gulf","min_label":5.7}},
{"type":"Feature","geometry":{"type":"Polygon","coordinates":[[[121.16,38.73],[121.52,39.64],[122.28,40.54],[121.17,40.9],[120.48,40.23],[119.59,39.9],[118.91,39.17],[117.78,39.13],[118.01,38.18],[118.94,38.04],[118.95,37.33],[119.45,37.12],[120.88,37.79],[121.16,38.73]]]},"properties":{"name":"Bohai Sea","featurecla":"sea","min_label":5.7}},
{"type":"Feature","geometry":{"type":"Polygon","coordinates":[[[69.01,22.41],[70.18,22.57],[68.8,23.07],[69.01,22.41]]]},"properties":{"name":"Gulf of Kutch","featurecla":"gulf","min_label":5.7}},
{"type":"Feature","geometry":{"type":"Polygon","coordinates":[[[-78.13,7.5],[-78.11,8.38],[-79.09,9],[-80.46,8.08],[-80.01,7.5],[-78.13,7.5]]]},"properties":{"name":"Gulf of Panama","featurecla":"gulf","min_label":5.7}},
{"type":"Feature","geometry":{"type":"Polygon","coordinates":[[[-127.98,70.57],[-125.89,69.42],[-125.36,69.63],[-124.13,69.67],[-123.09,69.77],[-121.53,69.78],[-118.78,69.24],[-117.19,70.06],[-117.59,70.63],[-118.32,71.01],[-118.2,71.44],[-118.22,71.47],[-118.67,71.66],[-118.97,71.75],[-120.47,71.6],[-123.21,71.12],[-125.8,71.96],[-127.98,70.57]]]},"properties":{"name":"Amundsen Gulf","featurecla":"gulf","min_label":5}},
{"type":"Feature","geometry":{"type":"Polygon","coordinates":[[[-67.84,60.41],[-68.2,60.49],[-69.41,60.84],[-69.81,59.95],[-69.4,59.34],[-67.57,58.21],[-65.61,59.11],[-64.88,60.29],[-67.84,60.41]]]},"properties":{"name":"Ungava Bay","featurecla":"bay","min_label":5.7}},
{"type":"Feature","geometry":{"type":"MultiPolygon","coordinates":[[[[180,50.99],[180,62.65],[179.53,62.65],[177.35,62.59],[172.86,61.47],[172.39,61.06],[169.98,60.07],[169.23,60.6],[166.96,60.31],[166.26,59.86],[163.22,57.71],[162.8,56.81],[163.3,56.2],[164.77,55.19],[167.05,54.13],[170.33,52.86],[173.19,51.91],[175.78,51.44],[178.21,51.06],[180,50.99]]],[[[-162.96,54.3],[-163.09,54.67],[-163.38,54.82],[-163.34,54.84],[-161.44,55.97],[-162.13,58.64],[-161.72,58.79],[-162.24,60.18],[-163.91,59.81],[-165.35,60.54],[-164.81,60.89],[-164.81,60.93],[-166.08,61.8],[-164.44,63.2],[-164.96,64.45],[-166.14,64.58],[-168.08,65.66],[-169.73,66.06],[-173.7,64.36],[-180,61.65],[-180,51.08],[-176.84,51.21],[-173.8,51.51],[-170.63,52.03],[-168.07,52.71],[-165.05,53.62],[-162.96,54.3]]]]},"properties":{"name":"Bering Sea","featurecla":"sea","min_label":4}},
{"type":"Feature","geometry":{"type":"Polygon","coordinates":[[[138.84,76.25],[138.84,76.2],[141.49,76.14],[145.26,75.59],[144.02,75.04],[139.31,74.68],[140.19,74.23],[140.43,73.92],[139.72,73.43],[141.93,73.92],[143.45,73.23],[143.63,72.68],[146.23,72.35],[146.24,72.29],[146.82,72.28],[147.15,72.3],[149.5,72.16],[152.51,70.83],[155.9,71.1],[159.35,70.79],[159.83,69.78],[166.88,69.5],[168.15,69.58],[168.29,69.68],[169.43,69.84],[170.17,69.64],[170.49,70.11],[173.28,69.82],[175.62,69.89],[178.65,71],[179.53,71.44],[156.04,77.47],[138.84,76.25]]]},"properties":{"name":"East Siberian Sea","featurecla":"sea","min_label":5}},
{"type":"Feature","geometry":{"type":"Polygon","coordinates":[[[-69.86,83.11],[-61.22,82.33],[-57.35,82.19],[-44.24,82.37],[-46.48,82.95],[-38.75,83.37],[-40.36,83.47],[-69.86,83.11]]]},"properties":{"name":"Lincoln Sea","featurecla":"sea","min_label":5}},
{"type":"Feature","geometry":{"type":"Polygon","coordinates":[[[-125.89,69.42],[-125.39,69.35],[-125.36,69.63],[-125.89,69.42]]]},"properties":{"name":"Franklin Bay","featurecla":"bay","min_label":7.6}},
{"type":"Feature","geometry":{"type":"Polygon","coordinates":[[[-60.79,9.36],[-61.3,8.41],[-60.33,8.63],[-60.79,9.36]]]},"properties":{"name":"Boca Grande","featurecla":"bay","min_label":6}},
{"type":"Feature","geometry":{"type":"Polygon","coordinates":[[[-48.39,-0.31],[-48.93,-1.48],[-49.79,-1.78],[-49.74,-1.92],[-48.99,-1.83],[-48.03,-0.71],[-48.39,-0.31]]]},"properties":{"name":"Marajó Bay","featurecla":"bay","min_label":7.6}},
{"type":"Feature","geometry":{"type":"Polygon","coordinates":[[[-63.4,-41.16],[-65.13,-40.88],[-65.06,-41.97],[-64.42,-42.43],[-63.79,-42.12],[-63.4,-41.16]]]},"properties":{"name":"San Matías Gulf","featurecla":"gulf","min_label":6}},
{"type":"Feature","geometry":{"type":"Polygon","coordinates":[[[-73.54,-41.9],[-73.44,-42.94],[-73.87,-43.37],[-73.9,-44.13],[-73.84,-45.33],[-73.72,-45.48],[-72.66,-44.44],[-73.27,-44.17],[-72.76,-43.04],[-73.01,-41.54],[-73.55,-41.79],[-73.54,-41.9]]]},"properties":{"name":"Gulf of Corcovado","featurecla":"gulf","min_label":6}},
{"type":"Feature","geometry":{"type":"Polygon","coordinates":[[[-124.94,-74.2],[-127.27,-73.3],[-134.94,-74.69],[-129.79,-74.89],[-124.88,-74.72],[-124.94,-74.2]]]},"properties":{"name":"Wrigley Gulf","featurecla":"gulf","min_label":6}},
{"type":"Feature","geometry":{"type":"Polygon","coordinates":[[[-158,-77.09],[-154.81,-77.13],[-149.72,-77.8],[-145.97,-77.07],[-148.46,-76.12],[-158,-77.09]]]},"properties":{"name":"Sulzberger Bay","featurecla":"bay","min_label":6}},
{"type":"Feature","geometry":{"type":"Polygon","coordinates":[[[-44.55,-1.95],[-43.93,-2.58],[-43.39,-2.38],[-44.55,-1.95]]]},"properties":{"name":"Baía de São Marcos","featurecla":"bay","min_label":7.6}},
{"type":"Feature","geometry":{"type":"Polygon","coordinates":[[[-65.5,62.84],[-67.68,63.09],[-65.99,62.21],[-65.5,62.84]]]},"properties":{"name":"Frobisher Bay","featurecla":"bay","min_label":6}},
{"type":"Feature","geometry":{"type":"Polygon","coordinates":[[[-54.27,70.31],[-52.05,69.81],[-53.32,69.3],[-53.04,68.61],[-51.25,68.74],[-50.5,69.94],[-54.26,70.53],[-54.27,70.31]]]},"properties":{"name":"Disko Bay","featurecla":"bay","min_label":6}},
{"type":"Feature","geometry":{"type":"Polygon","coordinates":[[[-57.57,54.44],[-58.15,54.35],[-58.63,54.05],[-59.5,53.83],[-59.83,53.5],[-58.33,54.05],[-58.19,54.23],[-57.41,54.15],[-57.57,54.44]]]},"properties":{"name":"Hamilton Inlet","featurecla":"bay","min_label":7.6}},
{"type":"Feature","geometry":{"type":"Polygon","coordinates":[[[10.58,57.74],[10.28,56.62],[10.9,56.37],[11.46,55.92],[12.59,56.06],[12.64,56.08],[12.42,56.91],[11.26,58.37],[10.58,57.74]]]},"properties":{"name":"Kattegat","featurecla":"sea","min_label":6}},
{"type":"Feature","geometry":{"type":"Polygon","coordinates":[[[72.67,19.84],[72.81,21.12],[72.02,21.16],[70.86,20.72],[72.67,19.84]]]},"properties":{"name":"Gulf of Khambhat","featurecla":"gulf","min_label":6}},
{"type":"Feature","geometry":{"type":"Polygon","coordinates":[[[161.51,54.52],[160.77,54.54],[159.84,53.78],[160.02,53.13],[161.51,54.52]]]},"properties":{"name":"Kronotsky Gulf","featurecla":"gulf","min_label":6}},
{"type":"Feature","geometry":{"type":"Polygon","coordinates":[[[138.12,56.48],[135.26,54.94],[137.65,54.28],[138.21,55.03],[138.12,56.48]]]},"properties":{"name":"Uda Gulf","featurecla":"bay","min_label":6}},
{"type":"Feature","geometry":{"type":"Polygon","coordinates":[[[143.25,42.01],[141.85,42.58],[140.99,42.34],[141.15,41.81],[141.46,41.4],[141.69,40.42],[143.25,42.01]]]},"properties":{"name":"Uchiura Bay","featurecla":"bay","min_label":6}},
{"type":"Feature","geometry":{"type":"Polygon","coordinates":[[[113.4,-25.65],[114.21,-25.85],[113.41,-24.25],[113.4,-25.65]]]},"properties":{"name":"Shark Bay","featurecla":"bay","min_label":6}},
{"type":"Feature","geometry":{"type":"Polygon","coordinates":[[[10.75,33.72],[10.93,33.89],[11.11,35.23],[10.05,34.06],[10.71,33.69],[10.75,33.72]]]},"properties":{"name":"Gulf of Gabès","featurecla":"gulf","min_label":6}},
{"type":"Feature","geometry":{"type":"Polygon","coordinates":[[[-139.17,69.51],[-136.12,68.88],[-134.46,69.65],[-139.17,69.51]]]},"properties":{"name":"Mackenzie Bay","featurecla":"bay","min_label":6}},
{"type":"Feature","geometry":{"type":"Polygon","coordinates":[[[-91.57,70.16],[-92.75,69.71],[-90.82,69.29],[-89.06,69.27],[-88.04,68.81],[-88.2,67.77],[-86.54,67.52],[-85.39,69.23],[-85.49,69.85],[-85.72,70.05],[-87.9,70.25],[-89.42,71.04],[-91.57,70.16]]]},"properties":{"name":"Gulf of Boothia","featurecla":"gulf","min_label":5.7}},
{"type":"Feature","geometry":{"type":"Polygon","coordinates":[[[-72.7,78.38],[-65.97,79.13],[-64.79,80],[-67.19,80.27],[-67.75,80.86],[-71.39,79.76],[-75.26,79.42],[-74.54,78.65],[-72.7,78.38]]]},"properties":{"name":"Kane Basin","featurecla":"bay","min_label":5.7}},
{"type":"Feature","geometry":{"type":"Polygon","coordinates":[[[-85.7,65.88],[-82.05,64.64],[-81.72,64.02],[-80.29,63.77],[-78.17,64.61],[-77.33,65.45],[-75.83,65.23],[-73.56,65.54],[-74.43,66.14],[-72.22,67.25],[-73.33,68.27],[-77.13,69.65],[-77.84,70.25],[-79.59,69.89],[-79.59,69.81],[-80.73,69.74],[-80.84,69.77],[-82.22,69.84],[-82.39,69.65],[-81.28,68.66],[-82.55,68.45],[-81.27,67.46],[-82.64,66.59],[-86.04,66.02],[-85.7,65.88]]]},"properties":{"name":"Foxe Basin","featurecla":"bay","min_label":5.7}},
{"type":"Feature","geometry":{"type":"Polygon","coordinates":[[[-93.02,15.31],[-93.92,16.05],[-94.9,16.42],[-96.21,15.69],[-93.02,15.31]]]},"properties":{"name":"Gulf of Tehuantepec","featurecla":"gulf","min_label":6}},
{"type":"Feature","geometry":{"type":"Polygon","coordinates":[[[-80.8,-3.74],[-80.03,-3.23],[-80.94,-2.25],[-80.8,-3.74]]]},"properties":{"name":"Gulf of Guayaquil","featurecla":"gulf","min_label":6}},
{"type":"Feature","geometry":{"type":"Polygon","coordinates":[[[58.48,20.42],[57.86,20.24],[57.81,19.02],[58.65,20.21],[58.64,20.34],[58.48,20.42]]]},"properties":{"name":"Gulf of Masirah","featurecla":"gulf","min_label":6}},
{"type":"Feature","geometry":{"type":"Polygon","coordinates":[[[132.66,71.92],[134.1,71.38],[135.88,71.63],[137.32,71.36],[139.69,71.7],[139.6,72.5],[140.66,72.85],[139.84,73.36],[139.72,73.43],[140.43,73.92],[140.19,74.23],[139.31,74.68],[136.96,75.27],[136.24,73.99],[136.1,73.9],[132.66,71.92]]]},"properties":{"name":"Yana Bay","featurecla":"gulf","min_label":5.7}},
{"type":"Feature","geometry":{"type":"Polygon","coordinates":[[[128.31,40.04],[127.57,39.78],[127.39,39.21],[128.31,38.69],[128.31,40.04]]]},"properties":{"name":"East Korea Bay","featurecla":"bay","min_label":6}},
{"type":"Feature","geometry":{"type":"Polygon","coordinates":[[[115.02,-33.53],[115.68,-33.19],[115.7,-31.69],[115.02,-30.31],[115.02,-33.53]]]},"properties":{"name":"Geographe Bay","featurecla":"bay","min_label":6}},
{"type":"Feature","geometry":{"type":"Polygon","coordinates":[[[146.63,-8.94],[146.03,-8.08],[144.51,-7.57],[143.61,-8.2],[143.37,-8.94],[146.63,-8.94]]]},"properties":{"name":"Gulf of Papua","featurecla":"gulf","min_label":6}},
{"type":"Feature","geometry":{"type":"Polygon","coordinates":[[[118.94,73.48],[119.75,72.98],[123.16,72.95],[123.33,73.56],[118.94,73.48]]]},"properties":{"name":"Olenyok Gulf","featurecla":"gulf","min_label":6}},
{"type":"Feature","geometry":{"type":"Polygon","coordinates":[[[21.74,57.57],[22.55,57.72],[23.65,56.97],[24.28,57.17],[24.53,58.35],[23.48,59.03],[22.92,58.98],[22.52,58.7],[22.46,58.6],[22.02,57.93],[21.74,57.57]]]},"properties":{"name":"Gulf of Riga","featurecla":"gulf","min_label":6}},
{"type":"Feature","geometry":{"type":"Polygon","coordinates":[[[15.36,32.15],[16.12,31.26],[17.35,31.08],[18.94,30.29],[19.71,30.49],[20.15,31.08],[19.99,32.03],[15.36,32.15]]]},"properties":{"name":"Gulf of Sidra","featurecla":"gulf","min_label":6}},
{"type":"Feature","geometry":{"type":"Polygon","coordinates":[[[24.06,37.71],[23.19,37.96],[23.09,36.47],[23.58,35.54],[26.32,35.31],[27.11,35.45],[27.74,35.92],[28.14,36.42],[28.08,36.64],[27.47,36.74],[26.45,36.59],[24.74,36.93],[24.06,37.71]]]},"properties":{"name":"Sea of Crete","featurecla":"sea","min_label":6}},
{"type":"Feature","geometry":{"type":"Polygon","coordinates":[[[9.76,44.09],[8.77,44.42],[7.82,43.83],[9.38,43.02],[9.76,44.09]]]},"properties":{"name":"Ligurian Sea","featurecla":"sea","min_label":6}},
{"type":"Feature","geometry":{"type":"Polygon","coordinates":[[[-5.58,35.84],[-5.41,35.92],[-5.29,35.9],[-4.84,35.28],[-2.02,35.08],[-1.25,35.45],[-2.09,36.8],[-4.37,36.72],[-5.37,36.13],[-5.45,36.12],[-5.62,36.03],[-5.58,35.84]]]},"properties":{"name":"Alboran Sea","featurecla":"sea","min_label":7.6}},
{"type":"Feature","geometry":{"type":"Polygon","coordinates":[[[5.58,4.66],[4.86,6.03],[4.13,6.41],[2.77,6.38],[1.11,6.05],[0.95,5.81],[5.58,4.66]]]},"properties":{"name":"Bight of Benin","featurecla":"bay","min_label":6}},
{"type":"Feature","geometry":{"type":"Polygon","coordinates":[[[9.9,2.94],[9.43,3.92],[8.76,4.58],[7.15,4.51],[6.63,4.34],[8.44,3.39],[8.69,3.22],[9.9,2.94]]]},"properties":{"name":"Bight of Biafra","featurecla":"bay","min_label":6}},
{"type":"Feature","geometry":{"type":"Polygon","coordinates":[[[-61.41,-38.98],[-62.07,-38.92],[-62.08,-39.47],[-61.41,-38.98]]]},"properties":{"name":"Bahía Blanca","featurecla":"bay","min_label":6}},
{"type":"Feature","geometry":{"type":"Polygon","coordinates":[[[-74.65,-47.71],[-74.15,-46.97],[-75.5,-46.94],[-75.25,-47.76],[-74.93,-47.72],[-74.65,-47.71]]]},"properties":{"name":"Gulf of Penas","featurecla":"gulf","min_label":6}},
{"type":"Feature","geometry":{"type":"Polygon","coordinates":[[[-67.91,-49.98],[-68.94,-50.38],[-69.23,-50.95],[-68.4,-52.3],[-67.91,-49.98]]]},"properties":{"name":"Bahía Grande","featurecla":"bay","min_label":6}},
{"type":"Feature","geometry":{"type":"Polygon","coordinates":[[[-70.4,-68.8],[-69.43,-69.57],[-68.68,-69.47],[-67.37,-69.41],[-66.71,-67.53],[-67.5,-67.14],[-67.71,-67.16],[-69.14,-67.52],[-70.4,-68.8]]]},"properties":{"name":"Marguerite Bay","featurecla":"bay","min_label":5.7}},
{"type":"Feature","geometry":{"type":"Polygon","coordinates":[[[69.58,-67.79],[69.63,-69.23],[67.27,-70.27],[69.25,-70.43],[68.04,-71.39],[66.89,-72.95],[69.55,-72.37],[71.28,-71.62],[71.9,-70.71],[73.94,-69.74],[77.82,-69.07],[79.14,-68.15],[69.58,-67.79]]]},"properties":{"name":"Prydz Bay","featurecla":"bay","min_label":5.7}},
{"type":"Feature","geometry":{"type":"Polygon","coordinates":[[[104.36,-66.06],[109.46,-66.91],[111,-66.06],[104.36,-66.06]]]},"properties":{"name":"Vincennes Bay","featurecla":"bay","min_label":6}},
{"type":"Feature","geometry":{"type":"Polygon","coordinates":[[[126.42,-66.46],[127.54,-67.05],[129.24,-67.04],[130.58,-66.21],[126.42,-66.46]]]},"properties":{"name":"Porpoise Bay","featurecla":"bay","min_label":6}},
{"type":"Feature","geometry":{"type":"Polygon","coordinates":[[[83.74,-67.35],[87.98,-66.79],[89.7,-66.82],[92.07,-66.51],[93.96,-66.69],[98.26,-66.47],[99.37,-66.65],[101.47,-65.95],[104.36,-66.06],[111,-66.06],[112.96,-65.81],[108.88,-64.05],[99.5,-63.15],[92.64,-63.32],[85.42,-65.07],[83.74,-67.35]]]},"properties":{"name":"Davis Sea","featurecla":"sea","min_label":5.7}},
{"type":"Feature","geometry":{"type":"Polygon","coordinates":[[[34.2,-68.73],[35.22,-69.64],[38.86,-70.01],[40.65,-68.73],[34.2,-68.73]]]},"properties":{"name":"Lützow-Holm Bay","featurecla":"bay","min_label":6}},
{"type":"Feature","geometry":{"type":"Polygon","coordinates":[[[50.19,-15.96],[49.89,-15.46],[49.65,-15.57],[49.83,-16.25],[50.19,-15.96]]]},"properties":{"name":"Antongil Bay","featurecla":"bay","min_label":7.6}},
{"type":"Feature","geometry":{"type":"Polygon","coordinates":[[[121.86,30.91],[121,30.56],[122,29.89],[122.01,30.02],[122,30.14],[121.86,30.91]]]},"properties":{"name":"Hangzhouwan","featurecla":"bay","min_label":6}},
{"type":"Feature","geometry":{"type":"Polygon","coordinates":[[[166.26,59.86],[163.78,60.04],[161.96,58.08],[163.22,57.71],[166.26,59.86]]]},"properties":{"name":"Karaginsky Gulf","featurecla":"gulf","min_label":6}},
{"type":"Feature","geometry":{"type":"Polygon","coordinates":[[[162.97,56.03],[162.08,56.09],[161.73,55.36],[162.09,54.82],[162.97,56.03]]]},"properties":{"name":"Kamchatka Gulf","featurecla":"gulf","min_label":6}},
{"type":"Feature","geometry":{"type":"Polygon","coordinates":[[[138.22,-35.62],[138.49,-34.76],[138.09,-34.17],[137.24,-33.63],[136.43,-34.03],[135.67,-34.93],[136.54,-35.88],[137.33,-35.59],[138.05,-35.76],[138.22,-35.62]]]},"properties":{"name":"Gulf St Vincent","featurecla":"gulf","min_label":6}},
{"type":"Feature","geometry":{"type":"Polygon","coordinates":[[[-77.26,8.49],[-76.85,8.09],[-76.77,8.31],[-76.92,8.57],[-77.26,8.49]]]},"properties":{"name":"Gulf of Urabá","featurecla":"gulf","min_label":7.6}},
{"type":"Feature","geometry":{"type":"Polygon","coordinates":[[[32.99,-25.47],[32.79,-25.62],[32.73,-25.8],[32.99,-25.47]]]},"properties":{"name":"Maputo Bay","featurecla":"bay","min_label":6}},
{"type":"Feature","geometry":{"type":"Polygon","coordinates":[[[18.01,-32.75],[18.26,-32.65],[18.33,-32.3],[18.01,-32.75]]]},"properties":{"name":"St. Helena Bay","featurecla":"bay","min_label":6}},
{"type":"Feature","geometry":{"type":"Polygon","coordinates":[[[127.04,-13.81],[128.2,-14.75],[129.46,-14.93],[129.38,-14.39],[129.82,-13.61],[127.04,-13.81]]]},"properties":{"name":"Joseph Bonaparte Gulf","featurecla":"gulf","min_label":6}},
{"type":"Feature","geometry":{"type":"Polygon","coordinates":[[[97.81,14.94],[97.62,16.54],[97.18,17.06],[95.51,15.81],[97.81,14.94]]]},"properties":{"name":"Gulf of Martaban","featurecla":"gulf","min_label":6}},
{"type":"Feature","geometry":{"type":"Polygon","coordinates":[[[139.76,54.27],[141.37,53.29],[141.84,53.38],[142.33,54.28],[139.76,54.27]]]},"properties":{"name":"Sakhalin Gulf","featurecla":"gulf","min_label":6}},
{"type":"Feature","geometry":{"type":"Polygon","coordinates":[[[168.15,69.58],[169.61,68.79],[171,69.05],[170.17,69.64],[169.43,69.84],[168.29,69.68],[168.15,69.58]]]},"properties":{"name":"Chaunskaya Bay","featurecla":"bay","min_label":7}},
{"type":"Feature","geometry":{"type":"Polygon","coordinates":[[[113.61,75.29],[110.26,74.02],[112.84,73.96],[112.78,74.1],[113.39,74.4],[113.61,75.29]]]},"properties":{"name":"Khatanga Gulf","featurecla":"gulf","min_label":7}},
{"type":"Feature","geometry":{"type":"Polygon","coordinates":[[[52.94,41.04],[53.87,40.65],[54.71,40.89],[53.85,42.09],[52.97,41.98],[52.85,41.2],[52.94,41.04]]]},"properties":{"name":"Garabogazköl","featurecla":"bay","min_label":7}},
{"type":"Feature","geometry":{"type":"Polygon","coordinates":[[[34.21,27.77],[33.25,28.57],[33.83,27.22],[34.21,27.77]]]},"properties":{"name":"Gulf of Suez","featurecla":"gulf","min_label":7}},
{"type":"Feature","geometry":{"type":"Polygon","coordinates":[[[72.76,72.71],[71.91,71.55],[72.73,70.82],[72.53,69.08],[73.55,68.57],[73.15,67.87],[71.55,66.76],[73.79,67],[74.77,67.77],[74.58,68.75],[73.56,69.71],[74.31,70.65],[73.09,71.44],[74.99,72.15],[74.79,72.81],[74.68,72.89],[74.31,72.94],[72.76,72.71]]]},"properties":{"name":"Gulf of Ob","featurecla":"gulf","min_label":7}},
{"type":"Feature","geometry":{"type":"Polygon","coordinates":[[[78.11,72.36],[79.42,72.38],[80.4,73.36],[78.96,73.01],[78.64,72.85],[78.34,72.51],[78.18,72.42],[78.11,72.36]]]},"properties":{"name":"Yenisei Gulf","featurecla":"gulf","min_label":7}},
{"type":"Feature","geometry":{"type":"Polygon","coordinates":[[[28.96,41.01],[27.5,40.97],[26.68,40.43],[26.74,40.4],[28.29,40.4],[29.05,41.01],[28.96,41.01]]]},"properties":{"name":"Sea of Marmara","featurecla":"sea","min_label":7}},
{"type":"Feature","geometry":{"type":"Polygon","coordinates":[[[34.62,28.09],[34.78,28.51],[34.74,29.27],[34.39,28],[34.62,28.09]]]},"properties":{"name":"Gulf of Aqaba","featurecla":"gulf","min_label":7.6}},
{"type":"Feature","geometry":{"type":"Polygon","coordinates":[[[-70.61,42.62],[-70.74,42.23],[-70.24,42.09],[-70.61,42.62]]]},"properties":{"name":"Massachusetts Bay","featurecla":"bay","min_label":7.6}},
{"type":"Feature","geometry":{"type":"Polygon","coordinates":[[[-74.94,38.95],[-74.9,39.15],[-75.35,39.34],[-75.39,39.09],[-75.09,38.78],[-74.94,38.95]]]},"properties":{"name":"Delaware Bay","featurecla":"bay","min_label":7.6}},
{"type":"Feature","geometry":{"type":"Polygon","coordinates":[[[-124.13,69.67],[-123.61,69.38],[-123.09,69.77],[-124.13,69.67]]]},"properties":{"name":"Darnley Bay","featurecla":"bay","min_label":7.6}},
{"type":"Feature","geometry":{"type":"Polygon","coordinates":[[[-114.12,73.22],[-114.11,72.86],[-113.17,72.98],[-114.12,73.22]]]},"properties":{"name":"Richard Collinson Inlet","featurecla":"bay","min_label":7.7}},
{"type":"Feature","geometry":{"type":"Polygon","coordinates":[[[-114.37,74.68],[-112.84,74.98],[-114.45,75.09],[-115.04,74.98],[-114.37,74.68]]]},"properties":{"name":"Liddon Gulf","featurecla":"gulf","min_label":7.6}},
{"type":"Feature","geometry":{"type":"Polygon","coordinates":[[[-111.29,72.72],[-110.21,72.66],[-110.68,72.96],[-111.29,72.72]]]},"properties":{"name":"Wynniatt Bay","featurecla":"bay","min_label":7.7}},
{"type":"Feature","geometry":{"type":"Polygon","coordinates":[[[-108.74,72.54],[-108.14,71.7],[-107.31,71.89],[-107.7,72.15],[-108.23,73.09],[-108.74,72.54]]]},"properties":{"name":"Hadley Bay","featurecla":"bay","min_label":7.6}},
{"type":"Feature","geometry":{"type":"Polygon","coordinates":[[[-108.05,67.67],[-107.97,67.33],[-108,67.26],[-108.46,67.06],[-107.33,66.93],[-107.95,67.7],[-108.05,67.67]]]},"properties":{"name":"Bathurst Inlet","featurecla":"bay","min_label":7.7}},
{"type":"Feature","geometry":{"type":"Polygon","coordinates":[[[-98.41,67.99],[-97.93,67.71],[-97.21,67.86],[-98.39,68.04],[-98.41,67.99]]]},"properties":{"name":"Sherman Basin","featurecla":"bay","min_label":7.7}},
{"type":"Feature","geometry":{"type":"Polygon","coordinates":[[[-87.68,65.34],[-87.97,65.35],[-89.75,65.94],[-88.97,65.35],[-87.68,65.27],[-87.68,65.34]]]},"properties":{"name":"Wager Bay","featurecla":"bay","min_label":7.7}},
{"type":"Feature","geometry":{"type":"Polygon","coordinates":[[[-61.23,81.71],[-62.26,82.03],[-65.01,81.4],[-64.1,81.04],[-61.23,81.71]]]},"properties":{"name":"Hall Basin","featurecla":"gulf","min_label":7.6}},
{"type":"Feature","geometry":{"type":"Polygon","coordinates":[[[-70.53,-53.63],[-70.15,-53.76],[-69.64,-53.33],[-70.42,-53.3],[-70.53,-53.63]]]},"properties":{"name":"Inútil Bay","featurecla":"bay","min_label":7.7}},
{"type":"Feature","geometry":{"type":"Polygon","coordinates":[[[146.82,72.28],[145.76,71.94],[145.13,71.93],[145.19,71.7],[145.8,71.75],[146.37,71.92],[147.15,72.3],[146.82,72.28]]]},"properties":{"name":"Guba Gusinaya","featurecla":"bay","min_label":7.7}},
{"type":"Feature","geometry":{"type":"Polygon","coordinates":[[[116.96,-9.08],[117.24,-8.38],[117.01,-7.09],[115.39,-6.96],[115.22,-6.93],[114.38,-7.77],[114.42,-8.11],[114.48,-8.12],[115.15,-8.07],[115.14,-8.85],[116.96,-9.08]]]},"properties":{"name":"Bali Sea","featurecla":"sea","min_label":7.6}},
{"type":"Feature","geometry":{"type":"Polygon","coordinates":[[[126.17,6.34],[125.82,7.33],[125.4,6.8],[125.67,5.99],[126.17,6.34]]]},"properties":{"name":"Davao Gulf","featurecla":"gulf","min_label":7.6}},
{"type":"Feature","geometry":{"type":"Polygon","coordinates":[[[127.64,-1.34],[128.1,-1.57],[129.2,-1.18],[131,-1.42],[131.03,-1.33],[131,-1.32],[130.85,-0.91],[130.83,-0.86],[130.4,-0.92],[129.98,-0.19],[128.89,0.22],[127.98,0.47],[128.25,-0.83],[127.64,-1.34]]]},"properties":{"name":"Halmahera Sea","featurecla":"sea","min_label":7.6}},
{"type":"Feature","geometry":{"type":"Polygon","coordinates":[[[123.5,0.3],[123.08,0.49],[120.35,0.45],[120.1,-0.65],[120.67,-1.37],[121.52,-0.86],[123.42,-0.74],[123.5,0.3]]]},"properties":{"name":"Gulf of Tomini","featurecla":"gulf","min_label":7.6}},
{"type":"Feature","geometry":{"type":"Polygon","coordinates":[[[120.43,-5.59],[119.46,-5.52],[118.82,-6.51],[117.01,-7.09],[117.24,-8.38],[118.12,-8.12],[118.99,-8.34],[119.13,-8.68],[119.91,-8.86],[121.04,-8.94],[122.47,-8.73],[123.01,-8.33],[122.82,-8.11],[121.08,-7.32],[120.38,-6.58],[120.45,-6.23],[120.48,-5.78],[120.43,-5.59]]]},"properties":{"name":"Flores Sea","featurecla":"sea","min_label":7.6}},
{"type":"Feature","geometry":{"type":"Polygon","coordinates":[[[121.96,11.9],[123.12,11.54],[123.16,11.93],[123.24,12.58],[123.14,12.98],[122.66,13.24],[122.3,13.58],[122.11,13.45],[121.84,13.31],[121.54,13.1],[121.42,12.39],[121.96,11.9]]]},"properties":{"name":"Sibuyan Sea","featurecla":"sea","min_label":7.6}},
{"type":"Feature","geometry":{"type":"Polygon","coordinates":[[[129.04,1.65],[128.7,1.55],[128.3,0.88],[128.89,0.22],[129.98,-0.19],[129.91,-0.06],[129.04,1.65]]]},"properties":{"name":"Buli Bay","featurecla":"gulf","min_label":7.6}},
{"type":"Feature","geometry":{"type":"Polygon","coordinates":[[[128.66,2.38],[128.22,2.29],[128.04,2.17],[128.01,1.33],[128.7,1.55],[129.04,1.65],[128.66,2.38]]]},"properties":{"name":"Kao Bay","featurecla":"gulf","min_label":7.7}},
{"type":"Feature","geometry":{"type":"Polygon","coordinates":[[[123.4,8.65],[123.88,8.19],[125.53,9.14],[125.47,9.76],[125.14,10.19],[124.46,10.92],[124.02,10.47],[123.33,9.44],[123.3,9.38],[123.17,9.08],[123.4,8.65]]]},"properties":{"name":"Bohol Sea","featurecla":"sea","min_label":7.6}},
{"type":"Feature","geometry":{"type":"Polygon","coordinates":[[[123.14,12.98],[123.32,13.04],[122.66,13.24],[123.14,12.98]]]},"properties":{"name":"Ragay Gulf","featurecla":"gulf","min_label":7.8}},
{"type":"Feature","geometry":{"type":"Polygon","coordinates":[[[124.1,12.69],[123.32,13.04],[123.14,12.98],[123.24,12.58],[123.16,11.93],[124.04,11.76],[124.32,11.51],[125.04,11.13],[125.25,11.14],[124.3,12.57],[124.1,12.69]]]},"properties":{"name":"Samar Sea","featurecla":"sea","min_label":7.7}},
{"type":"Feature","geometry":{"type":"Polygon","coordinates":[[[120.93,13.5],[121.54,13.1],[121.84,13.31],[122.11,13.45],[122.3,13.58],[121.78,13.94],[120.97,13.76],[120.93,13.5]]]},"properties":{"name":"Tayabas Bay","featurecla":"bay","min_label":7.7}},
{"type":"Feature","geometry":{"type":"Polygon","coordinates":[[[125.71,11.08],[125.25,11.14],[125.04,11.13],[125.24,10.38],[125.66,10.61],[125.71,11.08]]]},"properties":{"name":"Leyte Gulf","featurecla":"gulf","min_label":7.8}},
{"type":"Feature","geometry":{"type":"Polygon","coordinates":[[[122.82,10.5],[123.57,10.78],[123.82,10.71],[124.02,10.47],[124.46,10.92],[124.32,11.51],[124.04,11.76],[123.16,11.93],[123.12,11.54],[122.62,10.76],[122.65,10.72],[122.7,10.55],[122.82,10.5]]]},"properties":{"name":"Visayan Sea","featurecla":"sea","min_label":7.7}},
{"type":"Feature","geometry":{"type":"Polygon","coordinates":[[[118.96,-9.53],[119.94,-9.3],[120.5,-9.67],[120.65,-10.22],[121.33,-10.79],[122.82,-10.86],[122.9,-10.91],[123.38,-10.57],[123.67,-10.32],[123.98,-9.37],[125.09,-8.75],[125.12,-8.33],[124.36,-8.39],[124.29,-8.33],[123.97,-8.35],[123.92,-8.27],[123.33,-8.44],[123.3,-8.4],[123.03,-8.34],[123.01,-8.33],[122.47,-8.73],[121.04,-8.94],[119.91,-8.86],[119.13,-8.68],[118.48,-8.86],[118.96,-9.53]]]},"properties":{"name":"Savu Sea","featurecla":"sea","min_label":7.6}},
{"type":"Feature","geometry":{"type":"Polygon","coordinates":[[[-133.44,55.28],[-132.71,54.68],[-132.16,54.72],[-133.28,55.6],[-133.31,55.55],[-133.53,55.33],[-133.44,55.28]]]},"properties":{"name":"Cordova Bay","featurecla":"bay","min_label":7.7}},
{"type":"Feature","geometry":{"type":"Polygon","coordinates":[[[12.06,54.85],[11.86,54.78],[11.76,54.75],[11.35,54.66],[11.03,54.35],[12.46,54.4],[12.06,54.85]]]},"properties":{"name":"Bay of Mecklenburg","featurecla":"bay","min_label":7.6}},
{"type":"Feature","geometry":{"type":"Polygon","coordinates":[[[-67.59,35.03],[-68.78,34.78],[-69.61,33.79],[-70.06,31.48],[-70.06,25.14],[-69.77,24.15],[-67.88,22.59],[-66.45,21.89],[-61.58,20.47],[-57.66,20.04],[-53.89,20.04],[-51.82,20.37],[-50.66,21.27],[-50.03,23.5],[-50.03,32.34],[-50.42,33.79],[-51.49,34.62],[-53.86,35.03],[-67.59,35.03]]]},"properties":{"name":"Sargasso Sea","featurecla":"sea","min_label":4}},
{"type":"Feature","geometry":{"type":"Polygon","coordinates":[[[-122.51,37.77],[-122.38,37.79],[-122.39,37.96],[-122.15,38.07],[-122.39,38.15],[-122.48,38.11],[-122.52,37.83],[-122.51,37.77]]]},"properties":{"name":"San Francisco Bay","featurecla":"bay","min_label":7.6}},
{"type":"Feature","geometry":{"type":"Polygon","coordinates":[[[-121.92,36.57],[-121.88,36.94],[-122.16,36.99],[-121.92,36.57]]]},"properties":{"name":"Monterey Bay","featurecla":"bay","min_label":7.6}},
{"type":"Feature","geometry":{"type":"Polygon","coordinates":[[[-124.71,48.38],[-122.24,48.01],[-123.34,49.46],[-124.48,49.81],[-125.05,50.37],[-125.13,50.32],[-125.21,50.06],[-125.24,50.01],[-124,49.22],[-124.77,48.62],[-124.71,48.38]]]},"properties":{"name":"Salish Sea","featurecla":"sea","min_label":6}},
{"type":"Feature","geometry":{"type":"MultiPolygon","coordinates":[[[[180,62.65],[180,65.07],[178.52,64.6],[179.53,62.65],[180,62.65]]],[[[-173.7,64.36],[-175.85,65.01],[-176.09,65.47],[-178.31,65.48],[-180,65.07],[-180,61.65],[-173.7,64.36]]]]},"properties":{"name":"Gulf of Anadyr","featurecla":"gulf","min_label":5.7}},
{"type":"Feature","geometry":{"type":"Polygon","coordinates":[[[8.9,38.93],[8.42,39.21],[8.47,40.29],[8.19,40.65],[9.2,41.25],[9.19,41.39],[8.81,41.59],[8.71,42.55],[9.38,43.02],[7.82,43.83],[6.12,43.07],[5.41,43.23],[3.26,41.96],[4.13,40.06],[4.28,39.83],[1.58,38.66],[0.2,38.76],[-2.09,36.8],[-1.25,35.45],[0.05,35.9],[1.26,36.52],[2.59,36.6],[3.78,36.9],[5.2,36.68],[6.49,37.09],[7.91,36.86],[9.69,37.34],[10.57,36.88],[10.59,35.89],[11.11,35.23],[10.93,33.89],[10.75,33.72],[10.71,33.69],[12.28,32.86],[13.28,32.91],[15.18,32.39],[15.36,32.15],[19.99,32.03],[20.62,32.58],[21.64,32.94],[23.09,32.62],[23.29,32.21],[27.25,31.38],[29.07,30.83],[30.39,31.46],[31.19,31.59],[32.1,31.09],[33.67,31.13],[34.68,31.9],[35.65,34.25],[35.98,34.55],[35.54,36.6],[34.6,36.78],[33.69,36.18],[32.79,36.04],[31.35,36.8],[29.69,36.16],[29.04,36.69],[28.08,36.64],[28.14,36.42],[27.74,35.92],[27.11,35.45],[26.32,35.31],[23.58,35.54],[23.09,36.47],[22.45,36.46],[15.11,36.69],[14.5,36.8],[12.47,37.74],[8.9,38.93]]]},"properties":{"name":"Mediterranean Sea","featurecla":"sea","min_label":2}},
{"type":"Feature","geometry":{"type":"MultiPolygon","coordinates":[[[[-180,-71.94],[-180,-84.35],[-171.7,-84.54],[-162.93,-84.9],[-164.95,-83.81],[-159.44,-83.54],[-153.01,-82.45],[-153.96,-81.7],[-156.53,-81.16],[-148.12,-80.9],[-150.58,-80.35],[-148.18,-79.78],[-155.21,-78.96],[-158.5,-77.78],[-158,-77.09],[-148.46,-76.12],[-146.38,-76.1],[-143.57,-75.56],[-141.51,-75.69],[-139.69,-75.21],[-134.94,-74.69],[-127.27,-73.3],[-124.94,-74.2],[-124.88,-74.72],[-119.68,-74.65],[-118.34,-74.38],[-115.11,-74.46],[-114.62,-73.9],[-102.24,-72.01],[-102.13,-71.99],[-107.17,-71.94],[-180,-71.94]]],[[[170.73,-71.94],[169.54,-73.05],[169.71,-73.33],[169.86,-73.57],[169.28,-77.45],[166.32,-77.59],[165.53,-78.15],[164.63,-78.6],[160.48,-79.2],[160.91,-81.39],[167.23,-82.95],[168.11,-83.36],[180,-84.35],[180,-71.94],[170.73,-71.94]]]]},"properties":{"name":"Ross Sea","featurecla":"sea","min_label":2}},
{"type":"Feature","geometry":{"type":"Polygon","coordinates":[[[162.12,-10.82],[160.52,-11.75],[159.98,-11.52],[153.76,-11.59],[153.28,-11.35],[151.28,-10.99],[150.62,-10.56],[147.77,-10.07],[146.63,-8.94],[143.37,-8.94],[143.08,-9.09],[143,-9.64],[142.96,-9.9],[142.78,-11.12],[142.87,-11.82],[143.4,-12.64],[143.76,-14.35],[144.47,-14.23],[145.29,-14.94],[145.43,-16.41],[146.13,-17.64],[146.03,-18.27],[146.48,-19.08],[147.42,-19.38],[148.76,-20.29],[149.7,-22.44],[150.08,-22.16],[150.76,-22.58],[150.84,-23.46],[151.83,-24.12],[152.91,-25.43],[152.92,-25.56],[153.16,-25.96],[153.12,-27.19],[153.58,-28.24],[153.28,-29.88],[159.04,-29.88],[159.04,-29.02],[167.47,-22.67],[169.84,-20.27],[169.46,-19.61],[169.24,-19.39],[169.2,-18.96],[169.06,-18.63],[168.46,-17.8],[168.35,-17.55],[168.32,-16.79],[168.31,-16.69],[168.21,-16.34],[168.19,-16.12],[168.21,-15.97],[168.16,-15.47],[168.07,-14.87],[167.56,-14.29],[167.15,-9.9],[162.29,-10.74],[162.12,-10.82]]]},"properties":{"name":"Coral Sea","featurecla":"sea","min_label":2}},
{"type":"Feature","geometry":{"type":"Polygon","coordinates":[[[142.07,45.92],[142.04,45.95],[141.95,46.03],[141.83,46.45],[142.18,48.01],[141.87,48.75],[142.14,49.57],[142.21,51.22],[141.68,51.91],[141.35,51.91],[140.48,50.55],[140.52,49.6],[140.17,48.52],[138.59,47.06],[137.69,45.82],[135.87,44.37],[135.13,43.53],[133.16,42.7],[131.72,43.2],[131.16,42.63],[129.76,41.71],[129.71,40.86],[128.31,40.04],[128.31,38.69],[129.34,37.27],[129.57,36.03],[130.21,35.58],[130.89,34.28],[131.35,34.41],[132.92,35.51],[135.17,35.75],[135.68,35.5],[136.7,36.74],[138.32,37.22],[139.4,38.14],[140.05,39.46],[139.92,40.6],[140.32,41.15],[140.14,41.42],[139.89,42.65],[141.3,43.2],[141.78,44.72],[141.69,45.4],[141.95,45.5],[142.07,45.92]]]},"properties":{"name":"Sea of Japan","featurecla":"sea","min_label":2}}
]}