{"type":"FeatureCollection","features":[{"type":"Feature","properties":{"name":"Peace","scalerank":1,"na":0,"zb":"b2","len":16.14},"geometry":{"type":"LineString","coordinates":[[-132.41755,68.15115],[-131.4583,67.65937],[-130.33238,67.21215],[-129.1654,66.77262],[-127.94565,66.34755],[-126.74021,65.90909],[-125.68668,65.40091],[-124.63315,64.88269],[-123.67799,64.3221],[-122.78823,63.72835],[-121.89847,63.12186]]}},{"type":"Feature","properties":{"name":"Ob","scalerank":1,"na":0,"zb":"b2","len":12.81},"geometry":{"type":"LineString","coordinates":[[72.75313,54.49744],[73.42984,53.70075],[74.24483,52.93666],[75.1422,52.19371],[76.1002,51.46615],[77.17212,50.79184],[78.33063,50.17068],[79.5677,49.60498],[80.8536,49.08015],[82.18303,48.59801]]}},{"type":"Feature","properties":{"name":"Lena","scalerank":1,"na":0,"zb":"b2","len":13.79},"geometry":{"type":"LineString","coordinates":[[123.3045,68.65355],[122.93095,68.11956],[122.58944,67.57044],[122.42015,66.99602],[122.50058,66.40579],[122.83451,65.81813],[123.41827,65.2499],[124.15039,64.69748],[124.93682,64.14798],[125.76351,63.59834],[126.59021,63.03788]]}},{"type":"Feature","properties":{"name":"Paran\u00e1","scalerank":1,"na":0,"zb":"b2","len":18.51},"geometry":{"type":"LineString","coordinates":[[-61.50265,-31.12274],[-61.10937,-29.80995],[-60.6023,-28.50757],[-60.06626,-27.1978],[-59.48824,-25.88692],[-58.9745,-24.54554],[-58.95767,-23.11338],[-59.11228,-21.667],[-59.03262,-20.19973],[-58.77822,-18.73506],[-58.21458,-17.33872],[-57.53151,-15.97882],[-56.81929,-14.62335]]}},{"type":"Feature","properties":{"name":"Amazon","scalerank":1,"na":0,"zb":"b2","len":19.24},"geometry":{"type":"LineString","coordinates":[[-49.82056,-1.15171],[-51.09983,-1.92893],[-52.38262,-2.69956],[-53.75208,-3.30281],[-55.21997,-3.57083],[-56.64773,-4.01591],[-58.07201,-4.47465],[-59.52073,-4.84845],[-60.99934,-5.07756],[-62.49007,-5.12157],[-63.96455,-4.88489],[-65.41706,-4.52696],[-66.89302,-4.47754],[-68.29483,-4.9907]]}},{"type":"Feature","properties":{"name":"Nile","scalerank":1,"na":0,"zb":"b2","len":15.81},"geometry":{"type":"LineString","coordinates":[[31.46675,16.01854],[31.20784,14.58382],[31.06471,13.12654],[30.8843,11.67058],[30.23902,10.35792],[29.62354,9.02907],[29.54102,7.56035],[29.99318,6.13094],[30.33951,4.66833],[30.64539,3.19368],[31.0658,1.74494],[31.63904,0.34862]]}},{"type":"Feature","properties":{"name":"Congo","scalerank":1,"na":0,"zb":"b2","len":17.73},"geometry":{"type":"LineString","coordinates":[[11.51225,-4.94695],[12.78764,-4.05785],[14.02969,-3.1229],[15.01897,-1.93323],[15.77584,-0.57403],[16.65302,0.71095],[17.75009,1.81009],[19.06922,2.6234],[20.54672,3.09294],[22.09692,3.15027],[23.61934,2.85139],[24.99847,2.14824],[26.08389,1.04861],[26.79691,-0.32706]]}},{"type":"Feature","properties":{"name":"Danube","scalerank":1,"na":0,"zb":"b2","len":20.33},"geometry":{"type":"LineString","coordinates":[[30.26445,44.40743],[28.92725,43.89981],[27.58784,43.39103],[26.14576,43.05873],[24.65441,42.9133],[23.15279,42.97816],[21.70148,43.26664],[20.35489,43.7624],[19.169,44.42799],[18.29635,45.2961],[17.70205,46.2634],[16.65822,46.97593],[15.26837,47.37599],[13.80292,47.62751],[12.30453,47.76402]]}},{"type":"Feature","properties":{"name":"Mississippi","scalerank":1,"na":0,"zb":"b2","len":26.27},"geometry":{"type":"LineString","coordinates":[[-90.45453,28.32784],[-91.49469,29.3399],[-92.33879,30.46693],[-92.78978,31.73273],[-92.66682,33.03304],[-92.25167,34.27977],[-91.75266,35.48748],[-91.32575,36.69374],[-91.78369,37.69372],[-93.28434,37.99891],[-94.69422,38.50515],[-95.82819,39.31407],[-96.76619,40.26287],[-97.59304,41.25995],[-98.57433,42.15923],[-99.66594,42.97081],[-100.76194,43.7673],[-101.65042,44.68141]]}},{"type":"Feature","properties":{"name":"Yangtze","scalerank":1,"na":0,"zb":"b2","len":20.78},"geometry":{"type":"LineString","coordinates":[[122.38497,32.52778],[120.96022,32.94646],[119.45911,32.91243],[118.06376,32.4328],[116.77897,31.75568],[115.30348,31.53928],[113.79747,31.42997],[112.33145,31.28335],[110.93963,31.79037],[109.4562,32.03899],[108.00372,31.73587],[106.68919,31.09563],[105.44212,30.35741],[104.06479,29.82867],[102.87547,29.02779],[102.035,27.9236]]}},{"type":"Feature","properties":{"name":"Mekong","scalerank":1,"na":0,"zb":"b2","len":19.09},"geometry":{"type":"LineString","coordinates":[[103.44309,19.3388],[102.83022,20.50399],[102.10226,21.61426],[101.87049,22.9975],[101.42563,24.32311],[100.93833,25.62513],[100.4984,26.92695],[100.1228,28.22965],[99.6769,29.49825],[99.1138,30.71456],[98.38074,31.84746],[97.42134,32.83175],[96.20498,33.58537]]}},{"type":"Feature","properties":{"name":"Brahmaputra","scalerank":1,"na":0,"zb":"b2","len":23.39},"geometry":{"type":"LineString","coordinates":[[89.148,22.42224],[88.71651,23.81359],[88.65053,25.22409],[89.32058,26.45965],[90.57501,27.27684],[92.04519,27.75653],[92.45191,27.97191],[90.87939,27.93214],[89.30637,27.95213],[87.73479,28.01305],[86.16703,28.12279],[84.6121,28.32527],[83.10073,28.70049],[81.71114,29.34131]]}}]}