{"type":"FeatureCollection","features":[{"type":"Feature","properties":{"scalerank":1,"sw":0.5,"name":"Brahmaputra","na":0,"cl":"Brahmaputra"},"geometry":{"type":"LineString","coordinates":[[82.40048,30.41148],[82.72273,30.36505],[83.76102,29.83332],[84.06673,29.61328],[84.37907,29.4945],[84.70721,29.29635],[85.40867,29.27439],[87.66021,29.15153],[87.78873,29.2656],[87.98412,29.34203],[88.6308,29.35066],[91.03799,29.31651],[92.0955,29.25341],[93.25005,29.0698],[93.6075,29.10859],[94.35603,29.30953],[94.82039,29.54215],[95.15061,29.81012],[95.26543,29.82854],[95.33602,29.74072],[95.37261,29.59574],[95.3169,29.41769],[94.87646,28.96795],[94.87083,28.83196],[95.04353,28.51123],[95.08792,28.21724],[95.39648,28.00292],[95.38284,27.90434],[95.28993,27.78786],[94.8315,27.46416],[94.3952,27.04241],[93.75162,26.73204],[92.67789,26.55512],[92.32225,26.46443],[91.68343,26.21486],[91.25038,26.18321],[90.60608,26.18083],[90.33405,26.13476],[90.11236,26.02952],[89.92498,25.8738],[89.78804,25.63211],[89.61265,24.94837],[89.71419,24.58462],[89.74442,23.85867],[90.0057,23.65902],[90.22569,23.41842],[90.38728,23.11983],[90.50186,22.77899]]}},{"type":"Feature","properties":{"scalerank":1,"sw":0.5,"name":"Mekong","na":0,"cl":"Mekong"},"geometry":{"type":"LineString","coordinates":[[94.084,33.15586],[94.4477,33.1633],[94.94142,33.08927],[95.84043,32.63227],[96.23932,32.52587],[96.9413,31.96554],[97.16516,31.48852],[97.25678,31.09647],[97.84626,30.27774],[98.28457,29.6669],[98.62399,28.96312],[99.0281,27.51628],[99.15016,27.02786],[99.17258,26.02645],[99.24028,25.66825],[99.39128,25.34476],[99.66682,25.01356],[99.91657,24.83383],[100.30032,24.72146],[100.42129,24.64726],[100.48733,24.52595],[100.51994,24.37792],[100.47555,24.16398],[100.13852,23.47312],[100.1224,23.31114],[100.17149,23.10657],[100.98374,21.84497],[101.01826,21.79771],[101.15003,21.84998],[101.18001,21.43657],[100.3291,20.78612],[100.11599,20.41785],[100.54888,20.10924],[100.55909,20.00237],[100.56929,19.89553],[100.5973,19.89305],[101.11479,19.85215],[101.47156,19.87013],[102.1848,20.04891],[101.88373,19.55519],[101.76483,18.72178],[101.49229,18.16003],[101.48598,17.9697],[101.56365,17.82051],[101.58598,17.81046],[102.11359,18.1091],[102.413,17.93278],[102.99871,17.96169],[103.20019,18.30963],[103.95648,18.24095],[104.71695,17.42886],[104.77932,16.44186],[105.58904,15.57032],[105.57607,15.32465],[105.78169,15.12052],[105.89104,14.77109],[105.86969,14.21784],[105.96493,13.8574],[105.94933,13.35009],[105.97227,12.65964],[105.9299,12.39707],[105.81016,12.28677],[105.65069,12.23396],[105.36812,11.97048],[105.04985,11.8046],[104.95114,11.59092],[105.11258,10.93261],[105.20798,10.70687],[105.56661,10.26707],[106.33029,9.47501]]}},{"type":"Feature","properties":{"scalerank":1,"sw":0.5,"name":"Ob","na":0,"cl":"Ob"},"geometry":{"type":"LineString","coordinates":[[90.32537,47.65017],[90.20052,47.40801],[89.73342,47.1625],[89.3969,47.06914],[89.04814,47.08744],[86.94356,47.66011],[86.40013,47.85656],[85.26707,47.99438],[84.35685,47.73213],[83.83564,48.03552],[83.61973,48.19398],[83.55116,48.31312],[83.49158,48.77857],[83.61901,48.8965],[83.8684,49.02535],[84.01165,49.17591],[83.88277,49.34624],[83.36373,49.64384],[82.48482,50.06041],[82.14003,50.18216],[81.78109,50.25187],[80.42778,50.38519],[78.54531,50.76729],[77.24286,51.86903],[76.99885,52.1301],[76.6061,52.69252],[76.32788,52.90178],[75.58953,53.29649],[75.30934,53.49632],[75.11782,53.68789],[75.02191,53.8479],[74.99359,53.98559],[74.51993,54.37529],[74.39618,54.42505],[74.12369,54.53453],[73.85061,54.644],[73.72509,54.69377],[73.63321,54.74135],[73.4659,54.82972],[73.37612,54.8773],[73.08177,55.22955],[73.11516,55.30603],[73.33406,55.44576],[73.65517,55.5855],[74.24108,55.76125],[74.47187,55.87488],[74.62452,56.02728],[74.7103,56.20334],[74.70266,56.41235],[74.62984,56.64435],[74.47807,56.85948],[74.27994,57.02779],[73.69021,57.25547],[72.90106,57.44631],[71.47432,57.65875],[70.28902,57.94623],[68.83986,58.03359],[68.68061,58.0685],[68.3845,58.13311],[68.22403,58.16728],[68.24539,58.24942],[68.26811,58.33238],[68.50371,58.52707],[68.60143,58.74608],[68.79314,58.98407],[68.96833,59.40475],[69.12956,59.55042],[69.3343,59.64954],[69.78275,59.87262],[69.80456,59.99603],[69.76766,60.10713],[69.83732,60.25686],[69.80409,60.51501],[69.72508,60.65834],[69.49749,60.81308],[69.39807,60.86172],[69.17914,60.96873],[68.95981,61.0757],[68.85914,61.12423],[68.82179,61.10671],[68.78612,61.08935],[68.40847,61.20691],[68.22589,61.44767],[67.6451,61.73047],[67.23283,62.06812],[66.28074,62.44683],[65.68873,62.66238],[65.40994,62.84728],[65.30323,63.07507],[65.42725,63.30652],[65.68899,63.58733],[65.83333,64.01516],[65.91839,64.11505],[65.92603,64.22435],[65.58228,64.70737],[65.51066,64.96565],[65.41103,65.04016],[65.36839,65.16747],[65.7663,65.80268],[65.83539,65.9998],[65.83927,66.15718],[66.34141,66.44318],[66.67731,66.56653],[67.0331,66.60508],[68.19287,66.57576],[69.01349,66.78835],[69.93044,66.74683],[70.8401,66.65304],[71.56744,66.52851]]}},{"type":"Feature","properties":{"scalerank":1,"sw":0.5,"name":"Peace","na":0,"cl":"Peace"},"geometry":{"type":"LineString","coordinates":[[-124.83563,56.75692],[-124.20045,56.24349],[-123.88874,56.08882],[-123.54354,56.04472],[-122.73008,56.09854],[-122.22171,56.02123],[-121.97364,56.01979],[-121.35714,56.18975],[-120.24459,56.15197],[-119.50944,56.25145],[-119.18871,56.24437],[-118.67035,56.01622],[-118.34623,55.98131],[-117.77914,56.0541],[-117.50613,56.15536],[-117.20036,56.41232],[-117.1769,56.54502],[-117.25821,56.85488],[-117.13228,57.28103],[-117.10752,57.65416],[-117.03701,57.92923],[-116.85415,58.06958],[-116.67623,58.12741],[-116.54211,58.28895],[-116.32315,58.37096],[-115.98847,58.41871],[-114.97251,58.40972],[-114.61323,58.47586],[-114.48896,58.51217],[-114.21144,58.59048],[-113.92362,58.66496],[-113.76845,58.68975],[-113.58349,58.72357],[-113.29753,58.80784],[-113.14919,58.85532],[-112.64761,59.09761],[-112.32267,59.1259],[-112.06504,59.08358],[-111.92647,58.97345],[-111.41077,59.00506],[-111.44384,59.53662],[-111.56902,59.84795],[-112.38313,60.22154],[-112.49321,60.31461],[-112.4837,60.45052],[-112.57134,60.54059],[-113.16012,60.85324],[-113.28246,61.17381],[-113.45966,61.24267],[-113.58198,61.24421],[-113.70401,61.24587],[-113.8389,61.256],[-114.13603,61.27811],[-114.43324,61.30019],[-114.56835,61.31021],[-116.33434,61.0894],[-116.69863,61.12139],[-117.66811,61.30783],[-118.15498,61.42147],[-119.07063,61.30132],[-119.76837,61.33414],[-120.31782,61.46335],[-120.57504,61.56968],[-120.8134,61.78096],[-121.58916,61.97369],[-123.02422,62.2423],[-123.25467,62.34891],[-123.29611,62.50993],[-123.22893,62.86668],[-123.3205,63.05734],[-123.95442,63.74102],[-124.33649,64.00276],[-124.48935,64.22316],[-124.76168,64.42387],[-125.02515,64.69202],[-125.30023,64.80597],[-126.18162,65.0491],[-126.92933,65.29139],[-128.03019,65.60835],[-128.67142,65.72276],[-128.90856,65.86055],[-128.98336,66.02967],[-128.84208,66.32252],[-129.02561,66.45548],[-129.77052,66.73161],[-130.04371,66.88088],[-130.34504,67.21378],[-130.53283,67.30584],[-130.7594,67.35367],[-131.20868,67.45469],[-132.65283,67.29331],[-133.01578,67.29274],[-133.37255,67.35935],[-133.82973,67.52058],[-134.19007,67.74152],[-134.39957,68.05264],[-134.40719,68.18209],[-134.15969,68.44967],[-134.24423,68.70619],[-134.8359,68.96378],[-135.31841,69.39437]]}},{"type":"Feature","properties":{"scalerank":1,"sw":0.5,"name":"Danube","na":0,"cl":"Danube"},"geometry":{"type":"LineString","coordinates":[[8.21979,48.04681],[8.55336,47.98082],[9.41408,48.13835],[10.71989,48.64871],[11.68356,48.79413],[12.03299,49.0275],[12.15576,49.00076],[12.38378,48.95182],[12.50655,48.92756],[12.6597,48.8751],[12.9966,48.75609],[13.33351,48.63639],[13.48665,48.58184],[14.70167,48.23406],[14.9956,48.21305],[15.63443,48.37462],[15.93673,48.35348],[16.87807,48.17179],[17.48847,47.86747],[17.85713,47.75843],[18.69651,47.88095],[18.90988,47.8061],[19.02569,47.6682],[18.93324,47.17593],[18.95231,46.77777],[18.88229,46.27966],[18.76421,46.03435],[18.78051,45.96511],[18.81098,45.90144],[18.88722,45.80625],[19.00909,45.62166],[19.07277,45.52151],[19.15521,45.448],[19.30863,45.31346],[19.39223,45.24683],[19.51297,45.23265],[19.7769,45.19143],[20.04049,45.14828],[20.16025,45.12831],[20.54198,44.80176],[20.76781,44.74419],[21.36007,44.82667],[21.56202,44.76895],[22.14509,44.47842],[22.45902,44.70252],[22.70573,44.578],[22.47401,44.40923],[22.65715,44.23492],[22.94483,43.82379],[23.3323,43.89701],[24.10068,43.74105],[25.56927,43.68844],[26.06516,43.94349],[27.2424,44.17599],[27.28506,44.15304],[27.30152,44.13338],[27.38442,44.16656],[27.60085,44.23523],[27.82384,44.30308],[27.92639,44.33378],[28.05279,44.40941],[28.04411,44.49584],[27.87668,44.74412],[27.98819,45.21848],[28.04673,45.27932],[28.15745,45.39591],[28.22301,45.46937],[28.34612,45.43491],[28.5637,45.3511],[28.67978,45.30403],[29.14972,45.46493],[29.6033,45.2933]]}},{"type":"Feature","properties":{"scalerank":1,"sw":0.5,"name":"Paran\u00e1","na":0,"cl":"Paran\u00e1"},"geometry":{"type":"LineString","coordinates":[[-55.07529,-14.31938],[-55.43245,-14.35737],[-56.12057,-14.68913],[-56.33467,-14.85858],[-56.39368,-15.06838],[-56.08722,-15.84332],[-55.93469,-16.07886],[-55.92733,-16.21534],[-55.99913,-16.33688],[-56.42939,-16.65247],[-56.54055,-16.80822],[-56.58974,-17.06717],[-56.98016,-17.59474],[-57.17501,-17.7352],[-57.31823,-17.92547],[-57.44272,-18.46755],[-57.59976,-18.87936],[-57.33719,-19.21092],[-57.38696,-19.39349],[-57.45651,-19.48431],[-57.6104,-19.68393],[-57.76642,-19.88308],[-57.84238,-19.97248],[-57.93052,-20.02198],[-58.0101,-20.07335],[-58.16639,-20.1767],[-57.87067,-20.73269],[-57.88879,-21.10264],[-57.93716,-22.09018],[-57.97467,-22.16221],[-57.83236,-22.55015],[-57.82928,-22.8198],[-57.3421,-23.70274],[-57.2011,-24.04308],[-57.12178,-24.33474],[-57.13038,-24.63953],[-57.26846,-24.9716],[-57.57315,-25.25846],[-57.63051,-25.42176],[-57.62866,-25.51054],[-57.62973,-25.60118],[-57.70431,-25.71482],[-57.88774,-25.99701],[-58.12543,-26.36338],[-58.36278,-26.72954],[-58.54523,-27.01111],[-58.61817,-27.12372],[-58.85023,-27.61077],[-58.89307,-27.96475],[-59.0738,-28.34855],[-59.22736,-29.05833],[-59.39624,-29.19682],[-59.52264,-29.40301],[-59.58897,-29.70496],[-59.65429,-30.71725],[-60.06351,-31.26962],[-60.38044,-31.53167],[-60.59118,-31.78157],[-60.69621,-32.05112],[-60.72649,-32.33456],[-60.71249,-32.55703],[-60.64159,-32.78461],[-60.49018,-33.01943],[-60.24895,-33.2434],[-59.86851,-33.49832],[-59.20044,-33.81235],[-58.66884,-33.99358],[-58.43754,-33.98989]]}},{"type":"Feature","properties":{"scalerank":1,"sw":0.5,"name":"Congo","na":0,"cl":"Congo"},"geometry":{"type":"LineString","coordinates":[[26.24928,-11.7429],[25.93829,-11.6535],[25.6396,-11.18578],[25.71118,-10.74255],[25.46711,-10.37518],[25.44819,-10.09292],[25.50194,-9.45503],[25.64673,-9.24827],[25.9232,-9.0997],[26.08144,-8.76623],[26.44131,-8.272],[26.73204,-8.16172],[26.85757,-8.04659],[26.91937,-7.91667],[26.88826,-7.64238],[27.00939,-6.98743],[27.01709,-6.62218],[26.93048,-5.61025],[26.9819,-5.25224],[26.9464,-5.00863],[26.81245,-4.74674],[26.35961,-4.33472],[26.13663,-4.06828],[26.01446,-3.74298],[25.99285,-3.58706],[25.94532,-3.24433],[25.89778,-2.90231],[25.87618,-2.74851],[25.86848,-2.60498],[25.85013,-2.25948],[25.82822,-1.84636],[25.80988,-1.49997],[25.80218,-1.35465],[25.68156,-1.01234],[25.55243,-0.77882],[25.48018,-0.53904],[25.51341,-0.05441],[25.40944,0.34566],[24.9336,0.53857],[24.2923,0.78171],[22.73487,1.95004],[22.34709,2.12938],[21.71261,2.14103],[20.26753,1.92345],[19.90765,1.84289],[19.14284,1.5736],[18.71248,1.19011],[18.48759,0.91137],[18.33586,0.58699],[18.19923,0.09979],[17.59958,-0.64906],[17.52372,-0.74383],[16.86531,-1.22582],[16.40709,-1.74093],[15.9728,-2.71239],[16.00629,-3.53513],[15.75354,-3.85516],[15.17099,-4.34351],[14.5826,-4.97024],[14.19591,-4.97184],[14.07462,-5.02031],[13.82642,-5.25771],[13.60995,-5.36339],[13.4696,-5.7596],[13.42815,-5.77644],[13.3756,-5.86424],[13.02487,-5.98439],[12.73517,-5.96568],[12.32249,-6.10006]]}},{"type":"Feature","properties":{"scalerank":1,"sw":0.5,"name":"Lena","na":0,"cl":"Lena"},"geometry":{"type":"LineString","coordinates":[[107.98011,54.00415],[108.04336,54.10205],[108.04067,54.18501],[107.78291,54.29379],[107.18171,53.92136],[107.02316,53.87113],[106.92715,53.88433],[106.10735,53.88545],[105.66542,54.02166],[105.28776,54.385],[105.15527,54.88094],[105.16974,55.05359],[105.72319,55.84476],[105.78572,56.22913],[106.24641,56.48526],[106.18802,56.56479],[105.9823,56.65117],[105.86189,56.76072],[106.01103,56.89694],[106.32501,57.0104],[106.80726,57.11129],[107.03288,57.27085],[107.39348,57.30092],[107.69723,57.4383],[108.08155,57.7603],[108.60891,58.04532],[108.92506,58.16513],[109.4857,58.28306],[110.00882,58.56332],[111.10126,58.78305],[111.83388,59.14275],[112.34997,59.30067],[112.64277,59.54453],[113.51083,59.92807],[114.43093,60.49305],[114.94444,60.73242],[115.47179,60.74454],[116.1518,60.60715],[116.86236,60.35528],[117.46821,60.01318],[117.80163,59.88043],[118.31741,59.80054],[118.66008,59.87738],[119.36298,60.16429],[119.49669,60.18917],[119.81561,60.24858],[120.19652,60.31963],[120.51609,60.37943],[120.65112,60.4051],[120.79356,60.4534],[121.05523,60.54143],[121.19584,60.58868],[123.55115,60.59165],[124.99488,60.75764],[126.32421,61.05571],[128.47612,61.28908],[129.21561,61.49919],[129.74307,61.9094],[129.9199,62.14494],[129.95603,62.41521],[129.85743,62.71204],[129.37963,63.48987],[128.30114,63.59976],[127.95501,63.71647],[126.85265,64.22445],[125.50917,64.67998],[124.79722,65.01841],[124.52566,65.23654],[124.17964,65.85639],[123.69687,66.50266],[123.23354,67.35958],[123.1459,67.64946],[123.18342,67.88852],[123.74287,68.41128],[124.07633,68.97548],[124.32381,69.18343],[124.62157,69.33644],[125.07126,69.77559],[125.48478,69.97366],[125.90873,70.22786],[125.94066,70.42787],[127.10173,70.64122],[127.33624,70.75],[127.46037,70.8703],[127.45551,71.00435],[127.27557,71.33141],[127.1099,71.83029],[126.92882,72.06984],[126.68966,72.2944],[126.01229,72.32972],[124.61165,72.65159],[122.75479,72.98718]]}},{"type":"Feature","properties":{"scalerank":1,"sw":0.5,"name":"Yangtze","na":0,"cl":"Yangtze"},"geometry":{"type":"LineString","coordinates":[[90.7947,34.30041],[91.15157,34.3209],[92.9928,34.1003],[93.83761,34.3209],[94.15583,34.55639],[94.38895,34.65383],[94.68169,34.67452],[95.00405,34.60171],[95.37483,34.40658],[96.00378,33.88408],[96.40986,33.68094],[97.03282,33.23686],[97.45016,32.78089],[98.16179,32.28658],[98.37532,32.00975],[98.54151,31.6898],[98.77416,31.35969],[98.69871,31.15094],[98.90903,30.67585],[98.98438,30.34277],[99.09641,29.25049],[99.23222,28.43338],[99.27537,28.35367],[99.35547,28.205],[99.39862,28.12301],[99.43456,28.01657],[99.51365,27.78572],[99.59274,27.55551],[99.62868,27.45099],[99.79823,27.16501],[99.98049,27.08062],[100.14038,27.24555],[100.24601,27.49566],[100.37127,27.65852],[100.47007,27.56912],[100.51198,27.36037],[100.44062,26.79865],[100.45318,26.37612],[100.5049,26.24078],[100.61477,26.21514],[101.00219,26.25845],[101.66302,26.52985],[101.82307,26.52954],[101.88611,26.41048],[101.91216,26.22091],[101.99654,26.10427],[102.44298,26.277],[102.75639,26.31255],[102.89737,26.39322],[102.98093,26.59218],[102.95778,27.22366],[103.02516,27.37352],[103.14702,27.43435],[103.47061,27.8853],[103.54363,28.14614],[103.78977,28.33222],[103.84563,28.48307],[103.85075,28.66804],[104.3256,28.66719],[104.74123,28.77721],[105.11279,28.76693],[105.54713,28.88049],[105.82003,28.87689],[105.90571,29.01203],[106.6143,29.54874],[107.60432,29.92368],[107.88988,30.14126],[108.30815,30.57953],[108.40199,30.73598],[108.57604,30.85974],[108.86357,30.93729],[109.46002,31.01002],[110.25578,31.02271],[110.82758,30.9217],[111.21505,30.72898],[111.53359,30.37975],[112.03257,30.35174],[112.20796,30.22033],[112.4404,29.81823],[112.59579,29.74123],[112.78188,29.74395],[112.91583,29.71],[112.95655,29.55094],[113.1277,29.46278],[113.65759,29.89352],[113.93499,30.06401],[113.92285,30.21844],[114.05054,30.30177],[114.30324,30.59304],[114.54353,30.59545],[114.78765,30.51793],[115.39035,30.01316],[115.67917,29.85614],[115.9761,29.80544],[116.26337,29.83872],[116.69534,30.04954],[116.95434,30.40817],[117.32662,30.69477],[117.59895,30.81543],[117.87733,31.10498],[118.27302,31.38222],[118.55037,31.82085],[118.738,32.02218],[119.00445,32.1507],[119.33182,32.20491],[119.74585,32.13703],[120.57743,31.61376],[120.92123,31.51619],[121.90202,31.41395]]}},{"type":"Feature","properties":{"scalerank":1,"sw":0.5,"name":"Yangtze","na":0,"cl":"Yangtze"},"geometry":{"type":"LineString","coordinates":[[116.19759,29.75139],[116.21185,29.78516]]}},{"type":"Feature","properties":{"scalerank":1,"sw":0.5,"name":"Nile","na":0,"cl":"Nile"},"geometry":{"type":"LineString","coordinates":[[33.20689,0.26153],[33.18726,0.42819],[32.89311,1.31144],[32.8015,1.36654],[32.62476,1.47171],[32.51004,1.53675],[32.36249,1.60688],[32.24096,1.66584],[32.17259,1.68222],[32.15936,1.72527],[32.2946,1.93058],[32.29532,2.07915],[32.18825,2.20782],[31.99865,2.2842],[31.76693,2.29294],[31.66294,2.267],[31.46991,2.21888],[31.36623,2.1931],[31.42065,2.29688],[31.47475,2.40058],[31.45717,2.53821],[31.43956,2.67573],[31.46142,2.95041],[31.56405,3.22466],[31.71975,3.43522],[32.01585,3.61366],[31.72957,4.0226],[31.60467,4.34268],[31.60348,4.68628],[31.74554,5.41928],[31.67283,5.92997],[31.14831,6.82966],[30.78993,7.24129],[30.59207,7.54419],[30.45843,7.8804],[30.28842,8.57309],[30.26402,8.90894],[30.32991,9.21099],[30.5191,9.39937],[30.79226,9.46082],[31.12475,9.43253],[31.32158,9.40408],[31.53852,9.45963],[31.78393,9.63393],[32.15822,10.04001],[32.23946,10.22041],[32.17512,10.43941],[32.1992,10.56974],[32.58481,11.13033],[32.68811,11.47072],[32.74914,11.99534],[32.7786,12.63427],[32.74806,12.99569],[32.65018,13.34495],[32.31718,14.12456],[32.25362,14.46284],[32.49014,15.63455],[32.55934,15.94551],[32.70274,16.21875],[32.9511,16.43858],[33.312,16.6424],[33.58046,16.87186],[33.77234,17.16836],[33.88106,17.55557],[33.91269,17.91382],[33.87734,18.19731],[33.59591,18.8049],[33.3797,19.42313],[33.15909,19.44853],[32.91704,19.40042],[32.64465,19.24836],[32.0929,18.79369],[31.4948,18.15011],[31.31001,18.03949],[31.14459,18.03502],[30.97726,18.07766],[30.82187,18.20553],[30.68508,18.40689],[30.4945,19.0245],[30.34774,19.82176],[30.55858,20.08591],[30.58524,20.19458],[30.3649,20.52867],[30.34547,20.65063],[30.61181,21.05463],[31.09064,21.6092],[31.43356,22.09674],[31.77236,22.44478],[32.00449,22.61784],[32.45118,22.72962],[32.58905,22.86088],[32.74511,23.06913],[32.85958,23.35098],[32.89683,23.6598],[32.87947,23.98768],[32.88893,24.56305],[32.84133,24.88592],[32.58977,25.32724],[32.52321,25.612],[32.72444,25.87661],[32.7492,26.00399],[32.6646,26.08466],[32.12195,26.13851],[31.78522,26.49048],[31.30355,27.09855],[31.08589,27.29942],[30.92745,27.52013],[30.85283,27.769],[30.83743,28.03767],[30.77159,28.26789],[30.79898,28.45576],[31.16857,29.30253],[31.22727,29.6523],[31.23761,30.12069],[31.17554,31.01689],[31.03596,31.54543]]}},{"type":"Feature","properties":{"scalerank":1,"sw":0.5,"name":"Amazon","na":0,"cl":"Amazon"},"geometry":{"type":"LineString","coordinates":[[-71.66875,-15.33638],[-71.50116,-14.79233],[-71.55754,-14.28688],[-71.65921,-14.07795],[-71.85713,-13.90168],[-72.13681,-13.73921],[-72.75075,-13.48683],[-73.22111,-13.42187],[-73.5623,-13.01755],[-73.85866,-12.49614],[-73.98067,-12.19838],[-74.14423,-11.45279],[-74.14516,-11.27766],[-73.8026,-11.18877],[-73.73573,-11.02977],[-73.78828,-10.80208],[-73.99537,-10.39435],[-74.05059,-10.1817],[-74.00661,-9.86033],[-74.16689,-9.68148],[-74.4755,-9.02922],[-74.46819,-8.73885],[-74.33734,-8.51168],[-74.48307,-8.39013],[-74.66032,-8.06902],[-74.90839,-7.83637],[-75.02177,-7.46151],[-75.21569,-7.17806],[-75.20819,-7.08546],[-75.13603,-7.01234],[-75.16078,-6.52663],[-75.10347,-6.23848],[-74.93844,-6.06604],[-74.74709,-5.97013],[-74.30618,-5.63986],[-74.06434,-5.13788],[-73.97426,-5.04491],[-73.80657,-4.97236],[-73.48864,-4.44484],[-73.35828,-4.17339],[-73.21578,-4.03722],[-73.13912,-3.6837],[-73.03505,-3.55477],[-72.87211,-3.49477],[-72.47585,-3.48103],[-72.13262,-3.4201],[-71.86556,-3.43597],[-71.54273,-3.7313],[-71.26583,-3.85966],[-70.90047,-3.96007],[-70.62899,-3.88819],[-70.36549,-3.91118],[-70.11339,-4.06833],[-69.8693,-4.32036],[-69.66404,-4.27173],[-69.50325,-4.13918],[-69.26287,-3.62216],[-68.95294,-3.4433],[-68.06876,-3.2969],[-67.96011,-3.21701],[-67.93239,-3.10803],[-67.65822,-2.86541],[-67.3789,-2.70733],[-66.84659,-2.65922],[-66.54146,-2.48626],[-65.99788,-2.49654],[-65.76097,-2.60299],[-65.62046,-2.60925],[-65.4391,-2.68464],[-64.57561,-3.39819],[-64.01113,-3.74354],[-63.17728,-4.03515],[-62.7365,-3.85589],[-62.41055,-3.78943],[-61.81082,-3.85516],[-61.49355,-3.76959],[-60.59606,-3.35085],[-59.9245,-3.20595],[-59.82996,-3.14193],[-59.65793,-3.12322],[-58.68905,-3.34233],[-58.53559,-3.22626],[-58.31592,-3.21184],[-57.76649,-2.65849],[-57.47589,-2.49551],[-56.70224,-2.47928],[-56.11954,-2.133],[-55.82214,-2.0145],[-55.51485,-1.94949],[-55.15102,-2.1376],[-54.80639,-2.17563],[-54.52512,-2.44032],[-54.18596,-2.31118],[-53.79198,-1.97854],[-53.49644,-1.82811],[-52.4362,-1.43077],[-51.78818,-1.0851],[-51.00024,-0.48317],[-50.54142,0.07011]]}},{"type":"Feature","properties":{"scalerank":1,"sw":0.5,"name":"Mississippi","na":0,"cl":"Mississippi"},"geometry":{"type":"LineString","coordinates":[[-110.7437,44.72673],[-110.9294,44.67893],[-111.09967,44.75652],[-111.20441,44.81247],[-111.3092,44.86845],[-111.42551,44.90557],[-111.54179,44.94266],[-111.63595,45.07751],[-111.65406,45.30972],[-111.44851,46.02458],[-111.4528,46.22266],[-111.48432,46.29165],[-111.5158,46.36143],[-111.56285,46.43975],[-111.65045,46.58417],[-111.69803,46.66214],[-111.78362,46.73812],[-111.86867,46.81368],[-111.92197,46.9413],[-111.85591,47.10818],[-111.6445,47.29226],[-111.17062,47.58803],[-110.51154,47.91382],[-110.22665,47.96426],[-109.81908,47.80693],[-108.93802,47.76414],[-108.82129,47.73877],[-108.56468,47.68294],[-108.30861,47.62711],[-108.19347,47.60169],[-108.10809,47.58688],[-107.94652,47.55945],[-107.85922,47.5447],[-106.88396,47.75096],[-106.75996,47.8208],[-106.52968,47.95055],[-106.40572,48.02053],[-106.23357,48.03178],[-105.82297,48.05846],[-105.33287,48.09024],[-104.92224,48.11686],[-104.75003,48.12802],[-103.77232,48.0273],[-103.24044,48.09241],[-102.89402,48.05867],[-102.14009,47.65022],[-101.79363,47.55327],[-101.69159,47.54097],[-101.50206,47.51816],[-101.39988,47.50599],[-101.3554,47.427],[-101.31107,47.34786],[-101.00528,47.17113],[-100.94613,47.05254],[-100.83629,46.83227],[-100.77718,46.71353],[-100.69145,46.60478],[-100.60569,46.49618],[-100.57042,46.14054],[-100.35539,45.35033],[-100.37051,45.08492],[-100.45937,44.9102],[-100.63987,44.74771],[-100.62938,44.64012],[-100.55719,44.53372],[-100.47548,44.48413],[-100.39392,44.43496],[-100.27124,44.37287],[-100.0432,44.25698],[-99.92038,44.19451],[-99.62552,44.16645],[-99.55783,44.12086],[-99.43218,44.03624],[-99.36465,43.99075],[-99.37696,43.91479],[-99.39958,43.77353],[-99.41173,43.69746],[-99.37731,43.59468],[-99.25018,43.51065],[-98.97351,43.32353],[-98.70437,43.1308],[-98.59984,43.02993],[-98.61204,43.00375],[-98.59408,43.00001],[-98.33611,42.87364],[-97.96817,42.79455],[-97.88182,42.83971],[-97.64409,42.83635],[-97.28739,42.84617],[-97.02828,42.71765],[-96.75414,42.63383],[-96.70879,42.5511],[-96.62304,42.50265],[-96.4554,42.48888],[-96.41036,42.38927],[-96.34659,42.22461],[-96.34892,42.14195],[-96.16725,41.95331],[-96.10457,41.78768],[-96.09689,41.55669],[-96.02486,41.52455],[-95.95863,41.40491],[-95.85595,41.11656],[-95.83425,40.94404],[-95.86187,40.76472],[-95.79637,40.58419],[-95.77642,40.50135],[-95.60814,40.34322],[-95.45236,40.21507],[-95.32294,40.00133],[-95.08517,39.86798],[-94.955,39.87],[-94.92655,39.72538],[-95.06706,39.53968],[-94.9913,39.44441],[-94.868,39.23461],[-94.60479,39.1397],[-93.1817,39.31796],[-92.99254,39.27554],[-92.84479,39.03348],[-92.53158,38.87688],[-92.29291,38.65888],[-92.04724,38.61447],[-91.45175,38.67048],[-90.88538,38.63506],[-90.43272,38.79494],[-90.35547,38.80027],[-90.2142,38.80545],[-90.1446,38.7943],[-90.18285,38.68029],[-90.2125,38.58483],[-90.30549,38.43908],[-90.36972,38.2634],[-90.22795,38.11338],[-90.03018,37.97218],[-89.91701,37.96854],[-89.65496,37.7486],[-89.55388,37.71902],[-89.47929,37.47738],[-89.51624,37.32682],[-89.38831,37.08146],[-89.28018,37.10709],[-89.10295,36.95222],[-89.13437,36.85199],[-89.1151,36.69456],[-89.27382,36.61172],[-89.4982,36.5064],[-89.52404,36.40943],[-89.58535,36.26688],[-89.66302,36.02328],[-89.68427,36.02328],[-89.68731,36.02328],[-89.67142,35.98172],[-89.67375,35.94016],[-89.77511,35.79942],[-89.95027,35.70198],[-89.98897,35.53646],[-90.14728,35.40526],[-90.13519,35.11388],[-90.2494,35.02065],[-90.26808,34.94149],[-90.44639,34.86699],[-90.45011,34.72204],[-90.58434,34.45425],[-90.69973,34.39754],[-90.87654,34.26173],[-90.98191,34.05487],[-91.20063,33.70616],[-91.22342,33.46907],[-91.10831,33.20666],[-91.15611,33.00992],[-91.08464,32.95287],[-91.17564,32.80854],[-91.03103,32.60261],[-91.07183,32.4789],[-90.94307,32.30668],[-91.08162,32.20468],[-91.1282,32.01546],[-91.32145,31.85961],[-91.41142,31.64995],[-91.50216,31.40863],[-91.62466,31.29695],[-91.58376,31.04736],[-91.52893,30.80835],[-91.34036,30.64686],[-91.12185,30.26999],[-90.99137,30.13377],[-90.78339,30.05289],[-90.04589,29.89572],[-89.9527,29.80133],[-89.88769,29.6477],[-89.40644,29.16094]]}}]}