{"type":"FeatureCollection","features":[{"type":"Feature","properties":{"name":"Peace","scalerank":1,"na":0,"zb":"b2","len":16.59},"geometry":{"type":"LineString","coordinates":[[-136.64816,69.21028],[-136.13542,68.68253],[-135.58904,68.14729],[-134.86475,67.62891],[-133.97253,67.13949],[-132.95868,66.67838],[-131.86653,66.23566],[-130.71967,65.80879],[-129.54926,65.38516],[-128.44309,64.9277],[-127.43217,64.42171],[-126.42125,63.90621]]}},{"type":"Feature","properties":{"name":"Ob","scalerank":1,"na":0,"zb":"b2","len":12.81},"geometry":{"type":"LineString","coordinates":[[72.75313,54.49744],[73.42984,53.70075],[74.24483,52.93666],[75.1422,52.19371],[76.1002,51.46615],[77.17212,50.79184],[78.33063,50.17068],[79.5677,49.60498],[80.8536,49.08015],[82.18303,48.59801]]}},{"type":"Feature","properties":{"name":"Paran\u00e1","scalerank":1,"na":0,"zb":"b2","len":19.27},"geometry":{"type":"LineString","coordinates":[[-61.51025,-32.02478],[-61.41248,-30.72232],[-60.9774,-29.44894],[-60.46901,-28.17923],[-59.93799,-26.90151],[-59.35769,-25.62682],[-58.93346,-24.29581],[-58.99709,-22.89762],[-59.11691,-21.48285],[-59.01703,-20.05166],[-58.74959,-18.62585],[-58.1811,-17.27016],[-57.5136,-15.94485],[-56.81929,-14.62335]]}},{"type":"Feature","properties":{"name":"Amazon","scalerank":1,"na":0,"zb":"b2","len":17.89},"geometry":{"type":"LineString","coordinates":[[-49.82056,-1.15171],[-51.12869,-1.94646],[-52.44253,-2.73072],[-53.84737,-3.3369],[-55.35066,-3.60491],[-56.80709,-4.07158],[-58.26584,-4.5335],[-59.75299,-4.89189],[-61.26828,-5.10303],[-62.7922,-5.08871],[-64.29043,-4.79668],[-65.78129,-4.45424],[-67.28969,-4.56016]]}},{"type":"Feature","properties":{"name":"Nile","scalerank":1,"na":0,"zb":"b2","len":15.81},"geometry":{"type":"LineString","coordinates":[[31.46675,16.01854],[31.20784,14.58382],[31.06471,13.12654],[30.8843,11.67058],[30.23902,10.35792],[29.62354,9.02907],[29.54102,7.56035],[29.99318,6.13094],[30.33951,4.66833],[30.64539,3.19368],[31.0658,1.74494],[31.63904,0.34862]]}},{"type":"Feature","properties":{"name":"Danube","scalerank":1,"na":0,"zb":"b2","len":18.87},"geometry":{"type":"LineString","coordinates":[[30.26445,44.40743],[28.91272,43.89427],[27.55787,43.38124],[26.09864,43.04809],[24.58873,42.9108],[23.07195,42.98904],[21.61198,43.29683],[20.25893,43.80826],[19.0797,44.49691],[18.22455,45.38703],[17.64601,46.37014],[16.50178,47.03778],[15.08103,47.41704],[13.59528,47.66162]]}},{"type":"Feature","properties":{"name":"Congo","scalerank":1,"na":0,"zb":"b2","len":11.15},"geometry":{"type":"LineString","coordinates":[[14.38721,-2.83313],[15.28772,-1.45736],[16.12861,-0.04312],[17.14901,1.24389],[18.41379,2.29029],[19.91821,2.94344],[21.54299,3.16715],[23.17272,2.97875],[24.69099,2.35916]]}},{"type":"Feature","properties":{"name":"Brahmaputra","scalerank":1,"na":0,"zb":"b2","len":13.81},"geometry":{"type":"LineString","coordinates":[[93.86567,28.10199],[92.31962,27.96629],[90.76586,27.93135],[89.21177,27.95348],[87.65919,28.01637],[86.11057,28.12795],[84.57494,28.33159],[83.08278,28.70573],[81.71114,29.34131]]}},{"type":"Feature","properties":{"name":"Lena","scalerank":1,"na":0,"zb":"b2","len":12.11},"geometry":{"type":"LineString","coordinates":[[112.45758,60.22479],[111.24837,59.75936],[110.03917,59.28735],[108.82997,58.8087],[107.64303,58.30884],[106.47716,57.78791],[105.37706,57.22422],[104.57391,56.52575],[104.35187,55.68633],[104.6941,54.83953]]}},{"type":"Feature","properties":{"name":"Mississippi","scalerank":1,"na":0,"zb":"b2","len":24.56},"geometry":{"type":"LineString","coordinates":[[-88.35327,29.97991],[-89.37871,30.97266],[-89.97074,32.15396],[-89.61582,33.41202],[-89.12475,34.62404],[-88.67216,35.82758],[-88.35763,37.04089],[-88.6481,38.23021],[-89.53951,39.19502],[-90.86114,39.78819],[-92.35432,40.0727],[-93.63522,40.68267],[-94.55046,41.61362],[-95.378,42.57946],[-96.35965,43.4495],[-97.41713,44.25628],[-98.55669,44.99636]]}},{"type":"Feature","properties":{"name":"Yangtze","scalerank":1,"na":0,"zb":"b2","len":19.61},"geometry":{"type":"LineString","coordinates":[[122.38497,32.52778],[120.9633,32.94617],[119.46522,32.91337],[118.07216,32.43622],[116.79085,31.75879],[115.31902,31.53918],[113.81595,31.43213],[112.35294,31.28042],[110.96263,31.78235],[109.48398,32.03618],[108.03241,31.74606],[106.71725,31.11236],[105.47473,30.37303],[104.10269,29.84083],[102.90646,29.0545]]}},{"type":"Feature","properties":{"name":"Mekong","scalerank":1,"na":0,"zb":"b2","len":19.1},"geometry":{"type":"LineString","coordinates":[[105.10422,8.7948],[104.37103,10.19918],[103.98297,11.71028],[104.34249,13.20233],[104.12479,14.73459],[103.46468,16.12853],[102.12742,16.8369],[100.85938,17.69704],[100.3886,19.10059],[99.35399,20.17342],[99.22864,21.62147],[98.91387,23.06063],[98.38081,24.44295]]}}]}