{
"type": "FeatureCollection",
"name": "state-labels",
"crs": { "type": "name", "properties": { "name": "urn:ogc:def:crs:OGC:1.3:CRS84" } },
"xy_coordinate_resolution": 0.001,
"features": [
{ "type": "Feature", "properties": { "name": "Washington", "postal": "WA", "min_label": 3.5, "labelrank": 0 }, "geometry": { "type": "Point", "coordinates": [ -120.361, 47.486 ] } },
{ "type": "Feature", "properties": { "name": "Idaho", "postal": "ID", "min_label": 3.5, "labelrank": 0 }, "geometry": { "type": "Point", "coordinates": [ -114.133, 43.782 ] } },
{ "type": "Feature", "properties": { "name": "Montana", "postal": "MT", "min_label": 3.5, "labelrank": 0 }, "geometry": { "type": "Point", "coordinates": [ -110.044, 46.996 ] } },
{ "type": "Feature", "properties": { "name": "North Dakota", "postal": "ND", "min_label": 3.5, "labelrank": 0 }, "geometry": { "type": "Point", "coordinates": [ -100.302, 47.468 ] } },
{ "type": "Feature", "properties": { "name": "Minnesota", "postal": "MN", "min_label": 3.5, "labelrank": 0 }, "geometry": { "type": "Point", "coordinates": [ -93.364, 46.059 ] } },
{ "type": "Feature", "properties": { "name": "Michigan", "postal": "MI", "min_label": 3.5, "labelrank": 0 }, "geometry": { "type": "Point", "coordinates": [ -84.948, 43.434 ] } },
{ "type": "Feature", "properties": { "name": "Ohio", "postal": "OH", "min_label": 3.5, "labelrank": 0 }, "geometry": { "type": "Point", "coordinates": [ -82.672, 40.092 ] } },
{ "type": "Feature", "properties": { "name": "Pennsylvania", "postal": "PA", "min_label": 3.5, "labelrank": 0 }, "geometry": { "type": "Point", "coordinates": [ -77.609, 40.86 ] } },
{ "type": "Feature", "properties": { "name": "New York", "postal": "NY", "min_label": 3.5, "labelrank": 0 }, "geometry": { "type": "Point", "coordinates": [ -75.324, 43.199 ] } },
{ "type": "Feature", "properties": { "name": "Vermont", "postal": "VT", "min_label": 3.5, "labelrank": 0 }, "geometry": { "type": "Point", "coordinates": [ -72.732, 44.089 ] } },
{ "type": "Feature", "properties": { "name": "New Hampshire", "postal": "NH", "min_label": 3.5, "labelrank": 0 }, "geometry": { "type": "Point", "coordinates": [ -71.63, 43.599 ] } },
{ "type": "Feature", "properties": { "name": "Maine", "postal": "ME", "min_label": 3.5, "labelrank": 0 }, "geometry": { "type": "Point", "coordinates": [ -69.197, 45.148 ] } },
{ "type": "Feature", "properties": { "name": "Arizona", "postal": "AZ", "min_label": 3.5, "labelrank": 0 }, "geometry": { "type": "Point", "coordinates": [ -111.935, 34.305 ] } },
{ "type": "Feature", "properties": { "name": "California", "postal": "CA", "min_label": 3.5, "labelrank": 0 }, "geometry": { "type": "Point", "coordinates": [ -119.591, 36.75 ] } },
{ "type": "Feature", "properties": { "name": "New Mexico", "postal": "NM", "min_label": 3.5, "labelrank": 0 }, "geometry": { "type": "Point", "coordinates": [ -106.024, 34.5 ] } },
{ "type": "Feature", "properties": { "name": "Texas", "postal": "TX", "min_label": 3.5, "labelrank": 0 }, "geometry": { "type": "Point", "coordinates": [ -98.761, 31.131 ] } },
{ "type": "Feature", "properties": { "name": "Alaska", "postal": "AK", "min_label": 3.5, "labelrank": 0 }, "geometry": { "type": "Point", "coordinates": [ -151.604, 65.361 ] } },
{ "type": "Feature", "properties": { "name": "Louisiana", "postal": "LA", "min_label": 3.5, "labelrank": 0 }, "geometry": { "type": "Point", "coordinates": [ -91.999, 30.527 ] } },
{ "type": "Feature", "properties": { "name": "Mississippi", "postal": "MS", "min_label": 3.5, "labelrank": 0 }, "geometry": { "type": "Point", "coordinates": [ -89.719, 32.866 ] } },
{ "type": "Feature", "properties": { "name": "Alabama", "postal": "AL", "min_label": 3.5, "labelrank": 0 }, "geometry": { "type": "Point", "coordinates": [ -86.718, 32.855 ] } },
{ "type": "Feature", "properties": { "name": "Florida", "postal": "FL", "min_label": 3.5, "labelrank": 0 }, "geometry": { "type": "Point", "coordinates": [ -81.623, 28.157 ] } },
{ "type": "Feature", "properties": { "name": "Georgia", "postal": "GA", "min_label": 3.5, "labelrank": 0 }, "geometry": { "type": "Point", "coordinates": [ -83.408, 32.855 ] } },
{ "type": "Feature", "properties": { "name": "South Carolina", "postal": "SC", "min_label": 3.5, "labelrank": 0 }, "geometry": { "type": "Point", "coordinates": [ -80.647, 33.858 ] } },
{ "type": "Feature", "properties": { "name": "North Carolina", "postal": "NC", "min_label": 3.5, "labelrank": 0 }, "geometry": { "type": "Point", "coordinates": [ -78.866, 35.615 ] } },
{ "type": "Feature", "properties": { "name": "Virginia", "postal": "VA", "min_label": 3.5, "labelrank": 0 }, "geometry": { "type": "Point", "coordinates": [ -78.243, 37.74 ] } },
{ "type": "Feature", "properties": { "name": "District of Columbia", "postal": "DC", "min_label": 3.5, "labelrank": 9 }, "geometry": { "type": "Point", "coordinates": [ -77.011, 38.892 ] } },
{ "type": "Feature", "properties": { "name": "Maryland", "postal": "MD", "min_label": 3.5, "labelrank": 0 }, "geometry": { "type": "Point", "coordinates": [ -77.045, 39.387 ] } },
{ "type": "Feature", "properties": { "name": "Delaware", "postal": "DE", "min_label": 3.5, "labelrank": 0 }, "geometry": { "type": "Point", "coordinates": [ -75.411, 38.866 ] } },
{ "type": "Feature", "properties": { "name": "New Jersey", "postal": "NJ", "min_label": 3.5, "labelrank": 0 }, "geometry": { "type": "Point", "coordinates": [ -74.465, 40.045 ] } },
{ "type": "Feature", "properties": { "name": "Connecticut", "postal": "CT", "min_label": 3.5, "labelrank": 0 }, "geometry": { "type": "Point", "coordinates": [ -72.759, 41.649 ] } },
{ "type": "Feature", "properties": { "name": "Rhode Island", "postal": "RI", "min_label": 3.5, "labelrank": 0 }, "geometry": { "type": "Point", "coordinates": [ -71.508, 41.624 ] } },
{ "type": "Feature", "properties": { "name": "Massachusetts", "postal": "MA", "min_label": 3.5, "labelrank": 0 }, "geometry": { "type": "Point", "coordinates": [ -71.999, 42.374 ] } },
{ "type": "Feature", "properties": { "name": "Oregon", "postal": "OR", "min_label": 3.5, "labelrank": 0 }, "geometry": { "type": "Point", "coordinates": [ -120.386, 43.833 ] } },
{ "type": "Feature", "properties": { "name": "Hawaii", "postal": "HI", "min_label": 3.5, "labelrank": 0 }, "geometry": { "type": "Point", "coordinates": [ -157.999, 21.492 ] } },
{ "type": "Feature", "properties": { "name": "Utah", "postal": "UT", "min_label": 3.5, "labelrank": 0 }, "geometry": { "type": "Point", "coordinates": [ -111.544, 39.501 ] } },
{ "type": "Feature", "properties": { "name": "Wyoming", "postal": "WY", "min_label": 3.5, "labelrank": 0 }, "geometry": { "type": "Point", "coordinates": [ -107.552, 43.0 ] } },
{ "type": "Feature", "properties": { "name": "Nevada", "postal": "NV", "min_label": 3.5, "labelrank": 0 }, "geometry": { "type": "Point", "coordinates": [ -117.02, 39.43 ] } },
{ "type": "Feature", "properties": { "name": "Colorado", "postal": "CO", "min_label": 3.5, "labelrank": 0 }, "geometry": { "type": "Point", "coordinates": [ -105.543, 39.0 ] } },
{ "type": "Feature", "properties": { "name": "South Dakota", "postal": "SD", "min_label": 3.5, "labelrank": 0 }, "geometry": { "type": "Point", "coordinates": [ -100.255, 44.471 ] } },
{ "type": "Feature", "properties": { "name": "Nebraska", "postal": "NE", "min_label": 3.5, "labelrank": 0 }, "geometry": { "type": "Point", "coordinates": [ -99.686, 41.5 ] } },
{ "type": "Feature", "properties": { "name": "Kansas", "postal": "KS", "min_label": 3.5, "labelrank": 0 }, "geometry": { "type": "Point", "coordinates": [ -98.331, 38.5 ] } },
{ "type": "Feature", "properties": { "name": "Oklahoma", "postal": "OK", "min_label": 3.5, "labelrank": 0 }, "geometry": { "type": "Point", "coordinates": [ -97.131, 35.452 ] } },
{ "type": "Feature", "properties": { "name": "Iowa", "postal": "IA", "min_label": 3.5, "labelrank": 0 }, "geometry": { "type": "Point", "coordinates": [ -93.389, 42.042 ] } },
{ "type": "Feature", "properties": { "name": "Missouri", "postal": "MO", "min_label": 3.5, "labelrank": 0 }, "geometry": { "type": "Point", "coordinates": [ -92.446, 38.549 ] } },
{ "type": "Feature", "properties": { "name": "Wisconsin", "postal": "WI", "min_label": 3.5, "labelrank": 0 }, "geometry": { "type": "Point", "coordinates": [ -89.583, 44.371 ] } },
{ "type": "Feature", "properties": { "name": "Illinois", "postal": "IL", "min_label": 3.5, "labelrank": 0 }, "geometry": { "type": "Point", "coordinates": [ -89.199, 39.946 ] } },
{ "type": "Feature", "properties": { "name": "Kentucky", "postal": "KY", "min_label": 3.5, "labelrank": 0 }, "geometry": { "type": "Point", "coordinates": [ -85.573, 37.399 ] } },
{ "type": "Feature", "properties": { "name": "Arkansas", "postal": "AR", "min_label": 3.5, "labelrank": 0 }, "geometry": { "type": "Point", "coordinates": [ -92.143, 34.756 ] } },
{ "type": "Feature", "properties": { "name": "Tennessee", "postal": "TN", "min_label": 3.5, "labelrank": 0 }, "geometry": { "type": "Point", "coordinates": [ -86.341, 35.751 ] } },
{ "type": "Feature", "properties": { "name": "West Virginia", "postal": "WV", "min_label": 3.5, "labelrank": 0 }, "geometry": { "type": "Point", "coordinates": [ -80.713, 38.642 ] } },
{ "type": "Feature", "properties": { "name": "Indiana", "postal": "IN", "min_label": 3.5, "labelrank": 0 }, "geometry": { "type": "Point", "coordinates": [ -86.14, 39.887 ] } }
]
}
